station;valid_date;valid_time_new;valid_date_time;tmpf;dwpf;relh;drct;sknt;p01i;alti;mslp;vsby;gust;skyc1;skyc2;skyc3;skyc4;skyl1;skyl2;skyl3;skyl4;wxcodes;ice_accretion_1hr;ice_accretion_3hr;ice_accretion_6hr;peak_wind_gust;peak_wind_drct;peak_wind_time;feel;metar;airport;snowdepth
LGA;01.01.2023;0:15;01.01.2023 00:15;46.00;45.00;96.28;0.00;0.00;0.01;29.83;;0.50;;VV ;;;;300.00;;;;-RA FG;;;;;;;46.00;KLGA 010015Z 00000KT 1/2SM R04/4500VP6000FT -RA FG VV003 08/07 A2983 RMK AO2 P0001 T00780072;LGA;
JFK;01.01.2023;0:51;01.01.2023 00:51;48.00;48.00;100.00;200.00;4.00;0.04;29.83;1010.20;0.25;;BKN;OVC;;;300.00;800.00;;;-RA FG;;;;;;;46.10;KJFK 010051Z 20004KT 1/4SM R04R/3500V5000FT -RA FG BKN003 OVC008 09/09 A2983 RMK AO2 SFC VIS 1/2 SLP102 P0004 T00890089;JFK;
LGA;01.01.2023;0:51;01.01.2023 00:51;46.00;45.00;96.28;70.00;3.00;0.03;29.82;1009.80;0.50;;VV ;;;;300.00;;;;-RA FG;;;;;;;44.69;KLGA 010051Z 07003KT 1/2SM R04/P6000FT -RA FG VV003 08/07 A2982 RMK AO2 SLP098 P0003 T00780072;LGA;
JFK;01.01.2023;1:51;01.01.2023 01:51;49.00;49.00;100.00;190.00;5.00;0.03;29.80;1009.20;0.25;;VV ;;;;300.00;;;;-RA FG;;;;;;;46.47;KJFK 010151Z 19005KT 1/4SM R04R/1800V2200FT -RA FG VV003 09/09 A2980 RMK AO2 SFC VIS 1/2 SLP092 P0003 T00940094;JFK;
LGA;01.01.2023;1:51;01.01.2023 01:51;47.00;45.00;93.06;0.00;0.00;0.04;29.79;1008.60;0.50;;VV ;;;;300.00;;;;-RA FG;;;;;;;46.90;KLGA 010151Z 00000KT 1/2SM R04/P6000FT -RA FG VV003 08/07 A2979 RMK AO2 SLP086 P0004 T00830072;LGA;
JFK;01.01.2023;2:03;01.01.2023 02:03;49.00;49.00;100.00;190.00;6.00;T;29.80;;0.25;;VV ;;;;300.00;;;;RA FG;;;;;;;45.88;KJFK 010203Z 19006KT 1/4SM R04R/2000V3000FT RA FG VV003 09/09 A2980 RMK AO2 P0000 T00940094;JFK;
LGA;01.01.2023;2:38;01.01.2023 02:38;48.00;47.00;95.95;0.00;0.00;0.08;29.79;;2.00;;OVC;;;;400.00;;;;-RA BR;;;;;;;48.00;KLGA 010238Z 00000KT 2SM R04/0700VP6000FT -RA BR OVC004 09/08 A2979 RMK AO2 P0008 T00890083;LGA;
JFK;01.01.2023;2:51;01.01.2023 02:51;49.00;49.00;100.00;230.00;5.00;0.07;29.80;1009.00;0.25;;OVC;;;;300.00;;;;RA FG;;;;;;;46.47;KJFK 010251Z 23005KT 1/4SM R04R/3500V5000FT RA FG OVC003 09/09 A2980 RMK AO2 SFC VIS 1/2 SLP090 P0007 60014 T00940094 56018;JFK;
LGA;01.01.2023;2:51;01.01.2023 02:51;47.00;46.00;96.66;0.00;0.00;0.11;29.79;1008.60;2.00;;OVC;;;;400.00;;;;-RA BR;;;;;;;46.90;KLGA 010251Z 00000KT 2SM R04/4500VP6000FT -RA BR OVC004 08/08 A2979 RMK AO2 SLP086 P0011 60018 T00830078 56017;LGA;
LGA;01.01.2023;3:51;01.01.2023 03:51;54.00;52.00;92.92;240.00;6.00;0.06;29.75;1007.40;8.00;;BKN;OVC;;;400.00;1500.00;;;-RA;;;;;;;54.00;KLGA 010351Z 24006KT 8SM -RA BKN004 OVC015 12/11 A2975 RMK AO2 SLP074 P0006 T01220111;LGA;
JFK;01.01.2023;3:51;01.01.2023 03:51;49.00;49.00;100.00;180.00;7.00;0.07;29.77;1008.00;0.25;;BKN;BKN;OVC;;400.00;4700.00;5500.00;;BR;;;;;;;45.38;KJFK 010351Z 18007KT 1/4SM R04R/2000VP6000FT BR BKN004 BKN047 OVC055 09/09 A2977 RMK AO2 SFC VIS 1 VIS 3/4V1 1/2 RAE42 SLP080 P0007 T00940094;JFK;
JFK;01.01.2023;4:05;01.01.2023 04:05;49.00;49.00;100.00;160.00;7.00;T;29.77;;0.25;;BKN;OVC;;;300.00;7500.00;;;-RA BR;;;;;;;45.38;KJFK 010405Z 16007KT 1/4SM R04R/1800V2200FT -RA BR BKN003 OVC075 09/09 A2977 RMK AO2 SFC VIS 3/4 RAB0354 P0000 T00940094;JFK;
JFK;01.01.2023;4:18;01.01.2023 04:18;49.00;49.00;100.00;240.00;8.00;T;29.79;;0.25;;BKN;OVC;;;400.00;7000.00;;;-RA BR;;;;;;;44.93;KJFK 010418Z 24008KT 1/4SM R04R/2400VP6000FT -RA BR BKN004 OVC070 09/09 A2979 RMK AO2 SFC VIS 1 1/4 RAB0354 P0000 T00940094;JFK;
JFK;01.01.2023;4:51;01.01.2023 04:51;49.00;49.00;100.00;240.00;4.00;0.02;29.76;1007.80;0.25;;OVC;;;;400.00;;;;-RA FG;;;;;;;47.16;KJFK 010451Z 24004KT 1/4SM R04R/1800FT -RA FG OVC004 09/09 A2976 RMK AO2 SFC VIS 1/2 RAB0354 PRESFR SLP078 P0002 T00940094 401060050;JFK;
LGA;01.01.2023;4:51;01.01.2023 04:51;54.00;51.00;89.88;190.00;6.00;T;29.75;1007.30;10.00;;BKN;BKN;OVC;;400.00;3300.00;8000.00;;-RA;;;;;;;54.00;KLGA 010451Z 19006KT 10SM -RA BKN004 BKN033 OVC080 12/11 A2975 RMK AO2 PRESFR SLP073 P0000 T01220106 401280056;LGA;
LGA;01.01.2023;5:19;01.01.2023 05:19;53.00;51.00;92.89;280.00;3.00;T;29.71;;10.00;;SCT;BKN;OVC;;400.00;1700.00;8000.00;;-RA;;;;;;;53.10;KLGA 010519Z 28003KT 10SM -RA SCT004 BKN017 OVC080 12/11 A2971 RMK AO2 P0000 T01170106;LGA;
JFK;01.01.2023;5:51;01.01.2023 05:51;48.00;48.00;100.00;240.00;9.00;T;29.76;1007.60;0.25;;VV ;;;;200.00;;;;FG;;;;;;;43.41;KJFK 010551Z 24009KT 1/4SM R04R/1400FT FG VV002 09/09 A2976 RMK AO2 RAE03B27E37 SLP076 P0000 60023 T00890089 10100 20083 58004;JFK;
LGA;01.01.2023;5:51;01.01.2023 05:51;53.00;50.00;89.18;220.00;6.00;T;29.74;1007.20;10.00;;SCT;BKN;OVC;;400.00;1700.00;8000.00;;-RA;;;;;;;53.10;KLGA 010551Z 22006KT 10SM -RA SCT004 BKN017 OVC080 12/10 A2974 RMK AO2 SLP072 P0000 60024 T01170100 10128 20078 56015;LGA;
LGA;01.01.2023;6:24;01.01.2023 06:24;54.00;50.00;86.29;;3.00;0.02;29.72;;10.00;;FEW;SCT;BKN;;400.00;1500.00;8000.00;;-RA;;;;;;;54.00;KLGA 010624Z VRB03KT 10SM -RA FEW004 SCT015 BKN080 12/10 A2972 RMK AO2 P0002 T01220100;LGA;
JFK;01.01.2023;6:51;01.01.2023 06:51;46.00;46.00;100.00;240.00;8.00;0.00;29.75;1007.30;0.25;;VV ;;;;200.00;;;;FG;;;;;;;41.36;KJFK 010651Z 24008KT 1/4SM R04R/1000V1200FT FG VV002 08/08 A2975 RMK AO2 TWR VIS 1/4 SLP073 T00780078;JFK;
LGA;01.01.2023;6:51;01.01.2023 06:51;54.00;50.00;86.29;250.00;10.00;0.02;29.73;1006.70;10.00;;SCT;BKN;;;1500.00;8000.00;;;-RA;;;;;;;54.00;KLGA 010651Z 25010KT 10SM -RA SCT015 BKN080 12/10 A2973 RMK AO2 SLP067 P0002 T01220100;LGA;
JFK;01.01.2023;7:15;01.01.2023 07:15;46.00;46.00;100.00;250.00;9.00;0.00;29.76;;0.25;;BKN;OVC;;;500.00;1000.00;;;FG;;;;;;;40.92;KJFK 010715Z 25009KT 1/4SM R04R/1400V4500FT FG BKN005 OVC010 08/08 A2976 RMK AO2 SFC VIS 1/2 T00780078;JFK;
JFK;01.01.2023;7:25;01.01.2023 07:25;46.00;46.00;100.00;250.00;9.00;0.00;29.77;;0.75;;VV ;;;;700.00;;;;BR;;;;;;;40.92;KJFK 010725Z 25009KT 3/4SM R04R/1800V2400FT BR VV007 08/08 A2977 RMK AO2 TWR VIS 5 T00780078;JFK;
JFK;01.01.2023;7:29;01.01.2023 07:29;46.00;46.00;100.00;250.00;8.00;0.00;29.77;;1.00;;VV ;;;;800.00;;;;BR;;;;;;;41.36;KJFK 010729Z 25008KT 1SM R04R/1600V2200FT BR VV008 08/08 A2977 RMK AO2 TWR VIS 5 T00780078;JFK;
JFK;01.01.2023;7:39;01.01.2023 07:39;47.00;47.00;100.00;260.00;8.00;0.00;29.77;;2.00;;BKN;;;;800.00;;;;BR;;;;;;;42.47;KJFK 010739Z 26008KT 2SM R04R/1600V2200FT BR BKN008 08/08 A2977 RMK AO2 TWR VIS 5 T00830083;JFK;
JFK;01.01.2023;7:51;01.01.2023 07:51;49.00;49.00;100.00;260.00;11.00;0.00;29.78;1008.30;6.00;;FEW;BKN;BKN;;800.00;8000.00;25000.00;;BR;;;;;;;43.82;KJFK 010751Z 26011KT 6SM R04R/4000VP6000FT BR FEW008 BKN080 BKN250 09/09 A2978 RMK AO2 SLP083 T00940094;JFK;
LGA;01.01.2023;7:51;01.01.2023 07:51;54.00;49.00;82.82;260.00;10.00;T;29.76;1007.70;10.00;;SCT;;;;1500.00;;;;-RA;;;;;;;54.00;KLGA 010751Z 26010KT 10SM -RA SCT015 12/09 A2976 RMK AO2 SLP077 P0000 T01220094;LGA;
JFK;01.01.2023;8:51;01.01.2023 08:51;48.00;48.00;100.00;250.00;10.00;0.00;29.79;1008.60;6.00;;FEW;BKN;;;4500.00;25000.00;;;BR;;;;;;;43.03;KJFK 010851Z COR 25010KT 6SM BR FEW045 BKN250 09/09 A2979 RMK AO2 VIS 2 1/2 W SLP086 T00890089 53010;JFK;
LGA;01.01.2023;8:51;01.01.2023 08:51;54.00;48.00;80.07;270.00;9.00;T;29.77;1008.00;10.00;;FEW;FEW;;;1500.00;25000.00;;;-RA;;;;;;;54.00;KLGA 010851Z 27009KT 10SM -RA FEW015 FEW250 12/09 A2977 RMK AO2 SLP080 P0000 60002 T01220089 53008;LGA;
JFK;01.01.2023;9:51;01.01.2023 09:51;47.00;47.00;100.00;250.00;9.00;0.00;29.80;1009.00;5.00;;SCT;SCT;;;6000.00;25000.00;;;BR;;;;;;;42.04;KJFK 010951Z 25009KT 5SM BR SCT060 SCT250 08/08 A2980 RMK AO2 SLP090 T00830083;JFK;
LGA;01.01.2023;9:51;01.01.2023 09:51;53.00;46.00;76.75;250.00;5.00;T;29.78;1008.40;10.00;;FEW;FEW;;;1500.00;25000.00;;;-RA;;;;;;;53.10;KLGA 010951Z 25005KT 10SM -RA FEW015 FEW250 12/08 A2978 RMK AO2 SLP084 P0000 T01170078;LGA;
LGA;01.01.2023;10:51;01.01.2023 10:51;53.00;45.00;73.89;250.00;10.00;T;29.81;1009.30;10.00;;FEW;FEW;;;1500.00;25000.00;;;;;;;;;;53.10;KLGA 011051Z 25010KT 10SM FEW015 FEW250 12/07 A2981 RMK AO2 RAE36 SLP093 P0000 T01170072;LGA;
JFK;01.01.2023;10:51;01.01.2023 10:51;45.00;45.00;100.00;260.00;10.00;0.00;29.82;1009.90;3.00;;FEW;SCT;SCT;;1100.00;13000.00;25000.00;;BR;;;;;;;39.27;KJFK 011051Z 26010KT 3SM BR FEW011 SCT130 SCT250 07/07 A2982 RMK AO2 SLP099 T00720072;JFK;
LGA;01.01.2023;11:51;01.01.2023 11:51;52.00;45.00;76.94;260.00;8.00;0.00;29.83;1010.30;10.00;;FEW;SCT;;;1500.00;10000.00;;;;;;;;;;52.00;KLGA 011151Z 26008KT 10SM FEW015 SCT100 11/07 A2983 RMK AO2 SLP103 60002 70033 T01110072 10128 20106 53023;LGA;
JFK;01.01.2023;11:51;01.01.2023 11:51;44.00;44.00;100.00;250.00;8.00;0.00;29.84;1010.50;6.00;;FEW;FEW;;;2000.00;25000.00;;;BR;;;;;;;39.02;KJFK 011151Z 25008KT 6SM BR FEW020 FEW250 07/07 A2984 RMK AO2 SLP105 70027 T00670067 10094 20056 53019;JFK;
JFK;01.01.2023;12:51;01.01.2023 12:51;45.00;45.00;100.00;230.00;10.00;0.00;29.87;1011.40;7.00;;FEW;FEW;BKN;;2000.00;13000.00;25000.00;;MIFG;;;;;;;39.27;KJFK 011251Z 23010KT 7SM MIFG FEW020 FEW130 BKN250 07/07 A2987 RMK AO2 SLP114 T00720072;JFK;
LGA;01.01.2023;12:51;01.01.2023 12:51;50.00;41.00;71.07;300.00;8.00;0.00;29.85;1010.90;10.00;;FEW;SCT;SCT;SCT;2000.00;9000.00;19000.00;25000.00;;;;;;;;50.00;KLGA 011251Z 30008KT 10SM FEW020 SCT090 SCT190 SCT250 10/05 A2985 RMK AO2 SLP109 T01000050;LGA;
LGA;01.01.2023;13:51;01.01.2023 13:51;51.00;40.00;65.38;300.00;13.00;0.00;29.87;1011.50;10.00;19.00;FEW;SCT;SCT;BKN;2500.00;8000.00;19000.00;25000.00;;;;;;;;51.10;KLGA 011351Z 30013G19KT 10SM FEW025 SCT080 SCT190 BKN250 11/04 A2987 RMK AO2 SLP115 T01060044;LGA;
JFK;01.01.2023;13:51;01.01.2023 13:51;50.00;47.00;89.04;260.00;8.00;0.00;29.89;1012.30;10.00;;FEW;FEW;BKN;;2000.00;13000.00;25000.00;;;;;;;;;50.00;KJFK 011351Z 26008KT 10SM FEW020 FEW130 BKN250 10/08 A2989 RMK AO2 SLP123 T01000083;JFK;
LGA;01.01.2023;14:51;01.01.2023 14:51;51.00;40.00;65.38;310.00;11.00;0.00;29.92;1013.20;10.00;;FEW;FEW;SCT;BKN;2800.00;7500.00;17000.00;21000.00;;;;;;;;51.10;KLGA 011451Z 31011KT 10SM FEW028 FEW075 SCT170 BKN210 BKN250 11/04 A2992 RMK AO2 SLP132 T01060044 53029;LGA;
JFK;01.01.2023;14:51;01.01.2023 14:51;50.00;46.00;86.06;260.00;9.00;0.00;29.93;1013.30;10.00;;FEW;FEW;BKN;;2000.00;13000.00;25000.00;;;;;;;;;50.00;KJFK 011451Z 26009KT 10SM FEW020 FEW130 BKN250 10/08 A2993 RMK AO2 SLP133 T01000078 53028;JFK;
JFK;01.01.2023;15:51;01.01.2023 15:51;54.00;41.00;61.32;290.00;10.00;0.00;29.94;1013.90;10.00;19.00;FEW;SCT;BKN;;3100.00;13000.00;25000.00;;;;;;;;;54.00;KJFK 011551Z 29010G19KT 10SM FEW031 SCT130 BKN250 12/05 A2994 RMK AO2 SLP139 T01220050;JFK;
LGA;01.01.2023;15:51;01.01.2023 15:51;51.00;39.00;63.12;320.00;12.00;0.00;29.94;1013.70;10.00;;FEW;SCT;SCT;BKN;2700.00;8000.00;20000.00;25000.00;;;;;;;;51.10;KLGA 011551Z 32012KT 10SM FEW027 SCT080 SCT200 BKN250 11/04 A2994 RMK AO2 SLP137 T01060039;LGA;
JFK;01.01.2023;16:51;01.01.2023 16:51;55.00;39.00;54.70;290.00;14.00;0.00;29.92;1013.30;10.00;;FEW;FEW;FEW;;3000.00;13000.00;25000.00;;;;;;;;;55.00;KJFK 011651Z 29014KT 10SM FEW030 FEW130 FEW250 13/04 A2992 RMK AO2 SLP133 T01280039;JFK;
LGA;01.01.2023;16:51;01.01.2023 16:51;51.00;36.00;56.10;320.00;10.00;0.00;29.92;1013.00;10.00;;FEW;FEW;SCT;SCT;3400.00;8000.00;15000.00;20000.00;;;;;;;;51.10;KLGA 011651Z 32010KT 10SM FEW034 FEW080 SCT150 SCT200 SCT250 11/02 A2992 RMK AO2 SLP130 T01060022;LGA;
LGA;01.01.2023;17:51;01.01.2023 17:51;52.00;35.00;52.36;310.00;16.00;0.00;29.93;1013.40;10.00;20.00;FEW;FEW;FEW;;3600.00;16000.00;20000.00;;;;;;;;;52.00;KLGA 011751Z 31016G20KT 10SM FEW036 FEW160 FEW200 11/02 A2993 RMK AO2 SLP134 T01110017 10117 20100 51002;LGA;
JFK;01.01.2023;17:51;01.01.2023 17:51;55.00;39.00;54.70;290.00;13.00;0.00;29.94;1013.70;10.00;;FEW;FEW;SCT;;3000.00;13000.00;25000.00;;;;;;;;;55.00;KJFK 011751Z 29013KT 10SM FEW030 FEW130 SCT250 13/04 A2994 RMK AO2 SLP137 T01280039 10133 20067 51003;JFK;
JFK;01.01.2023;18:51;01.01.2023 18:51;55.00;36.00;48.62;300.00;9.00;0.00;29.93;1013.30;10.00;;FEW;FEW;SCT;;3000.00;13000.00;25000.00;;;;;;;;;55.00;KJFK 011851Z 30009KT 10SM FEW030 FEW130 SCT250 13/02 A2993 RMK AO2 SLP133 T01280022;JFK;
LGA;01.01.2023;18:51;01.01.2023 18:51;53.00;34.00;48.13;310.00;12.00;0.00;29.92;1013.10;10.00;;FEW;FEW;FEW;;4000.00;15000.00;20000.00;;;;;;;;;53.10;KLGA 011851Z 31012KT 10SM FEW040 FEW150 FEW200 12/01 A2992 RMK AO2 SLP131 T01170011;LGA;
JFK;01.01.2023;19:51;01.01.2023 19:51;55.00;34.00;44.90;280.00;10.00;0.00;29.94;1013.60;10.00;;FEW;SCT;;;13000.00;25000.00;;;;;;;;;;55.00;KJFK 011951Z 28010KT 10SM FEW130 SCT250 13/01 A2994 RMK AO2 SLP136 T01280011;JFK;
LGA;01.01.2023;19:51;01.01.2023 19:51;53.00;30.90;42.48;320.00;10.00;0.00;29.93;1013.50;10.00;;FEW;FEW;SCT;;4000.00;15000.00;25000.00;;;;;;;;;53.10;KLGA 011951Z 32010KT 10SM FEW040 FEW150 SCT250 12/M01 A2993 RMK AO2 SLP135 T01171006;LGA;
LGA;01.01.2023;20:51;01.01.2023 20:51;51.00;32.00;47.81;310.00;9.00;0.00;29.94;1013.90;10.00;;FEW;FEW;;;12000.00;25000.00;;;;;;;;;;51.10;KLGA 012051Z 31009KT 10SM FEW120 FEW250 11/00 A2994 RMK AO2 SLP139 T01060000 53005;LGA;
JFK;01.01.2023;20:51;01.01.2023 20:51;54.00;33.00;44.92;300.00;9.00;0.00;29.95;1014.20;10.00;;FEW;SCT;;;13000.00;25000.00;;;;;;;;;;54.00;KJFK 012051Z 30009KT 10SM FEW130 SCT250 12/01 A2995 RMK AO2 SLP142 T01220006 53005;JFK;
LGA;01.01.2023;21:51;01.01.2023 21:51;51.00;30.90;45.73;340.00;7.00;0.00;29.96;1014.30;10.00;;BKN;BKN;;;12000.00;25000.00;;;;;;;;;;51.10;KLGA 012151Z 34007KT 10SM BKN120 BKN250 11/M01 A2996 RMK AO2 SLP143 T01061006;LGA;
JFK;01.01.2023;21:51;01.01.2023 21:51;52.00;33.00;48.34;310.00;7.00;0.00;29.97;1014.80;10.00;;BKN;BKN;;;12000.00;25000.00;;;;;;;;;;52.00;KJFK 012151Z 31007KT 10SM BKN120 BKN250 11/01 A2997 RMK AO2 SLP148 T01110006;JFK;
JFK;01.01.2023;22:51;01.01.2023 22:51;47.00;33.00;58.47;0.00;0.00;0.00;29.98;1015.20;10.00;;BKN;BKN;;;11000.00;25000.00;;;;;;;;;;46.90;KJFK 012251Z 00000KT 10SM BKN110 BKN250 08/01 A2998 RMK AO2 SLP152 T00830006;JFK;
LGA;01.01.2023;22:51;01.01.2023 22:51;50.00;30.90;47.64;20.00;3.00;0.00;29.96;1014.60;10.00;;FEW;FEW;;;11000.00;25000.00;;;;;;;;;;50.00;KLGA 012251Z 02003KT 10SM FEW110 FEW250 10/M01 A2996 RMK AO2 SLP146 T01001006;LGA;
JFK;01.01.2023;23:51;01.01.2023 23:51;47.00;38.00;70.73;260.00;10.00;0.00;30.01;1016.20;10.00;;FEW;FEW;;;11000.00;25000.00;;;;;;;;;;41.65;KJFK 012351Z 26010KT 10SM FEW110 FEW250 08/03 A3001 RMK AO2 SLP162 T00830033 10133 20072 53021;JFK;
LGA;01.01.2023;23:51;01.01.2023 23:51;50.00;30.90;47.64;0.00;0.00;0.00;29.99;1015.50;10.00;;FEW;FEW;;;10000.00;25000.00;;;;;;;;;;50.00;KLGA 012351Z 00000KT 10SM FEW100 FEW250 10/M01 A2999 RMK AO2 SLP155 T01001006 10122 20078 53017;LGA;
JFK;02.01.2023;0:51;02.01.2023 00:51;43.00;37.00;79.19;230.00;8.00;0.00;30.03;1016.80;10.00;;FEW;FEW;;;11000.00;25000.00;;;;;;;;;;37.66;KJFK 020051Z 23008KT 10SM FEW110 FEW250 06/03 A3003 RMK AO2 SLP168 T00610028;JFK;
LGA;02.01.2023;0:51;02.01.2023 00:51;50.00;32.00;49.81;260.00;6.00;0.00;30.01;1016.10;10.00;;FEW;FEW;;;10000.00;25000.00;;;;;;;;;;50.00;KLGA 020051Z 26006KT 10SM FEW100 FEW250 10/00 A3001 RMK AO2 SLP161 T01000000;LGA;
LGA;02.01.2023;1:51;02.01.2023 01:51;50.00;33.00;52.06;250.00;6.00;0.00;30.02;1016.60;10.00;;SCT;BKN;BKN;;5500.00;9500.00;25000.00;;;;;;;;;50.00;KLGA 020151Z 25006KT 10SM SCT055 BKN095 BKN250 10/01 A3002 RMK AO2 SLP166 T01000006;LGA;
JFK;02.01.2023;1:51;02.01.2023 01:51;44.00;38.00;78.66;240.00;9.00;0.00;30.04;1017.10;10.00;;SCT;SCT;;;9000.00;25000.00;;;;;;;;;;38.56;KJFK 020151Z 24009KT 10SM SCT090 SCT250 07/03 A3004 RMK AO2 SLP171 T00670033;JFK;
JFK;02.01.2023;2:51;02.01.2023 02:51;46.00;38.00;73.18;250.00;7.00;0.00;30.04;1017.20;10.00;;BKN;BKN;BKN;;6000.00;7000.00;25000.00;;;;;;;;;41.84;KJFK 020251Z 25007KT 10SM BKN060 BKN070 BKN250 08/03 A3004 RMK AO2 SLP172 T00780033 51010;JFK;
LGA;02.01.2023;2:51;02.01.2023 02:51;51.00;32.00;47.81;270.00;6.00;0.00;30.03;1016.70;10.00;;BKN;BKN;;;6000.00;25000.00;;;;;;;;;;51.10;KLGA 020251Z 27006KT 10SM BKN060 BKN250 11/00 A3003 RMK AO2 SLP167 T01060000 51012;LGA;
JFK;02.01.2023;3:51;02.01.2023 03:51;45.00;38.00;76.01;230.00;7.00;0.00;30.05;1017.50;10.00;;OVC;;;;6000.00;;;;;;;;;;;40.63;KJFK 020351Z 23007KT 10SM OVC060 07/03 A3005 RMK AO2 SLP175 T00720033;JFK;
LGA;02.01.2023;3:51;02.01.2023 03:51;51.00;34.00;51.81;280.00;5.00;0.00;30.03;1016.90;10.00;;OVC;;;;5500.00;;;;;;;;;;;51.10;KLGA 020351Z 28005KT 10SM OVC055 11/01 A3003 RMK AO2 SLP169 T01060011;LGA;
JFK;02.01.2023;4:51;02.01.2023 04:51;45.00;38.00;76.01;250.00;5.00;0.00;30.04;1017.30;10.00;;OVC;;;;6000.00;;;;;;;;;;;41.83;KJFK 020451Z 25005KT 10SM OVC060 07/03 A3004 RMK AO2 SLP173 T00720033 401330056;JFK;
LGA;02.01.2023;4:51;02.01.2023 04:51;50.00;34.00;53.97;0.00;0.00;T;30.03;1016.70;10.00;;BKN;BKN;;;5500.00;10000.00;;;;;;;;;;50.00;KLGA 020451Z 00000KT 10SM BKN055 BKN100 10/01 A3003 RMK AO2 RAB0354E03 SLP167 P0000 T01000011 401280078;LGA;
JFK;02.01.2023;5:51;02.01.2023 05:51;43.00;37.00;79.19;240.00;4.00;0.00;30.04;1017.10;10.00;;SCT;BKN;;;6500.00;25000.00;;;;;;;;;;40.27;KJFK 020551Z 24004KT 10SM SCT065 BKN250 06/03 A3004 RMK AO2 SLP171 T00610028 10094 20050 58001;JFK;
LGA;02.01.2023;5:51;02.01.2023 05:51;50.00;34.00;53.97;0.00;0.00;0.00;30.02;1016.50;10.00;;SCT;SCT;;;6000.00;12000.00;;;;;;;;;;50.00;KLGA 020551Z 00000KT 10SM SCT060 SCT120 10/01 A3002 RMK AO2 SLP165 60000 T01000011 10111 20083 58002;LGA;
JFK;02.01.2023;6:51;02.01.2023 06:51;43.00;38.00;82.04;230.00;6.00;0.00;30.05;1017.40;10.00;;BKN;OVC;;;4600.00;25000.00;;;;;;;;;;38.78;KJFK 020651Z 23006KT 10SM BKN046 OVC250 06/03 A3005 RMK AO2 SLP174 T00610033;JFK;
LGA;02.01.2023;6:51;02.01.2023 06:51;51.00;36.00;56.10;300.00;6.00;0.00;30.03;1016.80;10.00;;BKN;BKN;;;6000.00;12000.00;;;;;;;;;;51.10;KLGA 020651Z 30006KT 10SM BKN060 BKN120 11/02 A3003 RMK AO2 SLP168 T01060022 $;LGA;
LGA;02.01.2023;7:51;02.01.2023 07:51;50.00;36.00;58.44;290.00;4.00;0.00;30.06;1017.90;10.00;;SCT;SCT;;;6000.00;12000.00;;;;;;;;;;50.00;KLGA 020751Z 29004KT 10SM SCT060 SCT120 10/02 A3006 RMK AO2 SLP179 T01000022 $;LGA;
JFK;02.01.2023;7:51;02.01.2023 07:51;42.00;38.00;84.93;240.00;7.00;0.00;30.08;1018.50;10.00;;SCT;OVC;;;4700.00;23000.00;;;;;;;;;;37.09;KJFK 020751Z 24007KT 10SM SCT047 OVC230 06/03 A3008 RMK AO2 SLP185 T00560033;JFK;
JFK;02.01.2023;8:51;02.01.2023 08:51;39.00;38.00;95.78;240.00;7.00;0.00;30.07;1018.30;10.00;;BKN;;;;22000.00;;;;;;;;;;;33.31;KJFK 020851Z 24007KT 10SM BKN220 04/03 A3007 RMK AO2 SLP183 T00390033 50012;JFK;
LGA;02.01.2023;8:51;02.01.2023 08:51;49.00;35.00;58.75;300.00;5.00;0.00;30.06;1017.90;10.00;;SCT;SCT;;;5000.00;12000.00;;;;;;;;;;46.47;KLGA 020851Z 30005KT 10SM SCT050 SCT120 09/02 A3006 RMK AO2 SLP179 T00940017 51015 $;LGA;
JFK;02.01.2023;9:51;02.01.2023 09:51;41.00;38.00;88.62;250.00;3.00;0.00;30.09;1018.80;10.00;;BKN;;;;22000.00;;;;;;;;;;;38.98;KJFK 020951Z 25003KT 10SM BKN220 05/03 A3009 RMK AO2 SLP188 T00500033;JFK;
LGA;02.01.2023;9:51;02.01.2023 09:51;50.00;36.00;58.44;260.00;3.00;0.00;30.07;1018.10;10.00;;FEW;BKN;;;5000.00;12000.00;;;;;;;;;;50.00;KLGA 020951Z 26003KT 10SM FEW050 BKN120 10/02 A3007 RMK AO2 SLP181 T01000022 $;LGA;
LGA;02.01.2023;10:51;02.01.2023 10:51;50.00;37.00;60.79;300.00;6.00;0.00;30.07;1018.40;10.00;;FEW;BKN;BKN;;5000.00;12000.00;25000.00;;;;;;;;;50.00;KLGA 021051Z 30006KT 10SM FEW050 BKN120 BKN250 10/03 A3007 RMK AO2 SLP184 T01000028 $;LGA;
JFK;02.01.2023;10:51;02.01.2023 10:51;41.00;38.00;88.62;210.00;6.00;0.00;30.10;1019.10;10.00;;BKN;OVC;;;15000.00;22000.00;;;;;;;;;;36.37;KJFK 021051Z 21006KT 10SM BKN150 OVC220 05/03 A3010 RMK AO2 SLP191 T00500033;JFK;
LGA;02.01.2023;11:51;02.01.2023 11:51;50.00;37.00;60.79;270.00;3.00;0.00;30.10;1019.20;10.00;;FEW;BKN;BKN;;5000.00;14000.00;22000.00;;;;;;;;;50.00;KLGA 021151Z 27003KT 10SM FEW050 BKN140 BKN220 10/03 A3010 RMK AO2 SLP192 T01000028 10106 20094 53012;LGA;
JFK;02.01.2023;11:51;02.01.2023 11:51;42.00;39.00;88.67;250.00;8.00;0.00;30.12;1019.80;10.00;;FEW;BKN;BKN;;9500.00;16000.00;22000.00;;;;;;;;;36.55;KJFK 021151Z 25008KT 10SM FEW095 BKN160 BKN220 06/04 A3012 RMK AO2 SLP198 T00560039 10067 20039 53015;JFK;
JFK;02.01.2023;12:51;02.01.2023 12:51;46.00;39.00;76.40;260.00;9.00;0.00;30.14;1020.50;10.00;;FEW;BKN;BKN;;9500.00;15000.00;22000.00;;;;;;;;;40.92;KJFK 021251Z 26009KT 10SM FEW095 BKN150 BKN220 08/04 A3014 RMK AO2 SLP205 T00780039;JFK;
LGA;02.01.2023;12:51;02.01.2023 12:51;50.00;37.00;60.79;260.00;5.00;0.00;30.12;1019.90;10.00;;FEW;BKN;BKN;;5000.00;14000.00;22000.00;;;;;;;;;50.00;KLGA 021251Z 26005KT 10SM FEW050 BKN140 BKN220 10/03 A3012 RMK AO2 SLP199 T01000028;LGA;
JFK;02.01.2023;13:51;02.01.2023 13:51;45.00;39.00;79.36;240.00;7.00;0.00;30.15;1020.90;10.00;;FEW;BKN;BKN;;8000.00;17000.00;25000.00;;;;;;;;;40.63;KJFK 021351Z 24007KT 10SM FEW080 BKN170 BKN250 07/04 A3015 RMK AO2 SLP209 T00720039;JFK;
LGA;02.01.2023;13:51;02.01.2023 13:51;50.00;37.00;60.79;310.00;6.00;0.00;30.13;1020.40;10.00;;FEW;BKN;BKN;;5000.00;14000.00;22000.00;;;;;;;;;50.00;KLGA 021351Z 31006KT 10SM FEW050 BKN140 BKN220 10/03 A3013 RMK AO2 SLP204 T01000028;LGA;
JFK;02.01.2023;14:51;02.01.2023 14:51;49.00;40.00;70.95;240.00;7.00;0.00;30.15;1021.00;10.00;;BKN;BKN;;;16000.00;25000.00;;;;;;;;;;45.38;KJFK 021451Z 24007KT 10SM BKN160 BKN250 09/04 A3015 RMK AO2 SLP210 T00940044 51012;JFK;
LGA;02.01.2023;14:51;02.01.2023 14:51;50.00;37.00;60.79;310.00;6.00;0.00;30.14;1020.50;10.00;;FEW;BKN;BKN;;5000.00;14000.00;22000.00;;;;;;;;;50.00;KLGA 021451Z 31006KT 10SM FEW050 BKN140 BKN220 10/03 A3014 RMK AO2 SLP205 T01000028 51013;LGA;
LGA;02.01.2023;15:51;02.01.2023 15:51;50.00;37.00;60.79;310.00;5.00;0.00;30.13;1020.30;10.00;;BKN;BKN;;;15000.00;25000.00;;;;;;;;;;50.00;KLGA 021551Z 31005KT 10SM BKN150 BKN250 10/03 A3013 RMK AO2 SLP203 T01000028;LGA;
JFK;02.01.2023;15:51;02.01.2023 15:51;51.00;41.00;68.23;260.00;5.00;0.00;30.14;1020.60;10.00;;BKN;BKN;;;16000.00;25000.00;;;;;;;;;;51.10;KJFK 021551Z 26005KT 10SM BKN160 BKN250 11/05 A3014 RMK AO2 SLP206 T01060050;JFK;
LGA;02.01.2023;16:51;02.01.2023 16:51;52.00;38.00;58.48;330.00;3.00;0.00;30.10;1019.40;10.00;;BKN;BKN;;;15000.00;25000.00;;;;;;;;;;52.00;KLGA 021651Z COR 33003KT 10SM BKN150 BKN250 11/03 A3010 RMK AO2 SLP194 T01110033;LGA;
JFK;02.01.2023;16:51;02.01.2023 16:51;53.00;41.00;63.38;230.00;4.00;0.00;30.12;1019.80;10.00;;FEW;BKN;BKN;;8500.00;15000.00;25000.00;;;;;;;;;53.10;KJFK 021651Z 23004KT 10SM FEW085 BKN150 BKN250 12/05 A3012 RMK AO2 SLP198 T01170050;JFK;
LGA;02.01.2023;17:51;02.01.2023 17:51;55.00;37.00;50.58;;6.00;0.00;30.09;1019.00;10.00;;FEW;BKN;BKN;;7500.00;15000.00;25000.00;;;;;;;;;55.00;KLGA 021751Z VRB06KT 10SM FEW075 BKN150 BKN250 13/03 A3009 RMK AO2 SLP190 T01280028 10128 20094 58015;LGA;
JFK;02.01.2023;17:51;02.01.2023 17:51;54.00;41.00;61.32;240.00;6.00;0.00;30.11;1019.60;10.00;;FEW;BKN;;;8500.00;14000.00;;;;;;;;;;54.00;KJFK 021751Z 24006KT 10SM FEW085 BKN140 12/05 A3011 RMK AO2 SLP196 T01220050 10128 20056 56014;JFK;
LGA;02.01.2023;18:51;02.01.2023 18:51;56.00;38.00;50.71;;3.00;0.00;30.09;1018.90;10.00;;FEW;BKN;OVC;;7500.00;13000.00;25000.00;;;;;;;;;55.90;KLGA 021851Z VRB03KT 10SM FEW075 BKN130 OVC250 13/03 A3009 RMK AO2 SLP189 T01330033;LGA;
JFK;02.01.2023;18:51;02.01.2023 18:51;51.00;42.00;71.19;180.00;6.00;0.00;30.11;1019.50;10.00;;FEW;BKN;;;8500.00;13000.00;;;;;;;;;;51.10;KJFK 021851Z 18006KT 10SM FEW085 BKN130 11/06 A3011 RMK AO2 SLP195 T01060056;JFK;
JFK;02.01.2023;19:51;02.01.2023 19:51;50.00;42.00;74.15;190.00;8.00;0.00;30.12;1020.00;10.00;;FEW;SCT;BKN;;3700.00;10000.00;13000.00;;;;;;;;;50.00;KJFK 021951Z 19008KT 10SM FEW037 SCT100 BKN130 10/06 A3012 RMK AO2 SLP200 T01000056;JFK;
LGA;02.01.2023;19:51;02.01.2023 19:51;56.00;39.00;52.94;230.00;8.00;0.00;30.10;1019.30;10.00;;FEW;BKN;;;7500.00;13000.00;;;;;;;;;;55.90;KLGA 021951Z 23008KT 10SM FEW075 BKN130 13/04 A3010 RMK AO2 SLP193 T01330039;LGA;
LGA;02.01.2023;20:51;02.01.2023 20:51;55.00;39.00;54.70;190.00;6.00;0.00;30.11;1019.70;10.00;;FEW;SCT;BKN;;3700.00;10000.00;13000.00;;;;;;;;;55.00;KLGA 022051Z 19006KT 10SM FEW037 SCT100 BKN130 13/04 A3011 RMK AO2 SLP197 T01280039 53007;LGA;
JFK;02.01.2023;20:51;02.01.2023 20:51;50.00;42.00;74.15;200.00;9.00;0.00;30.13;1020.30;10.00;;SCT;BKN;BKN;;3300.00;13000.00;25000.00;;;;;;;;;50.00;KJFK 022051Z 20009KT 10SM SCT033 BKN130 BKN250 10/06 A3013 RMK AO2 SLP203 T01000056 53007;JFK;
JFK;02.01.2023;21:51;02.01.2023 21:51;48.00;43.00;82.72;180.00;5.00;0.00;30.13;1020.20;10.00;;FEW;SCT;BKN;BKN;3300.00;5000.00;10000.00;14000.00;;;;;;;;45.40;KJFK 022151Z 18005KT 10SM FEW033 SCT050 BKN100 BKN140 09/06 A3013 RMK AO2 SLP202 T00890061;JFK;
LGA;02.01.2023;21:51;02.01.2023 21:51;54.00;39.00;56.74;190.00;6.00;0.00;30.11;1019.50;10.00;;FEW;BKN;BKN;BKN;3500.00;10000.00;13000.00;25000.00;;;;;;;;54.00;KLGA 022151Z 19006KT 10SM FEW035 BKN100 BKN130 BKN250 12/04 A3011 RMK AO2 SLP195 T01220039;LGA;
JFK;02.01.2023;22:51;02.01.2023 22:51;49.00;44.00;83.42;180.00;5.00;0.00;30.14;1020.40;10.00;;BKN;BKN;;;3700.00;10000.00;;;;;;;;;;46.47;KJFK 022251Z 18005KT 10SM BKN037 BKN100 09/07 A3014 RMK AO2 SLP204 T00940067;JFK;
LGA;02.01.2023;22:51;02.01.2023 22:51;54.00;40.00;58.76;210.00;6.00;0.00;30.12;1019.80;10.00;;SCT;BKN;BKN;;4200.00;9000.00;14000.00;;;;;;;;;54.00;KLGA 022251Z 21006KT 10SM SCT042 BKN090 BKN140 12/04 A3012 RMK AO2 SLP198 T01220044;LGA;
JFK;02.01.2023;23:51;02.01.2023 23:51;48.00;44.00;86.28;200.00;5.00;0.00;30.15;1020.90;10.00;;BKN;OVC;;;4100.00;7500.00;;;;;;;;;;45.40;KJFK 022351Z 20005KT 10SM BKN041 OVC075 09/07 A3015 RMK AO2 SLP209 T00890067 10122 20089 53006;JFK;
LGA;02.01.2023;23:51;02.01.2023 23:51;55.00;42.00;61.69;210.00;7.00;0.00;30.12;1020.00;10.00;;FEW;BKN;BKN;;4000.00;7500.00;14000.00;;;;;;;;;55.00;KLGA 022351Z 21007KT 10SM FEW040 BKN075 BKN140 13/06 A3012 RMK AO2 SLP200 T01280056 10133 20111 53003;LGA;
JFK;03.01.2023;0:51;03.01.2023 00:51;48.00;44.00;86.28;210.00;6.00;0.00;30.15;1021.00;10.00;;BKN;OVC;;;4200.00;6500.00;;;;;;;;;;44.80;KJFK 030051Z 21006KT 10SM BKN042 OVC065 09/07 A3015 RMK AO2 SLP210 T00890067;JFK;
LGA;03.01.2023;0:51;03.01.2023 00:51;55.00;42.00;61.69;210.00;8.00;0.00;30.14;1020.60;10.00;;SCT;BKN;OVC;;4000.00;6500.00;9500.00;;;;;;;;;55.00;KLGA 030051Z 21008KT 10SM SCT040 BKN065 OVC095 13/06 A3014 RMK AO2 SLP206 T01280056;LGA;
LGA;03.01.2023;1:51;03.01.2023 01:51;55.00;43.00;63.86;220.00;7.00;0.00;30.14;1020.70;10.00;;BKN;OVC;;;3100.00;6000.00;;;;;;;;;;55.00;KLGA 030151Z 22007KT 10SM BKN031 OVC060 13/06 A3014 RMK AO2 SLP207 T01280061;LGA;
JFK;03.01.2023;1:51;03.01.2023 01:51;49.00;45.00;86.33;220.00;6.00;0.00;30.16;1021.40;10.00;;SCT;BKN;OVC;;3200.00;4100.00;6000.00;;;;;;;;;45.88;KJFK 030151Z 22006KT 10SM SCT032 BKN041 OVC060 09/07 A3016 RMK AO2 SLP214 T00940072;JFK;
LGA;03.01.2023;2:12;03.01.2023 02:12;54.00;43.00;66.24;220.00;9.00;T;30.15;;10.00;;BKN;OVC;;;2800.00;6000.00;;;-RA;;;;;;;54.00;KLGA 030212Z 22009KT 10SM -RA BKN028 OVC060 12/06 A3015 RMK AO2 RAB06 P0000 T01220061;LGA;
LGA;03.01.2023;2:51;03.01.2023 02:51;53.00;45.00;73.89;220.00;3.00;T;30.14;1020.70;10.00;;SCT;OVC;;;3700.00;4500.00;;;;;;;;;;53.10;KLGA 030251Z 22003KT 10SM SCT037 OVC045 12/07 A3014 RMK AO2 RAB06E36 SLP207 P0000 60000 T01170072 51007;LGA;
JFK;03.01.2023;2:51;03.01.2023 02:51;48.00;46.00;92.74;160.00;4.00;0.01;30.16;1021.20;10.00;;SCT;OVC;;;3000.00;4100.00;;;-RA;;;;;;;46.10;KJFK 030251Z 16004KT 10SM -RA SCT030 OVC041 09/08 A3016 RMK AO2 RAB20 SLP212 P0001 60001 T00890078 50004;JFK;
JFK;03.01.2023;3:51;03.01.2023 03:51;49.00;47.00;92.77;0.00;0.00;0.01;30.15;1021.00;10.00;;FEW;OVC;;;3200.00;5000.00;;;-RA;;;;;;;48.90;KJFK 030351Z 00000KT 10SM -RA FEW032 OVC050 09/08 A3015 RMK AO2 SLP210 P0001 T00940083;JFK;
LGA;03.01.2023;3:51;03.01.2023 03:51;52.00;46.00;79.92;180.00;4.00;T;30.14;1020.60;10.00;;SCT;OVC;;;3000.00;5000.00;;;-RA;;;;;;;52.00;KLGA 030351Z 18004KT 10SM -RA SCT030 OVC050 11/08 A3014 RMK AO2 RAB00 SLP206 P0000 T01110078 $;LGA;
JFK;03.01.2023;4:51;03.01.2023 04:51;49.00;46.00;89.67;0.00;0.00;T;30.14;1020.70;10.00;;OVC;;;;5000.00;;;;;;;;;;;48.90;KJFK 030451Z 00000KT 10SM OVC050 09/08 A3014 RMK AO2 RAE0354 SLP207 P0000 T00940078 401280039;JFK;
LGA;03.01.2023;4:51;03.01.2023 04:51;52.00;46.00;79.92;0.00;0.00;T;30.13;1020.10;10.00;;OVC;;;;4800.00;;;;;;;;;;;52.00;KLGA 030451Z 00000KT 10SM OVC048 11/08 A3013 RMK AO2 RAE14 SLP201 P0000 T01110078 401330094 $;LGA;
LGA;03.01.2023;5:51;03.01.2023 05:51;51.00;46.00;82.62;110.00;4.00;0.00;30.12;1020.10;10.00;;OVC;;;;4800.00;;;;;;;;;;;51.10;KLGA 030551Z 11004KT 10SM OVC048 11/08 A3012 RMK AO2 SLP201 60000 T01060078 10128 20100 56006 $;LGA;
JFK;03.01.2023;5:51;03.01.2023 05:51;47.00;45.00;93.06;160.00;3.00;0.00;30.14;1020.50;10.00;;OVC;;;;5000.00;;;;;;;;;;;45.72;KJFK 030551Z 16003KT 10SM OVC050 08/07 A3014 RMK AO2 SLP205 60002 T00830072 10100 20083 56007;JFK;
JFK;03.01.2023;6:51;03.01.2023 06:51;48.00;47.00;95.95;150.00;5.00;0.00;30.13;1020.10;7.00;;OVC;;;;6000.00;;;;;;;;;;;45.40;KJFK 030651Z 15005KT 7SM OVC060 09/08 A3013 RMK AO2 SLP201 T00890083;JFK;
LGA;03.01.2023;6:51;03.01.2023 06:51;47.00;42.00;83.28;60.00;5.00;0.00;30.11;1019.50;8.00;;OVC;;;;6000.00;;;;;;;;;;;44.09;KLGA 030651Z 06005KT 8SM OVC060 08/06 A3011 RMK AO2 SLP195 T00830056 $;LGA;
JFK;03.01.2023;7:51;03.01.2023 07:51;48.00;47.00;95.95;130.00;4.00;0.00;30.13;1020.20;6.00;;OVC;;;;5500.00;;;;BR;;;;;;;46.10;KJFK 030751Z 13004KT 6SM BR OVC055 09/08 A3013 RMK AO2 SLP202 T00890083;JFK;
LGA;03.01.2023;7:51;03.01.2023 07:51;44.00;40.00;85.06;50.00;8.00;0.00;30.12;1019.70;10.00;;OVC;;;;5000.00;;;;;;;;;;;39.02;KLGA 030751Z 05008KT 10SM OVC050 07/04 A3012 RMK AO2 SLP197 T00670044 $;LGA;
LGA;03.01.2023;8:51;03.01.2023 08:51;44.00;40.00;85.06;50.00;6.00;0.00;30.10;1019.30;10.00;;SCT;OVC;;;4700.00;8000.00;;;;;;;;;;40.10;KLGA 030851Z 05006KT 10SM SCT047 OVC080 07/04 A3010 RMK AO2 SLP193 T00670044 56008 $;LGA;
JFK;03.01.2023;8:51;03.01.2023 08:51;47.00;47.00;100.00;0.00;0.00;0.00;30.12;1019.80;6.00;;BKN;OVC;;;5000.00;8500.00;;;BR;;;;;;;46.90;KJFK 030851Z 00000KT 6SM BR BKN050 OVC085 08/08 A3012 RMK AO2 SLP198 T00830083 58007;JFK;
LGA;03.01.2023;9:16;03.01.2023 09:16;44.00;40.00;85.06;60.00;6.00;0.00;30.10;;10.00;;FEW;BKN;OVC;;800.00;7500.00;10000.00;;;;;;;;;40.10;KLGA 030916Z 06006KT 10SM FEW008 BKN075 OVC100 07/04 A3010 RMK AO2 T00670044 $;LGA;
JFK;03.01.2023;9:51;03.01.2023 09:51;48.00;48.00;100.00;120.00;3.00;0.00;30.10;1019.40;6.00;;BKN;OVC;;;4600.00;10000.00;;;BR;;;;;;;46.98;KJFK 030951Z 12003KT 6SM BR BKN046 OVC100 09/09 A3010 RMK AO2 SLP194 T00890089;JFK;
LGA;03.01.2023;9:51;03.01.2023 09:51;44.00;40.00;85.06;40.00;5.00;0.00;30.10;1019.10;10.00;;SCT;BKN;OVC;;4400.00;6000.00;9000.00;;;;;;;;;40.77;KLGA 030951Z 04005KT 10SM SCT044 BKN060 OVC090 07/04 A3010 RMK AO2 SLP191 T00670044 $;LGA;
JFK;03.01.2023;10:51;03.01.2023 10:51;48.00;48.00;100.00;100.00;4.00;T;30.09;1018.80;6.00;;FEW;BKN;OVC;;500.00;6500.00;9000.00;;-RA BR;;;;;;;46.10;KJFK 031051Z 10004KT 6SM -RA BR FEW005 BKN065 OVC090 09/09 A3009 RMK AO2 RAB51 SLP188 P0000 T00890089;JFK;
LGA;03.01.2023;10:51;03.01.2023 10:51;44.00;40.00;85.06;60.00;8.00;T;30.08;1018.40;9.00;;SCT;OVC;;;6000.00;8000.00;;;-RA;;;;;;;39.02;KLGA 031051Z 06008KT 9SM -RA SCT060 OVC080 07/04 A3008 RMK AO2 RAB47 SLP184 P0000 T00670044;LGA;
LGA;03.01.2023;11:27;03.01.2023 11:27;44.00;40.00;85.06;60.00;7.00;T;30.07;;6.00;;BKN;OVC;;;900.00;6000.00;;;-RA BR;;;;;;;39.53;KLGA 031127Z 06007KT 6SM -RA BR BKN009 OVC060 07/04 A3007 RMK AO2 P0000 T00670044;LGA;
LGA;03.01.2023;11:51;03.01.2023 11:51;43.00;40.00;88.71;50.00;7.00;0.02;30.07;1018.10;5.00;;BKN;OVC;;;900.00;5000.00;;;-RA BR;;;;;;;38.19;KLGA 031151Z 05007KT 5SM -RA BR BKN009 OVC050 06/04 A3007 RMK AO2 SLP181 P0002 60002 70002 T00610044 10106 20061 58012;LGA;
JFK;03.01.2023;11:51;03.01.2023 11:51;49.00;49.00;100.00;140.00;3.00;T;30.07;1018.30;5.00;;BKN;BKN;OVC;;800.00;7500.00;9500.00;;-RA BR;;;;;;;48.01;KJFK 031151Z 14003KT 5SM -RA BR BKN008 BKN075 OVC095 09/09 A3007 RMK AO2 RAE02B23 SLP183 CIG 006V010 P0000 60000 70002 T00940094 10100 20083 58014;JFK;
JFK;03.01.2023;12:51;03.01.2023 12:51;49.00;49.00;100.00;130.00;4.00;T;30.05;1017.40;5.00;;SCT;BKN;OVC;;500.00;8000.00;11000.00;;BR;;;;;;;47.16;KJFK 031251Z 13004KT 5SM BR SCT005 BKN080 OVC110 09/09 A3005 RMK AO2 RAE03 SLP174 SCT V BKN P0000 T00940094;JFK;
LGA;03.01.2023;12:51;03.01.2023 12:51;44.00;40.00;85.06;50.00;8.00;0.01;30.04;1017.10;4.00;;BKN;OVC;;;600.00;1500.00;;;BR;;;;;;;39.02;KLGA 031251Z 05008KT 4SM BR BKN006 OVC015 07/04 A3004 RMK AO2 RAE29 SLP171 P0001 T00670044;LGA;
LGA;03.01.2023;13:51;03.01.2023 13:51;45.00;42.00;89.49;30.00;4.00;T;30.01;1016.30;5.00;;BKN;OVC;;;600.00;8000.00;;;BR;;;;;;;42.60;KLGA 031351Z 03004KT 5SM BR BKN006 OVC080 07/06 A3001 RMK AO2 RAB1258E07 SLP163 P0000 T00720056;LGA;
JFK;03.01.2023;13:51;03.01.2023 13:51;50.00;49.00;95.98;160.00;8.00;0.00;30.02;1016.50;7.00;;SCT;BKN;BKN;OVC;500.00;8500.00;12000.00;21000.00;;;;;;;;50.00;KJFK 031351Z 16008KT 7SM SCT005 BKN085 BKN120 OVC210 10/09 A3002 RMK AO2 SLP165 T01000094;JFK;
LGA;03.01.2023;14:51;03.01.2023 14:51;47.00;43.00;86.21;50.00;6.00;0.00;30.00;1015.80;4.00;;BKN;OVC;;;600.00;6000.00;;;BR;;;;;;;43.48;KLGA 031451Z 05006KT 4SM BR BKN006 OVC060 08/06 A3000 RMK AO2 SLP158 60001 T00830061 56022;LGA;
JFK;03.01.2023;14:51;03.01.2023 14:51;50.00;49.00;95.98;190.00;9.00;0.00;30.01;1016.30;9.00;;SCT;BKN;BKN;OVC;600.00;5000.00;11000.00;21000.00;;;;;;;;50.00;KJFK 031451Z 19009KT 9SM SCT006 BKN050 BKN110 OVC210 10/09 A3001 RMK AO2 SLP163 SCT V BKN 60000 T01000094 56020;JFK;
JFK;03.01.2023;15:43;03.01.2023 15:43;48.00;48.00;100.00;260.00;10.00;T;30.02;;2.50;;SCT;BKN;OVC;;500.00;3200.00;11000.00;;-RA BR;;;;;;;43.03;KJFK 031543Z 26010KT 2 1/2SM -RA BR SCT005 BKN032 OVC110 09/09 A3002 RMK AO2 RAB36 P0000 T00890089;JFK;
LGA;03.01.2023;15:44;03.01.2023 15:44;46.00;43.00;89.20;0.00;0.00;0.02;30.02;;0.50;;OVC;;;;600.00;;;;RA BR;;;;;;;46.00;KLGA 031544Z 00000KT 1/2SM R04/3000VP6000FT RA BR OVC006 08/06 A3002 RMK AO2 SFC VIS 1 3/4 RAB27 P0002 T00780061;LGA;
LGA;03.01.2023;15:51;03.01.2023 15:51;46.00;43.00;89.20;0.00;0.00;0.06;30.00;1015.90;1.00;;BKN;BKN;OVC;;600.00;4300.00;6000.00;;+RA BR;;;;;;;46.00;KLGA 031551Z 00000KT 1SM R04/3000VP6000FT +RA BR BKN006 BKN043 OVC060 08/06 A3000 RMK AO2 SFC VIS 1 3/4 RAB27 SLP159 P0006 T00780061;LGA;
JFK;03.01.2023;15:51;03.01.2023 15:51;47.00;47.00;100.00;250.00;10.00;0.04;30.01;1016.30;2.50;;BKN;BKN;OVC;;500.00;2700.00;8500.00;;+RA BR;;;;;;;41.65;KJFK 031551Z 25010KT 2 1/2SM +RA BR BKN005 BKN027 OVC085 08/08 A3001 RMK AO2 RAB36 SLP163 P0004 T00830083;JFK;
LGA;03.01.2023;16:49;03.01.2023 16:49;48.20;44.60;87.28;90.00;5.00;0.26;29.94;;1.50;;BKN;OVC;;;600.00;4800.00;;;RA BR;;;;;;;45.63;KLGA 031649Z 09005KT 1 1/2SM R04/5000VP6000FT RA BR BKN006 OVC048 09/07 A2994 RMK AO2 PRESFR P0026;LGA;
JFK;03.01.2023;16:51;03.01.2023 16:51;47.00;47.00;100.00;160.00;5.00;0.23;29.95;1014.30;2.50;;SCT;BKN;OVC;;500.00;3800.00;8500.00;;RA BR;;;;;;;44.09;KJFK 031651Z 16005KT 2 1/2SM R04R/1800VP6000FT RA BR SCT005 BKN038 OVC085 08/08 A2995 RMK AO2 SLP143 P0023 T00830083;JFK;
LGA;03.01.2023;16:51;03.01.2023 16:51;48.00;45.00;89.29;80.00;5.00;0.26;29.94;1013.80;1.50;;BKN;OVC;;;600.00;4800.00;;;-RA BR;;;;;;;45.40;KLGA 031651Z 08005KT 1 1/2SM -RA BR BKN006 OVC048 09/07 A2994 RMK AO2 PRESFR SLP138 P0026 T00890072;LGA;
LGA;03.01.2023;17:00;03.01.2023 17:00;48.00;45.00;89.29;50.00;4.00;T;29.93;;1.50;;BKN;OVC;;;500.00;4800.00;;;-RA BR;;;;;;;46.10;KLGA 031700Z 05004KT 1 1/2SM -RA BR BKN005 OVC048 09/07 A2993 RMK AO2 P0000 T00890072;LGA;
LGA;03.01.2023;17:48;03.01.2023 17:48;46.40;44.60;93.40;60.00;4.00;0.07;29.90;;1.00;;SCT;BKN;OVC;;300.00;500.00;4800.00;;-RA BR;;;;;;;44.24;KLGA 031748Z 06004KT 1SM R04/P6000FT -RA BR SCT003 BKN005 OVC048 08/07 A2990 RMK AO2 SFC VIS 2 P0007;LGA;
LGA;03.01.2023;17:51;03.01.2023 17:51;47.00;44.00;89.92;70.00;4.00;0.07;29.91;1012.60;1.00;;BKN;OVC;;;300.00;500.00;;;-RA BR;;;;;;;44.82;KLGA 031751Z 07004KT 1SM R04/P6000FT -RA BR BKN003 OVC005 08/07 A2991 RMK AO2 SFC VIS 2 SLP126 P0007 60040 T00830067 10094 20061 58032;LGA;
JFK;03.01.2023;17:51;03.01.2023 17:51;49.00;49.00;100.00;200.00;7.00;0.08;29.93;1013.40;1.50;;FEW;BKN;OVC;;0.00;500.00;10000.00;;-RA BR;;;;;;;45.38;KJFK 031751Z 20007KT 1 1/2SM -RA BR FEW000 BKN005 OVC100 09/09 A2993 RMK AO2 SLP134 BR FEW000 P0008 60035 T00940094 10100 20083 58029;JFK;
JFK;03.01.2023;17:57;03.01.2023 17:57;48.00;48.00;100.00;200.00;8.00;T;29.93;;0.50;;FEW;BKN;OVC;;0.00;400.00;11000.00;;-RA BR;;;;;;;43.82;KJFK 031757Z 20008KT 1/2SM R04R/P6000FT -RA BR FEW000 BKN004 OVC110 09/09 A2993 RMK AO2 SFC VIS 1 1/2 CIG 003V005 BR FEW000 P0000 T00890089;JFK;
LGA;03.01.2023;18:14;03.01.2023 18:14;49.00;47.00;92.77;0.00;0.00;T;29.90;;2.00;;SCT;BKN;OVC;;300.00;500.00;1100.00;;-RA BR;;;;;;;48.90;KLGA 031814Z 00000KT 2SM -RA BR SCT003 BKN005 OVC011 09/08 A2990 RMK AO2 SFC VIS 2 1/2 P0000 T00940083;LGA;
LGA;03.01.2023;18:51;03.01.2023 18:51;53.00;49.00;85.59;230.00;6.00;0.01;29.88;1011.90;5.00;;FEW;BKN;OVC;;500.00;900.00;2500.00;;-RA BR;;;;;;;53.10;KLGA 031851Z 23006KT 5SM -RA BR FEW005 BKN009 OVC025 12/09 A2988 RMK AO2 SLP119 P0001 T01170094;LGA;
JFK;03.01.2023;18:51;03.01.2023 18:51;48.00;48.00;100.00;200.00;7.00;T;29.91;1012.80;0.25;;FEW;BKN;OVC;;0.00;300.00;1200.00;;-RA BR;;;;;;;44.28;KJFK 031851Z 20007KT 1/4SM R04R/P6000FT -RA BR FEW000 BKN003 OVC012 09/09 A2991 RMK AO2 SFC VIS 1 1/2 SLP128 CIG 002V005 BR FEW000 P0000 T00890089;JFK;
JFK;03.01.2023;19:31;03.01.2023 19:31;49.00;49.00;100.00;200.00;5.00;0.01;29.89;;2.00;;BKN;OVC;;;500.00;900.00;;;BR;;;;;;;46.47;KJFK 031931Z 20005KT 2SM BR BKN005 OVC009 09/09 A2989 RMK AO2 SFC VIS 4 RAE26 CIG 003V007 VIS W 1 P0001 T00940094;JFK;
LGA;03.01.2023;19:51;03.01.2023 19:51;53.00;50.00;89.18;200.00;7.00;T;29.86;1011.00;5.00;;OVC;;;;800.00;;;;BR;;;;;;;53.10;KLGA 031951Z 20007KT 5SM BR OVC008 12/10 A2986 RMK AO2 RAE14 SLP110 P0000 T01170100;LGA;
JFK;03.01.2023;19:51;03.01.2023 19:51;49.00;49.00;100.00;180.00;7.00;0.01;29.88;1011.60;2.00;;OVC;;;;500.00;;;;BR;;;;;;;45.38;KJFK 031951Z 18007KT 2SM BR OVC005 09/09 A2988 RMK AO2 SFC VIS 4 RAE26 SLP116 VIS W 1 P0001 T00940094;JFK;
LGA;03.01.2023;20:04;03.01.2023 20:04;53.00;50.00;89.18;190.00;8.00;0.00;29.85;;5.00;;OVC;;;;700.00;;;;BR;;;;;;;53.10;KLGA 032004Z 19008KT 5SM BR OVC007 12/10 A2985 RMK AO2 T01170100;LGA;
LGA;03.01.2023;20:27;03.01.2023 20:27;53.00;49.00;85.59;190.00;7.00;0.00;29.85;;5.00;;OVC;;;;600.00;;;;BR;;;;;;;53.10;KLGA 032027Z 19007KT 5SM BR OVC006 12/09 A2985 RMK AO2 T01170094;LGA;
LGA;03.01.2023;20:39;03.01.2023 20:39;53.00;49.00;85.59;190.00;6.00;0.00;29.85;;5.00;;OVC;;;;500.00;;;;BR;;;;;;;53.10;KLGA 032039Z 19006KT 5SM BR OVC005 12/09 A2985 RMK AO2 T01170094;LGA;
JFK;03.01.2023;20:45;03.01.2023 20:45;48.20;48.20;100.00;180.00;7.00;0.00;29.86;;2.00;;SCT;BKN;OVC;;600.00;1600.00;10000.00;;BR;;;;;;;44.53;KJFK 032045Z 18007KT 2SM BR SCT006 BKN016 OVC100 09/09 A2986 RMK AO2 SFC VIS 4;JFK;
LGA;03.01.2023;20:51;03.01.2023 20:51;53.00;49.00;85.59;190.00;5.00;0.00;29.84;1010.50;5.00;;OVC;;;;500.00;;;;BR;;;;;;;53.10;KLGA 032051Z 19005KT 5SM BR OVC005 12/09 A2984 RMK AO2 SLP105 60001 T01170094 56022;LGA;
JFK;03.01.2023;20:51;03.01.2023 20:51;48.00;48.00;100.00;180.00;6.00;0.00;29.86;1011.00;2.00;;SCT;BKN;OVC;;600.00;1600.00;10000.00;;BR;;;;;;;44.80;KJFK 032051Z 18006KT 2SM BR SCT006 BKN016 OVC100 09/09 A2986 RMK AO2 SFC VIS 4 SLP110 60001 T00890089 56018;JFK;
LGA;03.01.2023;21:21;03.01.2023 21:21;53.00;50.00;89.18;180.00;7.00;0.00;29.83;;5.00;;OVC;;;;600.00;;;;BR;;;;;;;53.10;KLGA 032121Z 18007KT 5SM BR OVC006 12/10 A2983 RMK AO2 T01170100;LGA;
LGA;03.01.2023;21:39;03.01.2023 21:39;55.00;50.00;83.20;;5.00;0.00;29.83;;7.00;;BKN;BKN;OVC;;700.00;1700.00;10000.00;;;;;;;;;55.00;KLGA 032139Z VRB05KT 7SM BKN007 BKN017 OVC100 13/10 A2983 RMK AO2 T01280100;LGA;
JFK;03.01.2023;21:43;03.01.2023 21:43;47.00;47.00;100.00;180.00;7.00;0.00;29.85;;2.00;;BKN;BKN;OVC;;400.00;11000.00;13000.00;;BR;;;;;;;42.94;KJFK 032143Z 18007KT 2SM BR BKN004 BKN110 OVC130 08/08 A2985 RMK AO2 SFC VIS 4 T00830083;JFK;
LGA;03.01.2023;21:51;03.01.2023 21:51;54.00;50.00;86.29;0.00;0.00;0.00;29.83;1010.00;7.00;;BKN;BKN;OVC;;700.00;1700.00;10000.00;;;;;;;;;54.00;KLGA 032151Z 00000KT 7SM BKN007 BKN017 OVC100 12/10 A2983 RMK AO2 SLP100 T01220100;LGA;
JFK;03.01.2023;21:51;03.01.2023 21:51;47.00;47.00;100.00;190.00;5.00;0.00;29.85;1010.70;2.00;;BKN;OVC;;;400.00;11000.00;;;BR;;;;;;;44.09;KJFK 032151Z 19005KT 2SM BR BKN004 OVC110 08/08 A2985 RMK AO2 SFC VIS 5 SLP107 T00830083;JFK;
LGA;03.01.2023;22:04;03.01.2023 22:04;55.00;50.00;83.20;;4.00;0.00;29.82;;9.00;;BKN;BKN;BKN;OVC;800.00;1700.00;13000.00;18000.00;;;;;;;;55.00;KLGA 032204Z VRB04KT 9SM BKN008 BKN017 BKN130 OVC180 13/10 A2982 RMK AO2 T01280100;LGA;
LGA;03.01.2023;22:37;03.01.2023 22:37;53.00;49.00;85.59;150.00;6.00;0.00;29.82;;8.00;;SCT;SCT;BKN;;800.00;8000.00;18000.00;;;;;;;;;53.10;KLGA 032237Z 15006KT 8SM SCT008 SCT080 BKN180 12/09 A2982 RMK AO2 T01170094;LGA;
LGA;03.01.2023;22:51;03.01.2023 22:51;52.00;48.00;86.17;150.00;5.00;0.00;29.82;1009.90;7.00;;SCT;BKN;BKN;;800.00;7000.00;18000.00;;;;;;;;;52.00;KLGA 032251Z 15005KT 7SM SCT008 BKN070 BKN180 11/09 A2982 RMK AO2 SLP099 T01110089;LGA;
JFK;03.01.2023;22:51;03.01.2023 22:51;47.00;46.00;96.66;190.00;6.00;0.00;29.84;1010.30;2.00;;BKN;BKN;OVC;;400.00;11000.00;18000.00;;BR;;;;;;;43.48;KJFK 032251Z 19006KT 2SM BR BKN004 BKN110 OVC180 08/08 A2984 RMK AO2 SFC VIS 5 SLP103 T00830078;JFK;
JFK;03.01.2023;23:02;03.01.2023 23:02;46.00;46.00;100.00;210.00;4.00;0.00;29.84;;5.00;;BKN;BKN;BKN;;400.00;10000.00;20000.00;;BR;;;;;;;43.77;KJFK 032302Z 21004KT 5SM BR BKN004 BKN100 BKN200 08/08 A2984 RMK AO2 T00780078;JFK;
LGA;03.01.2023;23:23;03.01.2023 23:23;51.00;48.00;89.09;0.00;0.00;0.00;29.84;;6.00;;FEW;BKN;OVC;;700.00;1400.00;7000.00;;BR;;;;;;;51.10;KLGA 032323Z 00000KT 6SM BR FEW007 BKN014 OVC070 11/09 A2984 RMK AO2 T01060089;LGA;
LGA;03.01.2023;23:51;03.01.2023 23:51;51.00;48.00;89.09;130.00;3.00;0.00;29.83;1010.00;5.00;;FEW;BKN;BKN;BKN;700.00;1400.00;7000.00;21000.00;BR;;;;;;;51.10;KLGA 032351Z 13003KT 5SM BR FEW007 BKN014 BKN070 BKN210 11/09 A2983 RMK AO2 SLP100 60001 T01060089 10128 20083 55004;LGA;
JFK;03.01.2023;23:51;03.01.2023 23:51;47.00;46.00;96.66;0.00;0.00;0.00;29.85;1010.70;5.00;;BKN;BKN;BKN;;400.00;7000.00;15000.00;;BR;;;;;;;46.90;KJFK 032351Z 00000KT 5SM BR BKN004 BKN070 BKN150 08/08 A2985 RMK AO2 SLP107 60001 T00830078 10094 20078 55003;JFK;
JFK;04.01.2023;0:34;04.01.2023 00:34;47.00;47.00;100.00;130.00;4.00;0.00;29.84;;0.75;;OVC;;;;400.00;;;;BR;;;;;;;44.82;KJFK 040034Z 13004KT 3/4SM R04R/P6000FT BR OVC004 08/08 A2984 RMK AO2 SFC VIS 4 T00830083;JFK;
LGA;04.01.2023;0:39;04.01.2023 00:39;51.00;48.00;89.09;150.00;4.00;0.00;29.82;;6.00;;SCT;BKN;BKN;BKN;1100.00;7000.00;18000.00;24000.00;BR;;;;;;;51.10;KLGA 040039Z 15004KT 6SM BR SCT011 BKN070 BKN180 BKN240 11/09 A2982 RMK AO2 T01060089;LGA;
JFK;04.01.2023;0:51;04.01.2023 00:51;48.00;48.00;100.00;120.00;3.00;0.00;29.84;1010.50;0.75;;OVC;;;;300.00;;;;BR;;;;;;;46.98;KJFK 040051Z 12003KT 3/4SM R04R/P6000FT BR OVC003 09/09 A2984 RMK AO2 SFC VIS 4 SLP105 T00890089;JFK;
LGA;04.01.2023;0:51;04.01.2023 00:51;51.00;47.00;85.48;150.00;4.00;0.00;29.82;1009.90;6.00;;FEW;FEW;BKN;BKN;1100.00;7000.00;18000.00;25000.00;BR;;;;;;;51.10;KLGA 040051Z 15004KT 6SM BR FEW011 FEW070 BKN180 BKN250 11/08 A2982 RMK AO2 SLP099 T01060083 $;LGA;
JFK;04.01.2023;1:51;04.01.2023 01:51;47.00;47.00;100.00;170.00;5.00;0.00;29.83;1010.10;0.75;;OVC;;;;400.00;;;;BR;;;;;;;44.09;KJFK 040151Z 17005KT 3/4SM R04R/P6000FT BR OVC004 08/08 A2983 RMK AO2 SFC VIS 5 SLP101 T00830083;JFK;
LGA;04.01.2023;1:51;04.01.2023 01:51;51.00;47.00;85.48;150.00;4.00;0.00;29.81;1009.30;6.00;;FEW;FEW;OVC;;1000.00;7000.00;19000.00;;BR;;;;;;;51.10;KLGA 040151Z 15004KT 6SM BR FEW010 FEW070 OVC190 11/08 A2981 RMK AO2 SLP093 T01060083 $;LGA;
JFK;04.01.2023;2:42;04.01.2023 02:42;47.00;47.00;100.00;180.00;4.00;0.00;29.82;;1.50;;BKN;OVC;;;200.00;19000.00;;;BR;;;;;;;44.82;KJFK 040242Z 18004KT 1 1/2SM BR BKN002 OVC190 08/08 A2982 RMK AO2 TWR VIS 3 T00830083;JFK;
LGA;04.01.2023;2:51;04.01.2023 02:51;51.00;48.00;89.09;170.00;4.00;0.00;29.81;1009.30;5.00;;FEW;FEW;BKN;;1000.00;7000.00;19000.00;;BR;;;;;;;51.10;KLGA 040251Z 17004KT 5SM BR FEW010 FEW070 BKN190 11/09 A2981 RMK AO2 SLP093 T01060089 55006 $;LGA;
JFK;04.01.2023;2:51;04.01.2023 02:51;47.00;47.00;100.00;190.00;7.00;0.00;29.83;1010.00;1.50;;BKN;OVC;;;200.00;19000.00;;;BR;;;;;;;42.94;KJFK 040251Z 19007KT 1 1/2SM BR BKN002 OVC190 08/08 A2983 RMK AO2 TWR VIS 3 SLP100 T00830083 56007;JFK;
JFK;04.01.2023;3:38;04.01.2023 03:38;47.00;46.00;96.66;180.00;4.00;0.00;29.83;;5.00;;FEW;BKN;OVC;;400.00;13000.00;20000.00;;BR;;;;;;;44.82;KJFK 040338Z 18004KT 5SM BR FEW004 BKN130 OVC200 08/08 A2983 RMK AO2 T00830078;JFK;
JFK;04.01.2023;3:51;04.01.2023 03:51;47.00;46.00;96.66;190.00;5.00;0.00;29.83;1010.00;5.00;;FEW;BKN;OVC;;400.00;12000.00;21000.00;;BR;;;;;;;44.09;KJFK 040351Z 19005KT 5SM BR FEW004 BKN120 OVC210 08/08 A2983 RMK AO2 SLP100 T00830078;JFK;
LGA;04.01.2023;3:51;04.01.2023 03:51;51.00;48.00;89.09;180.00;3.00;0.00;29.81;1009.30;5.00;;SCT;BKN;BKN;;3100.00;12000.00;23000.00;;BR;;;;;;;51.10;KLGA 040351Z 18003KT 5SM BR SCT031 BKN120 BKN230 11/09 A2981 RMK AO2 SLP093 T01060089 $;LGA;
LGA;04.01.2023;4:51;04.01.2023 04:51;51.00;48.00;89.09;180.00;5.00;0.00;29.78;1008.40;6.00;;FEW;SCT;BKN;OVC;3000.00;13000.00;20000.00;25000.00;BR;;;;;;;51.10;KLGA 040451Z 18005KT 6SM BR FEW030 SCT130 BKN200 OVC250 11/09 A2978 RMK AO2 SLP084 T01060089 401280061 $;LGA;
JFK;04.01.2023;4:51;04.01.2023 04:51;47.00;46.00;96.66;190.00;6.00;0.00;29.80;1009.00;7.00;;FEW;OVC;;;12000.00;21000.00;;;;;;;;;;43.48;KJFK 040451Z 19006KT 7SM FEW120 OVC210 08/08 A2980 RMK AO2 SLP090 T00830078 401000078;JFK;
LGA;04.01.2023;5:51;04.01.2023 05:51;51.00;47.00;85.48;180.00;7.00;0.00;29.78;1008.50;8.00;;OVC;;;;3000.00;;;;;;;;;;;51.10;KLGA 040551Z 18007KT 8SM OVC030 11/08 A2978 RMK AO2 SLP085 T01060083 10111 20100 55009 $;LGA;
JFK;04.01.2023;5:51;04.01.2023 05:51;49.00;48.00;96.69;220.00;6.00;0.00;29.80;1009.10;7.00;;BKN;OVC;;;3100.00;14000.00;;;;;;;;;;45.88;KJFK 040551Z 22006KT 7SM BKN031 OVC140 09/09 A2980 RMK AO2 SLP091 T00940089 10094 20078 55008;JFK;
JFK;04.01.2023;6:24;04.01.2023 06:24;48.00;48.00;100.00;0.00;0.00;0.00;29.79;;7.00;;BKN;OVC;;;2800.00;9000.00;;;;;;;;;;48.00;KJFK 040624Z 00000KT 7SM BKN028 OVC090 09/09 A2979 RMK AO2 T00890089;JFK;
LGA;04.01.2023;6:34;04.01.2023 06:34;52.00;48.00;86.17;180.00;4.00;0.00;29.77;;9.00;;BKN;OVC;;;2800.00;8000.00;;;;;;;;;;52.00;KLGA 040634Z 18004KT 9SM BKN028 OVC080 11/09 A2977 RMK AO2 T01110089 $;LGA;
JFK;04.01.2023;6:39;04.01.2023 06:39;48.00;48.00;100.00;190.00;5.00;0.00;29.80;;7.00;;SCT;OVC;;;2800.00;9000.00;;;;;;;;;;45.40;KJFK 040639Z 19005KT 7SM SCT028 OVC090 09/09 A2980 RMK AO2 T00890089;JFK;
LGA;04.01.2023;6:43;04.01.2023 06:43;51.00;48.00;89.09;170.00;6.00;0.00;29.77;;9.00;;FEW;OVC;;;2800.00;7500.00;;;;;;;;;;51.10;KLGA 040643Z 17006KT 9SM FEW028 OVC075 11/09 A2977 RMK AO2 T01060089 $;LGA;
JFK;04.01.2023;6:51;04.01.2023 06:51;48.00;47.00;95.95;180.00;9.00;0.00;29.80;1009.20;6.00;;SCT;OVC;;;2800.00;9000.00;;;BR;;;;;;;43.41;KJFK 040651Z 18009KT 6SM BR SCT028 OVC090 09/08 A2980 RMK AO2 SLP092 T00890083;JFK;
LGA;04.01.2023;6:51;04.01.2023 06:51;52.00;48.00;86.17;180.00;4.00;0.00;29.78;1008.40;9.00;;FEW;OVC;;;2800.00;7500.00;;;;;;;;;;52.00;KLGA 040651Z 18004KT 9SM FEW028 OVC075 11/09 A2978 RMK AO2 SLP084 T01110089 $;LGA;
LGA;04.01.2023;7:27;04.01.2023 07:27;50.00;46.00;86.06;0.00;0.00;0.00;29.81;;8.00;;BKN;OVC;;;2600.00;9000.00;;;;;;;;;;50.00;KLGA 040727Z 00000KT 8SM BKN026 OVC090 10/08 A2981 RMK AO2 T01000078 $;LGA;
JFK;04.01.2023;7:33;04.01.2023 07:33;47.00;47.00;100.00;210.00;4.00;0.00;29.82;;6.00;;BKN;OVC;;;2800.00;9500.00;;;BR;;;;;;;44.82;KJFK 040733Z 21004KT 6SM BR BKN028 OVC095 08/08 A2982 RMK AO2 T00830083;JFK;
LGA;04.01.2023;7:51;04.01.2023 07:51;54.00;49.00;82.82;170.00;7.00;0.00;29.80;1009.00;10.00;;OVC;;;;2500.00;;;;;;;;;;;54.00;KLGA 040751Z 17007KT 10SM OVC025 12/09 A2980 RMK AO2 SLP090 T01220094 $;LGA;
JFK;04.01.2023;7:51;04.01.2023 07:51;48.00;47.00;95.95;260.00;4.00;0.00;29.81;1009.50;6.00;;OVC;;;;2800.00;;;;BR;;;;;;;46.10;KJFK 040751Z 26004KT 6SM BR OVC028 09/08 A2981 RMK AO2 SLP095 T00890083;JFK;
LGA;04.01.2023;8:44;04.01.2023 08:44;56.00;50.00;80.52;210.00;9.00;0.00;29.78;;10.00;;SCT;BKN;;;2100.00;10000.00;;;;;;;;;;55.90;KLGA 040844Z 21009KT 10SM SCT021 BKN100 13/10 A2978 RMK AO2 T01330100 $;LGA;
JFK;04.01.2023;8:51;04.01.2023 08:51;45.00;45.00;100.00;200.00;4.00;0.00;29.80;1009.10;6.00;;OVC;;;;2800.00;;;;BR;;;;;;;42.60;KJFK 040851Z 20004KT 6SM BR OVC028 07/07 A2980 RMK AO2 SLP091 T00720072 50000;JFK;
LGA;04.01.2023;8:51;04.01.2023 08:51;57.00;50.00;77.38;210.00;9.00;0.00;29.78;1008.30;10.00;;SCT;;;;2100.00;;;;;;;;;;;57.00;KLGA 040851Z 21009KT 10SM SCT021 14/10 A2978 RMK AO2 SLP083 T01390100 58002 $;LGA;
JFK;04.01.2023;9:43;04.01.2023 09:43;45.00;45.00;100.00;210.00;6.00;0.00;29.80;;8.00;;FEW;OVC;;;2300.00;25000.00;;;;;;;;;;41.19;KJFK 040943Z 21006KT 8SM FEW023 OVC250 07/07 A2980 RMK AO2 T00720072;JFK;
JFK;04.01.2023;9:51;04.01.2023 09:51;45.00;45.00;100.00;220.00;5.00;0.00;29.81;1009.30;8.00;;SCT;OVC;;;2300.00;25000.00;;;;;;;;;;41.83;KJFK 040951Z 22005KT 8SM SCT023 OVC250 07/07 A2981 RMK AO2 SLP093 T00720072;JFK;
LGA;04.01.2023;9:51;04.01.2023 09:51;57.00;49.00;74.27;230.00;7.00;0.00;29.79;1008.60;10.00;;OVC;;;;25000.00;;;;;;;;;;;57.00;KLGA 040951Z 23007KT 10SM OVC250 14/09 A2979 RMK AO2 SLP086 T01390094 $;LGA;
LGA;04.01.2023;10:51;04.01.2023 10:51;56.00;50.00;80.52;210.00;6.00;0.00;29.81;1009.30;10.00;;SCT;BKN;;;10000.00;25000.00;;;;;;;;;;55.90;KLGA 041051Z 21006KT 10SM SCT100 BKN250 13/10 A2981 RMK AO2 SLP093 T01330100 $;LGA;
JFK;04.01.2023;10:51;04.01.2023 10:51;48.00;47.00;95.95;240.00;7.00;0.00;29.83;1010.00;8.00;;FEW;SCT;OVC;;2500.00;9500.00;25000.00;;;;;;;;;44.28;KJFK 041051Z 24007KT 8SM FEW025 SCT095 OVC250 09/08 A2983 RMK AO2 SLP100 T00890083;JFK;
JFK;04.01.2023;11:51;04.01.2023 11:51;51.00;50.00;96.00;240.00;7.00;0.00;29.86;1011.00;10.00;;FEW;BKN;BKN;;2100.00;9000.00;25000.00;;;;;;;;;51.10;KJFK 041151Z 24007KT 10SM FEW021 BKN090 BKN250 11/10 A2986 RMK AO2 SLP110 70036 T01060100 10111 20072 53018;JFK;
LGA;04.01.2023;11:51;04.01.2023 11:51;57.00;50.00;77.38;210.00;9.00;0.00;29.84;1010.30;10.00;;SCT;BKN;;;9500.00;25000.00;;;;;;;;;;57.00;KLGA 041151Z 21009KT 10SM SCT095 BKN250 14/10 A2984 RMK AO2 SLP103 70041 T01390100 10144 20100 53020;LGA;
LGA;04.01.2023;12:51;04.01.2023 12:51;57.00;51.00;80.60;210.00;7.00;0.00;29.86;1011.10;9.00;;SCT;BKN;;;9000.00;25000.00;;;;;;;;;;57.00;KLGA 041251Z 21007KT 9SM SCT090 BKN250 14/11 A2986 RMK AO2 SLP111 T01390106;LGA;
JFK;04.01.2023;12:51;04.01.2023 12:51;54.00;52.00;92.92;270.00;7.00;0.00;29.88;1011.70;9.00;;FEW;FEW;BKN;;4500.00;9500.00;25000.00;;;;;;;;;54.00;KJFK 041251Z 27007KT 9SM FEW045 FEW095 BKN250 12/11 A2988 RMK AO2 SLP117 T01220111;JFK;
JFK;04.01.2023;13:51;04.01.2023 13:51;56.00;54.00;93.32;250.00;6.00;0.00;29.91;1012.70;10.00;;FEW;SCT;;;9500.00;25000.00;;;;;;;;;;55.90;KJFK 041351Z 25006KT 10SM FEW095 SCT250 13/12 A2991 RMK AO2 SLP127 T01330122;JFK;
LGA;04.01.2023;13:51;04.01.2023 13:51;58.00;52.00;80.67;230.00;8.00;0.00;29.89;1012.00;9.00;;FEW;SCT;SCT;;1500.00;7500.00;25000.00;;;;;;;;;57.90;KLGA 041351Z 23008KT 9SM FEW015 SCT075 SCT250 14/11 A2989 RMK AO2 SLP120 T01440111;LGA;
LGA;04.01.2023;14:51;04.01.2023 14:51;61.00;53.00;75.20;230.00;8.00;0.00;29.88;1011.90;10.00;;FEW;BKN;;;9000.00;25000.00;;;;;;;;;;61.00;KLGA 041451Z 23008KT 10SM FEW090 BKN250 16/12 A2988 RMK AO2 SLP119 T01610117 50016;LGA;
JFK;04.01.2023;14:51;04.01.2023 14:51;55.00;54.00;96.42;200.00;5.00;0.00;29.90;1012.60;10.00;;FEW;BKN;;;9500.00;25000.00;;;;;;;;;;55.00;KJFK 041451Z 20005KT 10SM FEW095 BKN250 13/12 A2990 RMK AO2 SLP126 T01280122 50017;JFK;
LGA;04.01.2023;15:51;04.01.2023 15:51;62.00;53.00;72.33;0.00;0.00;0.00;29.88;1011.70;10.00;;FEW;BKN;;;9000.00;25000.00;;;;;;;;;;62.10;KLGA 041551Z 00000KT 10SM FEW090 BKN250 17/12 A2988 RMK AO2 SLP117 T01670117;LGA;
JFK;04.01.2023;15:51;04.01.2023 15:51;58.00;55.00;90.04;210.00;8.00;0.00;29.91;1012.70;9.00;;BKN;;;;25000.00;;;;;;;;;;;57.90;KJFK 041551Z 21008KT 9SM BKN250 14/13 A2991 RMK AO2 SLP127 T01440128;JFK;
LGA;04.01.2023;16:51;04.01.2023 16:51;64.00;54.00;69.92;200.00;7.00;0.00;29.87;1011.60;10.00;;FEW;BKN;;;9000.00;25000.00;;;;;;;;;;64.00;KLGA 041651Z 20007KT 10SM FEW090 BKN250 18/12 A2987 RMK AO2 SLP116 T01780122;LGA;
JFK;04.01.2023;16:51;04.01.2023 16:51;57.00;54.00;89.68;200.00;9.00;0.00;29.90;1012.40;9.00;;BKN;;;;25000.00;;;;;;;;;;;57.00;KJFK 041651Z 20009KT 9SM BKN250 14/12 A2990 RMK AO2 SLP124 T01390122;JFK;
JFK;04.01.2023;17:51;04.01.2023 17:51;61.00;55.00;80.61;180.00;6.00;0.00;29.87;1011.40;10.00;;FEW;BKN;;;16000.00;25000.00;;;;;;;;;;61.00;KJFK 041751Z 18006KT 10SM FEW160 BKN250 16/13 A2987 RMK AO2 SLP114 T01610128 10161 20100 58012;JFK;
LGA;04.01.2023;17:51;04.01.2023 17:51;65.00;53.00;65.56;190.00;8.00;0.00;29.84;1010.50;10.00;;FEW;OVC;;;10000.00;25000.00;;;;;;;;;;64.90;KLGA 041751Z 19008KT 10SM FEW100 OVC250 18/12 A2984 RMK AO2 SLP105 T01830117 10183 20128 58014;LGA;
LGA;04.01.2023;18:51;04.01.2023 18:51;63.00;53.00;70.07;180.00;10.00;0.00;29.83;1010.20;10.00;;OVC;;;;25000.00;;;;;;;;;;;63.00;KLGA 041851Z 18010KT 10SM OVC250 17/12 A2983 RMK AO2 SLP102 T01720117;LGA;
JFK;04.01.2023;18:51;04.01.2023 18:51;58.00;54.00;86.82;180.00;8.00;0.00;29.86;1011.20;10.00;;FEW;FEW;BKN;;8500.00;16000.00;25000.00;;;;;;;;;57.90;KJFK 041851Z 18008KT 10SM FEW085 FEW160 BKN250 14/12 A2986 RMK AO2 SLP112 T01440122;JFK;
LGA;04.01.2023;19:51;04.01.2023 19:51;62.00;53.00;72.33;190.00;7.00;0.00;29.83;1010.10;10.00;;FEW;OVC;;;18000.00;25000.00;;;;;;;;;;62.10;KLGA 041951Z 19007KT 10SM FEW180 OVC250 17/12 A2983 RMK AO2 SLP101 T01670117;LGA;
JFK;04.01.2023;19:51;04.01.2023 19:51;57.00;53.00;86.77;130.00;4.00;0.00;29.85;1010.70;10.00;;FEW;SCT;OVC;;8500.00;20000.00;25000.00;;;;;;;;;57.00;KJFK 041951Z 13004KT 10SM FEW085 SCT200 OVC250 14/12 A2985 RMK AO2 SLP107 T01390117;JFK;
JFK;04.01.2023;20:51;04.01.2023 20:51;54.00;51.00;89.88;0.00;0.00;0.00;29.84;1010.60;10.00;;SCT;OVC;;;12000.00;25000.00;;;;;;;;;;54.00;KJFK 042051Z 00000KT 10SM SCT120 OVC250 12/11 A2984 RMK AO2 SLP106 T01220106 56009;JFK;
LGA;04.01.2023;20:51;04.01.2023 20:51;61.00;53.00;75.20;120.00;3.00;0.00;29.82;1009.80;10.00;;SCT;BKN;BKN;;14000.00;18000.00;25000.00;;;;;;;;;61.00;KLGA 042051Z 12003KT 10SM SCT140 BKN180 BKN250 16/12 A2982 RMK AO2 SLP098 T01610117 56007;LGA;
LGA;04.01.2023;21:51;04.01.2023 21:51;60.00;53.00;77.65;160.00;5.00;T;29.83;1010.00;9.00;;BKN;BKN;OVC;;10000.00;15000.00;25000.00;;-RA;;;;;;;60.10;KLGA 042151Z 16005KT 9SM -RA BKN100 BKN150 OVC250 16/12 A2983 RMK AO2 RAB41 SLP100 P0000 T01560117;LGA;
JFK;04.01.2023;21:51;04.01.2023 21:51;52.00;50.00;92.86;150.00;9.00;T;29.86;1011.00;10.00;;FEW;BKN;OVC;;4000.00;11000.00;14000.00;;-RA;;;;;;;52.00;KJFK 042151Z 15009KT 10SM -RA FEW040 BKN110 OVC140 11/10 A2986 RMK AO2 RAB45 SLP110 P0000 T01110100;JFK;
JFK;04.01.2023;22:51;04.01.2023 22:51;51.00;50.00;96.00;90.00;7.00;T;29.82;1009.90;9.00;;SCT;OVC;;;3700.00;10000.00;;;;;;;;;;51.10;KJFK 042251Z 09007KT 9SM SCT037 OVC100 11/10 A2982 RMK AO2 RAE47 SLP099 P0000 T01060100;JFK;
LGA;04.01.2023;22:51;04.01.2023 22:51;56.00;50.00;80.52;130.00;8.00;T;29.81;1009.50;10.00;;FEW;BKN;OVC;;4000.00;11000.00;15000.00;;;;;;;;;55.90;KLGA 042251Z 13008KT 10SM FEW040 BKN110 OVC150 13/10 A2981 RMK AO2 RAE43 SLP095 P0000 T01330100;LGA;
JFK;04.01.2023;23:29;04.01.2023 23:29;51.00;51.00;100.00;130.00;6.00;0.01;29.84;;5.00;;FEW;BKN;OVC;;500.00;2600.00;9000.00;;-RA BR;;;;;;;51.10;KJFK 042329Z 13006KT 5SM -RA BR FEW005 BKN026 OVC090 11/11 A2984 RMK AO2 RAB17 P0001 T01060106;JFK;
LGA;04.01.2023;23:51;04.01.2023 23:51;55.00;50.00;83.20;150.00;5.00;0.01;29.83;1010.10;10.00;;FEW;BKN;OVC;;3300.00;8500.00;12000.00;;-RA;;;;;;;55.00;KLGA 042351Z 15005KT 10SM -RA FEW033 BKN085 OVC120 13/10 A2983 RMK AO2 RAB12 SLP101 P0001 60001 T01280100 10189 20128 53002;LGA;
JFK;04.01.2023;23:51;04.01.2023 23:51;52.00;52.00;100.00;160.00;4.00;0.01;29.84;1010.50;7.00;;SCT;BKN;OVC;;600.00;2600.00;8500.00;;;;;;;;;52.00;KJFK 042351Z 16004KT 7SM SCT006 BKN026 OVC085 11/11 A2984 RMK AO2 RAB17E43 SLP105 P0001 60001 T01110111 10161 20106 55000;JFK;
LGA;05.01.2023;0:18;05.01.2023 00:18;54.00;50.00;86.29;70.00;6.00;T;29.82;;8.00;;BKN;OVC;;;2500.00;8500.00;;;-RA;;;;;;;54.00;KLGA 050018Z 07006KT 8SM -RA BKN025 OVC085 12/10 A2982 RMK AO2 P0000 T01220100;LGA;
JFK;05.01.2023;0:51;05.01.2023 00:51;51.00;51.00;100.00;130.00;3.00;0.00;29.83;1010.00;6.00;;SCT;OVC;;;400.00;2300.00;;;BR;;;;;;;51.10;KJFK 050051Z 13003KT 6SM BR SCT004 OVC023 11/11 A2983 RMK AO2 SLP100 SCT V BKN T01060106;JFK;
LGA;05.01.2023;0:51;05.01.2023 00:51;49.00;45.00;86.33;50.00;10.00;T;29.81;1009.60;6.00;;OVC;;;;2100.00;;;;BR;;;;;;;44.16;KLGA 050051Z 05010KT 6SM BR OVC021 09/07 A2981 RMK AO2 RAE45 SLP096 P0000 T00940072;LGA;
JFK;05.01.2023;1:18;05.01.2023 01:18;51.00;51.00;100.00;110.00;7.00;0.00;29.82;;2.00;;BKN;OVC;;;400.00;2300.00;;;BR;;;;;;;51.10;KJFK 050118Z 11007KT 2SM BR BKN004 OVC023 11/11 A2982 RMK AO2 SFC VIS 6 T01060106;JFK;
JFK;05.01.2023;1:43;05.01.2023 01:43;51.00;51.00;100.00;110.00;5.00;0.00;29.82;;0.75;;OVC;;;;300.00;;;;BR;;;;;;;51.10;KJFK 050143Z 11005KT 3/4SM R04R/P6000FT BR OVC003 11/11 A2982 RMK AO2 SFC VIS 5 T01060106;JFK;
JFK;05.01.2023;1:51;05.01.2023 01:51;51.00;51.00;100.00;90.00;4.00;0.00;29.82;1009.70;0.75;;OVC;;;;300.00;;;;BR;;;;;;;51.10;KJFK 050151Z 09004KT 3/4SM R04R/P6000FT BR OVC003 11/11 A2982 RMK AO2 SFC VIS 5 SLP097 T01060106;JFK;
LGA;05.01.2023;1:51;05.01.2023 01:51;47.00;43.00;86.21;40.00;7.00;0.00;29.82;1009.70;5.00;;OVC;;;;1800.00;;;;BR;;;;;;;42.94;KLGA 050151Z 04007KT 5SM BR OVC018 08/06 A2982 RMK AO2 SLP097 T00830061;LGA;
LGA;05.01.2023;2:07;05.01.2023 02:07;46.00;43.00;89.20;50.00;12.00;0.00;29.81;;2.50;;SCT;OVC;;;500.00;1800.00;;;BR;;;;;;;39.82;KLGA 050207Z 05012KT 2 1/2SM BR SCT005 OVC018 08/06 A2981 RMK AO2 SFC VIS 4 T00780061;LGA;
LGA;05.01.2023;2:28;05.01.2023 02:28;46.00;43.00;89.20;50.00;9.00;0.00;29.82;;2.50;;BKN;OVC;;;300.00;1700.00;;;BR;;;;;;;40.92;KLGA 050228Z 05009KT 2 1/2SM BR BKN003 OVC017 08/06 A2982 RMK AO2 SFC VIS 4 T00780061;LGA;
LGA;05.01.2023;2:37;05.01.2023 02:37;45.00;42.00;89.49;50.00;10.00;0.00;29.82;;1.50;;OVC;;;;300.00;;;;BR;;;;;;;39.27;KLGA 050237Z 05010KT 1 1/2SM BR OVC003 07/06 A2982 RMK AO2 SFC VIS 3 T00720056;LGA;
JFK;05.01.2023;2:51;05.01.2023 02:51;51.00;51.00;100.00;60.00;4.00;0.00;29.83;1009.90;0.75;;OVC;;;;200.00;;;;BR;;;;;;;51.10;KJFK 050251Z 06004KT 3/4SM R04R/2400V4000FT BR OVC002 11/11 A2983 RMK AO2 SFC VIS 1 1/2 SLP099 T01060106 55006;JFK;
LGA;05.01.2023;2:51;05.01.2023 02:51;45.00;42.00;89.49;50.00;8.00;0.00;29.82;1009.90;0.50;;OVC;;;;300.00;;;;BR;;;;;;;40.13;KLGA 050251Z 05008KT 1/2SM R04/P6000FT BR OVC003 07/06 A2982 RMK AO2 SFC VIS 2 1/2 SLP099 60000 T00720056 55002;LGA;
JFK;05.01.2023;2:56;05.01.2023 02:56;51.00;51.00;100.00;50.00;4.00;0.00;29.82;;0.25;;OVC;;;;200.00;;;;BR;;;;;;;51.10;KJFK 050256Z 05004KT 1/4SM R04R/2400V3000FT BR OVC002 11/11 A2982 RMK AO2 SFC VIS 1 1/2 T01060106;JFK;
LGA;05.01.2023;3:15;05.01.2023 03:15;45.00;42.00;89.49;50.00;8.00;0.00;29.82;;0.50;;OVC;;;;200.00;;;;BR;;;;;;;40.13;KLGA 050315Z 05008KT 1/2SM R04/5000VP6000FT BR OVC002 07/06 A2982 RMK AO2 SFC VIS 1 T00720056;LGA;
LGA;05.01.2023;3:46;05.01.2023 03:46;44.60;42.80;93.35;40.00;11.00;0.00;29.81;;0.25;;VV ;;;;200.00;;;;FG;;;;;;;38.39;KLGA 050346Z 04011KT 1/4SM R04/2600V3500FT FG VV002 07/06 A2981 RMK AO2 SFC VIS 1/2;LGA;
LGA;05.01.2023;3:51;05.01.2023 03:51;45.00;42.00;89.49;40.00;10.00;0.00;29.81;1009.30;0.25;;VV ;;;;200.00;;;;FG;;;;;;;39.27;KLGA 050351Z 04010KT 1/4SM R04/2400V2800FT FG VV002 07/06 A2981 RMK AO2 SFC VIS 1/2 SLP093 T00720056;LGA;
JFK;05.01.2023;3:51;05.01.2023 03:51;52.00;52.00;100.00;50.00;3.00;0.00;29.80;1009.20;0.25;;OVC;;;;200.00;;;;BR;;;;;;;52.00;KJFK 050351Z 05003KT 1/4SM R04R/1600V1800FT BR OVC002 11/11 A2980 RMK AO2 SFC VIS 1 1/2 SLP092 T01110111;JFK;
JFK;05.01.2023;4:06;05.01.2023 04:06;52.00;52.00;100.00;110.00;3.00;0.00;29.81;;0.25;;OVC;;;;200.00;;;;BR;;;;;;;52.00;KJFK 050406Z 11003KT 1/4SM R04R/1400V3500FT BR OVC002 11/11 A2981 RMK AO2 SFC VIS 1 1/2 T01110111;JFK;
JFK;05.01.2023;4:43;05.01.2023 04:43;51.00;51.00;100.00;140.00;4.00;T;29.82;;0.25;;OVC;;;;200.00;;;;-DZ BR;;;;;;;51.10;KJFK 050443Z 14004KT 1/4SM R04R/1400V2000FT -DZ BR OVC002 11/11 A2982 RMK AO2 SFC VIS 3/4 DZB39 VIS NW-N 1 1/2 P0000 T01060106 $;JFK;
LGA;05.01.2023;4:51;05.01.2023 04:51;45.00;42.00;89.49;50.00;11.00;0.00;29.82;1009.60;0.25;;VV ;;;;200.00;;;;FG;;;;;;;38.89;KLGA 050451Z 05011KT 1/4SM R04/1800FT FG VV002 07/06 A2982 RMK AO2 SLP096 T00720056 401890067;LGA;
JFK;05.01.2023;4:51;05.01.2023 04:51;51.00;51.00;100.00;130.00;4.00;T;29.82;1009.80;0.25;;VV ;;;;200.00;;;;-DZ FG;;;;;;;51.10;KJFK 050451Z 13004KT 1/4SM R04R/1200V1400FT -DZ FG VV002 11/11 A2982 RMK AO2 SFC VIS 1/2 DZB39 SLP098 VIS NW-N 1 P0000 T01060106 401610072 $;JFK;
JFK;05.01.2023;5:39;05.01.2023 05:39;51.00;51.00;100.00;40.00;3.00;0.02;29.82;;0.25;;OVC;;;;300.00;;;;BR;;;;;;;51.10;KJFK 050539Z 04003KT 1/4SM R04R/2000V3500FT BR OVC003 11/11 A2982 RMK AO2 SFC VIS 2 DZE15RAB15E35 P0002 T01060106 $;JFK;
JFK;05.01.2023;5:51;05.01.2023 05:51;51.00;51.00;100.00;0.00;0.00;0.02;29.82;1009.90;0.25;;OVC;;;;300.00;;;;BR;;;;;;;51.10;KJFK 050551Z 00000KT 1/4SM R04R/2600VP6000FT BR OVC003 11/11 A2982 RMK AO2 SFC VIS 2 SLP099 DZE15RAB15E35 P0002 60002 T01060106 10117 20106 55000 $;JFK;
LGA;05.01.2023;5:51;05.01.2023 05:51;44.00;42.00;92.62;30.00;8.00;0.01;29.82;1009.80;0.25;;OVC;;;;300.00;;;;-DZ BR;;;;;;;39.02;KLGA 050551Z 03008KT 1/4SM R04/P6000FT -DZ BR OVC003 07/06 A2982 RMK AO2 SFC VIS 1 DZB04 SLP098 P0001 60001 T00670056 10128 20067 55000;LGA;
LGA;05.01.2023;6:19;05.01.2023 06:19;44.00;43.00;95.88;40.00;7.00;T;29.83;;0.50;;OVC;;;;300.00;;;;-DZ BR;;;;;;;39.53;KLGA 050619Z 04007KT 1/2SM R04/P6000FT -DZ BR OVC003 07/06 A2983 RMK AO2 SFC VIS 2 P0000 T00670061;LGA;
LGA;05.01.2023;6:45;05.01.2023 06:45;44.60;42.80;93.35;30.00;6.00;0.01;29.84;;0.75;;OVC;;;;300.00;;;;-DZ BR;;;;;;;40.71;KLGA 050645Z 03006KT 3/4SM R04/P6000FT -DZ BR OVC003 07/06 A2984 RMK AO2 SFC VIS 3 P0001;LGA;
JFK;05.01.2023;6:51;05.01.2023 06:51;50.00;50.00;100.00;340.00;4.00;0.01;29.84;1010.40;0.25;;OVC;;;;300.00;;;;-DZ BR;;;;;;;50.00;KJFK 050651Z 34004KT 1/4SM R04R/P6000FT -DZ BR OVC003 10/10 A2984 RMK AO2 SFC VIS 2 1/2 RAB10E42DZB44 SLP104 P0001 T01000100 $;JFK;
LGA;05.01.2023;6:51;05.01.2023 06:51;45.00;43.00;92.65;40.00;6.00;0.01;29.84;1010.30;0.75;;OVC;;;;300.00;;;;-DZ BR;;;;;;;41.19;KLGA 050651Z 04006KT 3/4SM R04/P6000FT -DZ BR OVC003 07/06 A2984 RMK AO2 SFC VIS 3 SLP103 P0001 T00720061;LGA;
LGA;05.01.2023;7:14;05.01.2023 07:14;45.00;43.00;92.65;40.00;5.00;T;29.85;;0.75;;OVC;;;;400.00;;;;-DZ BR;;;;;;;41.83;KLGA 050714Z 04005KT 3/4SM R04/P6000FT -DZ BR OVC004 07/06 A2985 RMK AO2 SFC VIS 5 P0000 T00720061;LGA;
LGA;05.01.2023;7:45;05.01.2023 07:45;44.60;42.80;93.35;40.00;4.00;T;29.86;;2.00;;OVC;;;;400.00;;;;BR;;;;;;;42.13;KLGA 050745Z 04004KT 2SM BR OVC004 07/06 A2986 RMK AO2 SFC VIS 5 DZE45 P0000;LGA;
JFK;05.01.2023;7:51;05.01.2023 07:51;48.00;48.00;100.00;350.00;5.00;T;29.87;1011.40;0.25;;OVC;;;;300.00;;;;-DZ BR;;;;;;;45.40;KJFK 050751Z 35005KT 1/4SM R04R/P6000FT -DZ BR OVC003 09/09 A2987 RMK AO2 SFC VIS 2 1/2 DZE00B33RAB04E22 SLP114 P0000 T00890089 $;JFK;
LGA;05.01.2023;7:51;05.01.2023 07:51;45.00;43.00;92.65;40.00;4.00;T;29.86;1011.20;2.00;;OVC;;;;400.00;;;;BR;;;;;;;42.60;KLGA 050751Z 04004KT 2SM BR OVC004 07/06 A2986 RMK AO2 SFC VIS 5 DZE45 SLP112 P0000 T00720061;LGA;
LGA;05.01.2023;8:44;05.01.2023 08:44;46.00;43.00;89.20;60.00;9.00;0.00;29.88;;2.50;;OVC;;;;400.00;;;;;;;;;;;40.92;KLGA 050844Z 06009KT 2 1/2SM OVC004 08/06 A2988 RMK AO2 SFC VIS 7 T00780061;LGA;
JFK;05.01.2023;8:51;05.01.2023 08:51;47.00;47.00;100.00;360.00;9.00;T;29.89;1012.10;0.25;;OVC;;;;400.00;;;;;;;;;;;42.04;KJFK 050851Z 36009KT 1/4SM R04R/P6000FT OVC004 08/08 A2989 RMK AO2 SFC VIS 7 DZE22 SLP121 P0000 60001 T00830083 53022 $;JFK;
LGA;05.01.2023;8:51;05.01.2023 08:51;46.00;43.00;89.20;80.00;7.00;0.00;29.88;1011.90;2.50;;OVC;;;;400.00;;;;;;;;;;;41.84;KLGA 050851Z 08007KT 2 1/2SM OVC004 08/06 A2988 RMK AO2 SFC VIS 7 SLP119 60001 T00780061 53020;LGA;
JFK;05.01.2023;9:32;05.01.2023 09:32;48.00;48.00;100.00;50.00;4.00;0.00;29.89;;7.00;;OVC;;;;400.00;;;;;;;;;;;46.10;KJFK 050932Z 05004KT 7SM OVC004 09/09 A2989 RMK AO2 T00890089 $;JFK;
LGA;05.01.2023;9:47;05.01.2023 09:47;44.60;44.60;100.00;0.00;0.00;0.00;29.88;;7.00;;OVC;;;;600.00;;;;;;;;;;;44.60;KLGA 050947Z 00000KT 7SM OVC006 07/07 A2988 RMK AO2;LGA;
LGA;05.01.2023;9:51;05.01.2023 09:51;45.00;44.00;96.63;0.00;0.00;0.00;29.89;1012.00;7.00;;OVC;;;;600.00;;;;;;;;;;;45.00;KLGA 050951Z 00000KT 7SM OVC006 07/07 A2989 RMK AO2 SLP120 T00720067;LGA;
JFK;05.01.2023;9:51;05.01.2023 09:51;48.00;48.00;100.00;40.00;3.00;0.00;29.89;1012.20;8.00;;OVC;;;;400.00;;;;;;;;;;;46.98;KJFK 050951Z 04003KT 8SM OVC004 09/09 A2989 RMK AO2 SLP122 T00890089 $;JFK;
LGA;05.01.2023;10:18;05.01.2023 10:18;46.00;46.00;100.00;0.00;0.00;0.00;29.90;;9.00;;OVC;;;;500.00;;;;;;;;;;;46.00;KLGA 051018Z 00000KT 9SM OVC005 08/08 A2990 RMK AO2 T00780078;LGA;
LGA;05.01.2023;10:34;05.01.2023 10:34;47.00;45.00;93.06;10.00;3.00;0.00;29.91;;0.50;;OVC;;;;400.00;;;;BR;;;;;;;45.72;KLGA 051034Z COR 01003KT 1/2SM BR OVC004 08/07 A2991 RMK AO2 TWR VIS 2 T00830072;LGA;
LGA;05.01.2023;10:43;05.01.2023 10:43;47.00;45.00;93.06;10.00;3.00;0.00;29.90;;0.50;;OVC;;;;300.00;;;;BR;;;;;;;45.72;KLGA 051043Z 01003KT 1/2SM R04/P6000FT BR OVC003 08/07 A2990 RMK AO2 SFC VIS 2 T00830072;LGA;
JFK;05.01.2023;10:51;05.01.2023 10:51;48.00;48.00;100.00;360.00;5.00;0.00;29.92;1013.00;2.00;;OVC;;;;300.00;;;;BR;;;;;;;45.40;KJFK 051051Z 36005KT 2SM BR OVC003 09/09 A2992 RMK AO2 SFC VIS 4 SLP130 T00890089 $;JFK;
LGA;05.01.2023;10:51;05.01.2023 10:51;47.00;45.00;93.06;360.00;4.00;0.00;29.91;1012.70;0.50;;OVC;;;;300.00;;;;BR;;;;;;;44.82;KLGA 051051Z 36004KT 1/2SM R04/P6000FT BR OVC003 08/07 A2991 RMK AO2 SFC VIS 1 SLP127 T00830072;LGA;
JFK;05.01.2023;11:13;05.01.2023 11:13;48.00;48.00;100.00;20.00;6.00;0.00;29.92;;0.25;;FEW;OVC;;;0.00;300.00;;;BR;;;;;;;44.80;KJFK 051113Z 02006KT 1/4SM R04R/4500VP6000FT BR FEW000 OVC003 09/09 A2992 RMK AO2 SFC VIS 1 1/2 BR FEW000 T00890089 $;JFK;
LGA;05.01.2023;11:51;05.01.2023 11:51;46.00;44.00;93.03;50.00;6.00;0.00;29.93;1013.40;0.50;;OVC;;;;300.00;;;;BR;;;;;;;42.39;KLGA 051151Z 05006KT 1/2SM R04/P6000FT BR OVC003 08/07 A2993 RMK AO2 SFC VIS 1 SLP134 60001 70003 T00780067 10089 20067 53015;LGA;
JFK;05.01.2023;11:51;05.01.2023 11:51;48.00;48.00;100.00;50.00;7.00;0.00;29.93;1013.60;0.25;;SCT;OVC;;;0.00;200.00;;;BR;;;;;;;44.28;KJFK 051151Z 05007KT 1/4SM R04R/2400V2800FT BR SCT000 OVC002 09/09 A2993 RMK AO2 SFC VIS 1 SLP136 BR SCT000 60001 70004 T00890089 10106 20083 53014 $;JFK;
LGA;05.01.2023;12:03;05.01.2023 12:03;46.00;44.00;93.03;60.00;6.00;0.00;29.93;;0.25;;OVC;;;;300.00;;;;FG;;;;;;;42.39;KLGA 051203Z 06006KT 1/4SM R04/4000VP6000FT FG OVC003 08/07 A2993 RMK AO2 SFC VIS 1/2 T00780067;LGA;
JFK;05.01.2023;12:22;05.01.2023 12:22;48.00;48.00;100.00;60.00;6.00;0.00;29.95;;0.25;;VV ;;;;200.00;;;;FG;;;;;;;44.80;KJFK 051222Z 06006KT 1/4SM R04R/1800V2000FT FG VV002 09/09 A2995 RMK AO2 SFC VIS 1/2 T00890089 $;JFK;
LGA;05.01.2023;12:51;05.01.2023 12:51;46.00;43.00;89.20;60.00;6.00;0.00;29.94;1013.80;0.25;;OVC;;;;300.00;;;;FG;;;;;;;42.39;KLGA 051251Z 06006KT 1/4SM R04/3500V4000FT FG OVC003 08/06 A2994 RMK AO2 SLP138 T00780061;LGA;
JFK;05.01.2023;12:51;05.01.2023 12:51;48.00;48.00;100.00;60.00;5.00;0.00;29.95;1014.10;0.25;;VV ;;;;200.00;;;;FG;;;;;;;45.40;KJFK 051251Z 06005KT 1/4SM R04R/2000V2400FT FG VV002 09/09 A2995 RMK AO2 SFC VIS 1/2 SLP141 T00890089 $;JFK;
LGA;05.01.2023;13:51;05.01.2023 13:51;46.00;44.00;93.03;40.00;6.00;0.00;29.96;1014.50;0.25;;VV ;;;;300.00;;;;FG;;;;;;;42.39;KLGA 051351Z 04006KT 1/4SM R04/3000V4000FT FG VV003 08/07 A2996 RMK AO2 SLP145 T00780067;LGA;
JFK;05.01.2023;13:51;05.01.2023 13:51;48.00;48.00;100.00;50.00;6.00;0.00;29.97;1014.70;0.25;;FEW;OVC;;;0.00;200.00;;;BR;;;;;;;44.80;KJFK 051351Z 05006KT 1/4SM R04R/2800VP6000FT BR FEW000 OVC002 09/09 A2997 RMK AO2 SFC VIS 1 1/2 SLP147 BR FEW000 T00890089;JFK;
LGA;05.01.2023;13:57;05.01.2023 13:57;47.00;44.00;89.92;40.00;7.00;0.00;29.96;;0.25;;OVC;;;;200.00;;;;FG;;;;;;;42.94;KLGA 051357Z 04007KT 1/4SM R04/3000V4500FT FG OVC002 08/07 A2996 RMK AO2 T00830067;LGA;
LGA;05.01.2023;14:22;05.01.2023 14:22;46.00;44.00;93.03;50.00;6.00;0.00;29.99;;1.50;;OVC;;;;400.00;;;;BR;;;;;;;42.39;KLGA 051422Z 05006KT 1 1/2SM BR OVC004 08/07 A2999 RMK AO2 SFC VIS 3 T00780067;LGA;
JFK;05.01.2023;14:41;05.01.2023 14:41;48.00;48.00;100.00;40.00;7.00;0.00;29.99;;3.00;;OVC;;;;500.00;;;;BR;;;;;;;44.28;KJFK 051441Z 04007KT 3SM BR OVC005 09/09 A2999 RMK AO2 SFC VIS 5 T00890089;JFK;
LGA;05.01.2023;14:51;05.01.2023 14:51;46.00;43.00;89.20;50.00;11.00;0.00;29.99;1015.40;5.00;;BKN;OVC;;;400.00;1100.00;;;BR;;;;;;;40.16;KLGA 051451Z 05011KT 5SM BR BKN004 OVC011 08/06 A2999 RMK AO2 SLP154 T00780061 53020;LGA;
JFK;05.01.2023;14:51;05.01.2023 14:51;48.00;48.00;100.00;40.00;7.00;0.00;30.00;1015.80;3.00;;OVC;;;;500.00;;;;BR;;;;;;;44.28;KJFK 051451Z 04007KT 3SM BR OVC005 09/09 A3000 RMK AO2 SFC VIS 6 SLP158 T00890089 53023;JFK;
LGA;05.01.2023;15:06;05.01.2023 15:06;46.00;44.00;93.03;50.00;9.00;0.00;29.99;;6.00;;FEW;OVC;;;400.00;900.00;;;BR;;;;;;;40.92;KLGA 051506Z 05009KT 6SM BR FEW004 OVC009 08/07 A2999 RMK AO2 T00780067;LGA;
LGA;05.01.2023;15:51;05.01.2023 15:51;46.00;44.00;93.03;60.00;6.00;0.00;30.00;1015.90;6.00;;BKN;OVC;;;600.00;1100.00;;;BR;;;;;;;42.39;KLGA 051551Z 06006KT 6SM BR BKN006 OVC011 08/07 A3000 RMK AO2 SLP159 T00780067;LGA;
JFK;05.01.2023;15:51;05.01.2023 15:51;48.00;47.00;95.95;50.00;5.00;0.00;30.01;1016.00;8.00;;OVC;;;;700.00;;;;;;;;;;;45.40;KJFK 051551Z 05005KT 8SM OVC007 09/08 A3001 RMK AO2 SLP160 T00890083;JFK;
JFK;05.01.2023;16:51;05.01.2023 16:51;49.00;47.00;92.77;50.00;7.00;0.00;29.99;1015.40;8.00;;OVC;;;;800.00;;;;;;;;;;;45.38;KJFK 051651Z 05007KT 8SM OVC008 09/08 A2999 RMK AO2 SLP154 T00940083;JFK;
LGA;05.01.2023;16:51;05.01.2023 16:51;46.00;44.00;93.03;60.00;8.00;0.00;29.98;1015.30;5.00;;BKN;OVC;;;600.00;1100.00;;;BR;;;;;;;41.36;KLGA 051651Z 06008KT 5SM BR BKN006 OVC011 08/07 A2998 RMK AO2 SLP153 T00780067;LGA;
LGA;05.01.2023;17:38;05.01.2023 17:38;46.00;44.00;93.03;40.00;8.00;0.00;29.97;;6.00;;OVC;;;;700.00;;;;BR;;;;;;;41.36;KLGA 051738Z 04008KT 6SM BR OVC007 08/07 A2997 RMK AO2 T00780067;LGA;
JFK;05.01.2023;17:51;05.01.2023 17:51;50.00;47.00;89.04;20.00;4.00;0.00;29.97;1014.90;9.00;;OVC;;;;800.00;;;;;;;;;;;50.00;KJFK 051751Z 02004KT 9SM OVC008 10/08 A2997 RMK AO2 SLP149 T01000083 10100 20083 58009;JFK;
LGA;05.01.2023;17:51;05.01.2023 17:51;46.00;44.00;93.03;40.00;6.00;0.00;29.97;1014.80;6.00;;OVC;;;;700.00;;;;BR;;;;;;;42.39;KLGA 051751Z 04006KT 6SM BR OVC007 08/07 A2997 RMK AO2 SLP148 T00780067 10083 20072 58006;LGA;
JFK;05.01.2023;18:31;05.01.2023 18:31;50.00;47.00;89.04;50.00;4.00;0.00;29.97;;10.00;;BKN;OVC;;;1000.00;1700.00;;;;;;;;;;50.00;KJFK 051831Z 05004KT 10SM BKN010 OVC017 10/08 A2997 RMK AO2 T01000083;JFK;
JFK;05.01.2023;18:51;05.01.2023 18:51;50.00;47.00;89.04;60.00;6.00;0.00;29.95;1014.30;10.00;;BKN;OVC;;;1000.00;2200.00;;;;;;;;;;50.00;KJFK 051851Z 06006KT 10SM BKN010 OVC022 10/08 A2995 RMK AO2 SLP143 T01000083;JFK;
LGA;05.01.2023;18:51;05.01.2023 18:51;46.00;43.00;89.20;50.00;7.00;0.00;29.95;1014.20;6.00;;OVC;;;;600.00;;;;BR;;;;;;;41.84;KLGA 051851Z 05007KT 6SM BR OVC006 08/06 A2995 RMK AO2 SLP142 T00780061;LGA;
JFK;05.01.2023;19:51;05.01.2023 19:51;50.00;47.00;89.04;60.00;5.00;0.00;29.94;1013.90;10.00;;OVC;;;;1100.00;;;;;;;;;;;50.00;KJFK 051951Z 06005KT 10SM OVC011 10/08 A2994 RMK AO2 SLP139 T01000083;JFK;
LGA;05.01.2023;19:51;05.01.2023 19:51;47.00;43.00;86.21;40.00;9.00;0.00;29.94;1013.80;10.00;;OVC;;;;600.00;;;;;;;;;;;42.04;KLGA 051951Z 04009KT 10SM OVC006 08/06 A2994 RMK AO2 SLP138 T00830061;LGA;
LGA;05.01.2023;20:03;05.01.2023 20:03;46.00;42.00;86.16;40.00;9.00;0.00;29.94;;10.00;;OVC;;;;700.00;;;;;;;;;;;40.92;KLGA 052003Z 04009KT 10SM OVC007 08/06 A2994 RMK AO2 T00780056;LGA;
JFK;05.01.2023;20:51;05.01.2023 20:51;49.00;47.00;92.77;40.00;7.00;0.00;29.94;1013.70;10.00;;OVC;;;;1100.00;;;;;;;;;;;45.38;KJFK 052051Z 04007KT 10SM OVC011 09/08 A2994 RMK AO2 SLP137 T00940083 56012;JFK;
LGA;05.01.2023;20:51;05.01.2023 20:51;46.00;42.00;86.16;30.00;8.00;0.00;29.94;1013.70;10.00;;OVC;;;;700.00;;;;;;;;;;;41.36;KLGA 052051Z 03008KT 10SM OVC007 08/06 A2994 RMK AO2 SLP137 T00780056 56011;LGA;
LGA;05.01.2023;21:38;05.01.2023 21:38;45.00;42.00;89.49;50.00;6.00;0.00;29.94;;10.00;;OVC;;;;600.00;;;;;;;;;;;41.19;KLGA 052138Z 05006KT 10SM OVC006 07/06 A2994 RMK AO2 T00720056;LGA;
LGA;05.01.2023;21:51;05.01.2023 21:51;46.00;43.00;89.20;40.00;4.00;0.00;29.95;1014.10;10.00;;OVC;;;;600.00;;;;;;;;;;;43.77;KLGA 052151Z 04004KT 10SM OVC006 08/06 A2995 RMK AO2 SLP141 T00780061;LGA;
JFK;05.01.2023;21:51;05.01.2023 21:51;48.00;46.00;92.74;80.00;4.00;0.00;29.95;1014.20;10.00;;OVC;;;;1000.00;;;;;;;;;;;46.10;KJFK 052151Z 08004KT 10SM OVC010 09/08 A2995 RMK AO2 SLP142 T00890078;JFK;
JFK;05.01.2023;22:45;05.01.2023 22:45;46.40;46.40;100.00;110.00;7.00;0.00;29.95;;10.00;;FEW;OVC;;;600.00;1200.00;;;;;;;;;;42.33;KJFK 052245Z 11007KT 10SM FEW006 OVC012 08/08 A2995 RMK AO2;JFK;
JFK;05.01.2023;22:51;05.01.2023 22:51;47.00;47.00;100.00;100.00;6.00;0.00;29.96;1014.40;10.00;;FEW;OVC;;;600.00;1200.00;;;;;;;;;;43.48;KJFK 052251Z 10006KT 10SM FEW006 OVC012 08/08 A2996 RMK AO2 SLP144 T00830083;JFK;
LGA;05.01.2023;22:51;05.01.2023 22:51;46.00;43.00;89.20;30.00;5.00;0.00;29.95;1014.20;10.00;;BKN;OVC;;;600.00;1300.00;;;;;;;;;;43.02;KLGA 052251Z 03005KT 10SM BKN006 OVC013 08/06 A2995 RMK AO2 SLP142 T00780061;LGA;
LGA;05.01.2023;23:05;05.01.2023 23:05;46.00;43.00;89.20;70.00;7.00;0.00;29.94;;8.00;;BKN;OVC;;;800.00;1300.00;;;;;;;;;;41.84;KLGA 052305Z 07007KT 8SM BKN008 OVC013 08/06 A2994 RMK AO2 T00780061;LGA;
LGA;05.01.2023;23:15;05.01.2023 23:15;46.00;43.00;89.20;50.00;6.00;T;29.95;;8.00;;BKN;OVC;;;600.00;1300.00;;;-RA;;;;;;;42.39;KLGA 052315Z 05006KT 8SM -RA BKN006 OVC013 08/06 A2995 RMK AO2 RAB07 P0000 T00780061;LGA;
LGA;05.01.2023;23:26;05.01.2023 23:26;46.00;43.00;89.20;40.00;6.00;T;29.95;;9.00;;OVC;;;;800.00;;;;;;;;;;;42.39;KLGA 052326Z 04006KT 9SM OVC008 08/06 A2995 RMK AO2 RAB07E17 P0000 T00780061;LGA;
JFK;05.01.2023;23:27;05.01.2023 23:27;47.00;47.00;100.00;120.00;7.00;0.00;29.96;;3.00;;BKN;OVC;;;600.00;1200.00;;;BR;;;;;;;42.94;KJFK 052327Z 12007KT 3SM BR BKN006 OVC012 08/08 A2996 RMK AO2 SFC VIS 6 T00830083;JFK;
JFK;05.01.2023;23:33;05.01.2023 23:33;46.00;46.00;100.00;120.00;7.00;0.00;29.97;;0.50;;BKN;OVC;;;400.00;1200.00;;;BR;;;;;;;41.84;KJFK 052333Z 12007KT 1/2SM R04R/P6000FT BR BKN004 OVC012 08/08 A2997 RMK AO2 SFC VIS 5 CIG 003V008 T00780078;JFK;
LGA;05.01.2023;23:51;05.01.2023 23:51;46.00;43.00;89.20;40.00;5.00;0.01;29.97;1014.70;10.00;;BKN;OVC;;;800.00;1200.00;;;-RA;;;;;;;43.02;KLGA 052351Z 04005KT 10SM -RA BKN008 OVC012 08/06 A2997 RMK AO2 RAB07E17B31 SLP147 P0001 60001 T00780061 10083 20072 53010;LGA;
JFK;05.01.2023;23:51;05.01.2023 23:51;46.00;46.00;100.00;120.00;5.00;0.00;29.97;1014.90;0.50;;BKN;OVC;;;400.00;800.00;;;BR;;;;;;;43.02;KJFK 052351Z 12005KT 1/2SM R04R/P6000FT BR BKN004 OVC008 08/08 A2997 RMK AO2 SFC VIS 5 SLP149 T00780078 10100 20078 53007;JFK;
JFK;06.01.2023;0:51;06.01.2023 00:51;46.00;46.00;100.00;100.00;5.00;T;29.97;1014.80;0.50;;OVC;;;;400.00;;;;-RA BR;;;;;;;43.02;KJFK 060051Z 10005KT 1/2SM R04R/P6000FT -RA BR OVC004 08/08 A2997 RMK AO2 SFC VIS 5 RAB46 CIG 003V007 SLP148 P0000 T00780078;JFK;
LGA;06.01.2023;0:51;06.01.2023 00:51;45.00;42.00;89.49;70.00;8.00;T;29.95;1014.30;9.00;;OVC;;;;900.00;;;;;;;;;;;40.13;KLGA 060051Z 07008KT 9SM OVC009 07/06 A2995 RMK AO2 RAE18 SLP143 P0000 T00720056;LGA;
JFK;06.01.2023;1:11;06.01.2023 01:11;46.00;46.00;100.00;100.00;8.00;T;29.97;;8.00;;OVC;;;;600.00;;;;;;;;;;;41.36;KJFK 060111Z 10008KT 8SM OVC006 08/08 A2997 RMK AO2 RAE01 CIG 004V008 P0000 T00780078;JFK;
LGA;06.01.2023;1:51;06.01.2023 01:51;45.00;42.00;89.49;50.00;6.00;0.00;29.96;1014.60;9.00;;OVC;;;;800.00;;;;;;;;;;;41.19;KLGA 060151Z 05006KT 9SM OVC008 07/06 A2996 RMK AO2 SLP146 T00720056;LGA;
JFK;06.01.2023;1:51;06.01.2023 01:51;46.00;46.00;100.00;110.00;5.00;T;29.97;1014.80;9.00;;OVC;;;;800.00;;;;;;;;;;;43.02;KJFK 060151Z 11005KT 9SM OVC008 08/08 A2997 RMK AO2 RAE01 SLP148 P0000 T00780078;JFK;
LGA;06.01.2023;2:27;06.01.2023 02:27;45.00;42.00;89.49;40.00;8.00;0.00;29.97;;5.00;;OVC;;;;700.00;;;;BR;;;;;;;40.13;KLGA 060227Z 04008KT 5SM BR OVC007 07/06 A2997 RMK AO2 T00720056;LGA;
LGA;06.01.2023;2:47;06.01.2023 02:47;44.60;42.80;93.35;40.00;9.00;T;29.97;;2.50;;OVC;;;;600.00;;;;-DZ BR;;;;;;;39.18;KLGA 060247Z 04009KT 2 1/2SM -DZ BR OVC006 07/06 A2997 RMK AO2 SFC VIS 3 DZB47 P0000;LGA;
LGA;06.01.2023;2:51;06.01.2023 02:51;44.00;41.00;88.77;40.00;8.00;T;29.97;1014.90;2.50;;OVC;;;;600.00;;;;-DZ BR;;;;;;;39.02;KLGA 060251Z 04008KT 2 1/2SM -DZ BR OVC006 07/05 A2997 RMK AO2 SFC VIS 3 DZB47 SLP149 P0000 60000 T00670050 53002;LGA;
JFK;06.01.2023;2:51;06.01.2023 02:51;46.00;46.00;100.00;80.00;6.00;T;29.98;1015.20;5.00;;OVC;;;;500.00;;;;-DZ BR;;;;;;;42.39;KJFK 060251Z 08006KT 5SM -DZ BR OVC005 08/08 A2998 RMK AO2 DZB48 SLP152 P0000 60000 T00780078 53003;JFK;
LGA;06.01.2023;3:07;06.01.2023 03:07;44.00;41.00;88.77;50.00;8.00;T;29.97;;1.50;;OVC;;;;400.00;;;;-DZ BR;;;;;;;39.02;KLGA 060307Z 05008KT 1 1/2SM -DZ BR OVC004 07/05 A2997 RMK AO2 TWR VIS 2 P0000 T00670050;LGA;
LGA;06.01.2023;3:42;06.01.2023 03:42;44.00;41.00;88.77;50.00;9.00;T;29.98;;2.00;;OVC;;;;600.00;;;;-DZ BR;;;;;;;38.56;KLGA 060342Z 05009KT 2SM -DZ BR OVC006 07/05 A2998 RMK AO2 P0000 T00670050;LGA;
JFK;06.01.2023;3:51;06.01.2023 03:51;45.00;45.00;100.00;60.00;9.00;0.02;29.98;1015.20;6.00;;OVC;;;;600.00;;;;-RA BR;;;;;;;39.68;KJFK 060351Z 06009KT 6SM -RA BR OVC006 07/07 A2998 RMK AO2 DZE38RAB38 SLP152 P0002 T00720072 $;JFK;
LGA;06.01.2023;3:51;06.01.2023 03:51;44.00;41.00;88.77;60.00;9.00;T;29.97;1014.90;2.00;;BKN;OVC;;;600.00;1200.00;;;-DZ BR;;;;;;;38.56;KLGA 060351Z 06009KT 2SM -DZ BR BKN006 OVC012 07/05 A2997 RMK AO2 SLP149 P0000 T00670050;LGA;
LGA;06.01.2023;4:09;06.01.2023 04:09;44.00;41.00;88.77;50.00;7.00;T;29.97;;5.00;;OVC;;;;800.00;;;;BR;;;;;;;39.53;KLGA 060409Z 05007KT 5SM BR OVC008 07/05 A2997 RMK AO2 DZE09 P0000 T00670050;LGA;
LGA;06.01.2023;4:51;06.01.2023 04:51;44.00;41.00;88.77;70.00;9.00;T;29.96;1014.50;10.00;;OVC;;;;800.00;;;;;;;;;;;38.56;KLGA 060451Z 07009KT 10SM OVC008 07/05 A2996 RMK AO2 DZE09 SLP145 P0000 T00670050 400890067;LGA;
JFK;06.01.2023;4:51;06.01.2023 04:51;45.00;44.00;96.63;70.00;7.00;T;29.98;1015.00;6.00;;OVC;;;;500.00;;;;BR;;;;;;;40.63;KJFK 060451Z 07007KT 6SM BR OVC005 07/07 A2998 RMK AO2 RAE0356 SLP150 P0000 T00720067 401060072 $;JFK;
LGA;06.01.2023;5:51;06.01.2023 05:51;44.00;40.00;85.06;40.00;5.00;0.00;29.95;1014.30;10.00;;OVC;;;;900.00;;;;;;;;;;;40.77;KLGA 060551Z 04005KT 10SM OVC009 07/04 A2995 RMK AO2 SLP143 60000 T00670044 10078 20067 58007;LGA;
JFK;06.01.2023;5:51;06.01.2023 05:51;44.00;43.00;95.88;100.00;6.00;0.00;29.96;1014.60;8.00;;OVC;;;;700.00;;;;;;;;;;;40.10;KJFK 060551Z 10006KT 8SM OVC007 07/06 A2996 RMK AO2 SLP146 60002 T00670061 10078 20067 58006 $;JFK;
JFK;06.01.2023;6:51;06.01.2023 06:51;44.00;43.00;95.88;100.00;4.00;T;29.97;1014.90;8.00;;OVC;;;;900.00;;;;-RA;;;;;;;41.55;KJFK 060651Z 10004KT 8SM -RA OVC009 07/06 A2997 RMK AO2 RAB17 SLP149 P0000 T00670061 $;JFK;
LGA;06.01.2023;6:51;06.01.2023 06:51;43.00;40.00;88.71;40.00;5.00;0.02;29.96;1014.50;5.00;;OVC;;;;800.00;;;;-RA BR;;;;;;;39.46;KLGA 060651Z 04005KT 5SM -RA BR OVC008 06/04 A2996 RMK AO2 RAB07 SLP145 P0002 T00610044;LGA;
LGA;06.01.2023;7:11;06.01.2023 07:11;43.00;40.00;88.71;30.00;5.00;0.02;29.97;;4.00;;OVC;;;;700.00;;;;RA BR;;;;;;;39.46;KLGA 060711Z 03005KT 4SM RA BR OVC007 06/04 A2997 RMK AO2 P0002 T00610044;LGA;
JFK;06.01.2023;7:51;06.01.2023 07:51;43.00;43.00;100.00;90.00;3.00;0.06;29.99;1015.40;8.00;;OVC;;;;900.00;;;;RA;;;;;;;41.26;KJFK 060751Z 09003KT 8SM RA OVC009 06/06 A2999 RMK AO2 SLP154 P0006 T00610061 $;JFK;
LGA;06.01.2023;7:51;06.01.2023 07:51;43.00;40.00;88.71;350.00;5.00;0.11;29.99;1015.40;4.00;;OVC;;;;700.00;;;;RA BR;;;;;;;39.46;KLGA 060751Z 35005KT 4SM RA BR OVC007 06/04 A2999 RMK AO2 SLP154 P0011 T00610044;LGA;
LGA;06.01.2023;8:23;06.01.2023 08:23;43.00;40.00;88.71;20.00;6.00;0.07;29.98;;5.00;;OVC;;;;900.00;;;;RA BR;;;;;;;38.78;KLGA 060823Z 02006KT 5SM RA BR OVC009 06/04 A2998 RMK AO2 P0007 T00610044;LGA;
LGA;06.01.2023;8:33;06.01.2023 08:33;43.00;40.00;88.71;30.00;5.00;0.09;29.98;;6.00;;FEW;OVC;;;600.00;1100.00;;;RA BR;;;;;;;39.46;KLGA 060833Z 03005KT 6SM RA BR FEW006 OVC011 06/04 A2998 RMK AO2 P0009 T00610044;LGA;
LGA;06.01.2023;8:51;06.01.2023 08:51;42.00;39.00;88.67;40.00;7.00;0.10;29.97;1014.90;6.00;;SCT;BKN;OVC;;600.00;1200.00;3400.00;;-RA BR;;;;;;;37.09;KLGA 060851Z 04007KT 6SM -RA BR SCT006 BKN012 OVC034 06/04 A2997 RMK AO2 SLP149 P0010 60023 T00560039 50006;LGA;
JFK;06.01.2023;8:51;06.01.2023 08:51;43.00;43.00;100.00;40.00;5.00;0.11;29.98;1015.10;5.00;;OVC;;;;900.00;;;;-RA BR;;;;;;;39.46;KJFK 060851Z 04005KT 5SM -RA BR OVC009 06/06 A2998 RMK AO2 SLP151 P0011 60017 T00610061 50005 $;JFK;
LGA;06.01.2023;9:45;06.01.2023 09:45;42.80;39.20;86.99;50.00;7.00;T;29.96;;7.00;;FEW;BKN;OVC;;600.00;1800.00;4700.00;;;;;;;;;37.94;KLGA 060945Z 05007KT 7SM FEW006 BKN018 OVC047 06/04 A2996 RMK AO2 RAE15 P0000;LGA;
JFK;06.01.2023;9:51;06.01.2023 09:51;43.00;43.00;100.00;350.00;3.00;0.01;29.98;1015.20;9.00;;OVC;;;;900.00;;;;;;;;;;;41.26;KJFK 060951Z 35003KT 9SM OVC009 06/06 A2998 RMK AO2 RAE08 SLP152 P0001 T00610061 $;JFK;
LGA;06.01.2023;9:51;06.01.2023 09:51;42.00;39.00;88.67;50.00;6.00;T;29.97;1014.70;7.00;;FEW;BKN;OVC;;600.00;2000.00;4700.00;;-RA;;;;;;;37.69;KLGA 060951Z 05006KT 7SM -RA FEW006 BKN020 OVC047 06/04 A2997 RMK AO2 RAE15B46 SLP147 P0000 T00560039;LGA;
LGA;06.01.2023;10:33;06.01.2023 10:33;42.00;39.00;88.67;80.00;6.00;T;29.96;;7.00;;FEW;SCT;BKN;;600.00;2500.00;4800.00;;;;;;;;;37.69;KLGA 061033Z 08006KT 7SM FEW006 SCT025 BKN048 06/04 A2996 RMK AO2 RAE0959 P0000 T00560039;LGA;
JFK;06.01.2023;10:51;06.01.2023 10:51;42.00;42.00;100.00;70.00;7.00;0.00;29.97;1014.80;8.00;;OVC;;;;700.00;;;;;;;;;;;37.09;KJFK 061051Z 07007KT 8SM OVC007 06/06 A2997 RMK AO2 SLP148 T00560056 $;JFK;
LGA;06.01.2023;10:51;06.01.2023 10:51;42.00;39.00;88.67;80.00;4.00;T;29.95;1014.10;7.00;;FEW;SCT;BKN;;600.00;2500.00;4800.00;;;;;;;;;39.21;KLGA 061051Z 08004KT 7SM FEW006 SCT025 BKN048 06/04 A2995 RMK AO2 RAE0959 SLP141 P0000 T00560039;LGA;
JFK;06.01.2023;11:36;06.01.2023 11:36;42.00;42.00;100.00;110.00;7.00;0.00;29.96;;10.00;;FEW;BKN;OVC;;900.00;5000.00;11000.00;;;;;;;;;37.09;KJFK 061136Z 11007KT 10SM FEW009 BKN050 OVC110 06/06 A2996 RMK AO2 T00560056 $;JFK;
JFK;06.01.2023;11:51;06.01.2023 11:51;42.00;41.00;95.84;120.00;6.00;0.00;29.97;1014.70;10.00;;FEW;FEW;BKN;;3900.00;5000.00;11000.00;;;;;;;;;37.69;KJFK 061151Z 12006KT 10SM FEW039 FEW050 BKN110 06/05 A2997 RMK AO2 SLP147 60018 70020 T00560050 10067 20056 58004 $;JFK;
LGA;06.01.2023;11:51;06.01.2023 11:51;42.00;39.00;88.67;100.00;8.00;0.00;29.95;1014.10;7.00;;SCT;BKN;BKN;;600.00;4600.00;11000.00;;;;;;;;;36.55;KLGA 061151Z 10008KT 7SM SCT006 BKN046 BKN110 06/04 A2995 RMK AO2 SLP141 60023 70024 T00560039 10067 20056 56008;LGA;
JFK;06.01.2023;12:11;06.01.2023 12:11;42.00;42.00;100.00;120.00;6.00;0.00;29.97;;10.00;;FEW;FEW;BKN;;600.00;5000.00;11000.00;;;;;;;;;37.69;KJFK 061211Z 12006KT 10SM FEW006 FEW050 BKN110 06/06 A2997 RMK A02 T00560056;JFK;
LGA;06.01.2023;12:51;06.01.2023 12:51;44.00;40.00;85.06;110.00;5.00;0.01;29.98;1015.00;5.00;;SCT;BKN;OVC;;600.00;900.00;4600.00;;-RA BR;;;;;;;40.77;KLGA 061251Z 11005KT 5SM -RA BR SCT006 BKN009 OVC046 07/04 A2998 RMK AO2 RAB37 SLP150 P0001 T00670044;LGA;
JFK;06.01.2023;12:51;06.01.2023 12:51;43.00;42.00;96.60;80.00;3.00;T;29.99;1015.40;9.00;;SCT;OVC;;;700.00;3700.00;;;-RA;;;;;;;41.26;KJFK 061251Z 08003KT 9SM -RA SCT007 OVC037 06/06 A2999 RMK AO2 RAB46 CIG 022 W SLP154 P0000 T00610056 $;JFK;
JFK;06.01.2023;13:20;06.01.2023 13:20;43.00;42.00;96.60;90.00;5.00;0.01;29.98;;8.00;;BKN;OVC;;;700.00;3700.00;;;-RA;;;;;;;39.46;KJFK 061320Z 09005KT 8SM -RA BKN007 OVC037 06/06 A2998 RMK AO2 CIG 007V012 P0001 T00610056 $;JFK;
LGA;06.01.2023;13:51;06.01.2023 13:51;43.00;39.00;85.66;50.00;6.00;T;29.97;1014.90;5.00;;SCT;BKN;OVC;;600.00;900.00;1400.00;;BR;;;;;;;38.78;KLGA 061351Z 05006KT 5SM BR SCT006 BKN009 OVC014 06/04 A2997 RMK AO2 RAE40 SLP149 P0000 T00610039;LGA;
JFK;06.01.2023;13:51;06.01.2023 13:51;43.00;42.00;96.60;70.00;6.00;0.02;29.98;1015.00;10.00;;OVC;;;;800.00;;;;-RA;;;;;;;38.78;KJFK 061351Z 07006KT 10SM -RA OVC008 06/06 A2998 RMK AO2 SLP150 P0002 T00610056;JFK;
JFK;06.01.2023;14:51;06.01.2023 14:51;43.00;42.00;96.60;40.00;4.00;T;30.00;1015.90;10.00;;OVC;;;;700.00;;;;;;;;;;;40.27;KJFK 061451Z 04004KT 10SM OVC007 06/06 A3000 RMK AO2 RAE1357B22E31 SLP159 P0000 60002 T00610056 53012;JFK;
LGA;06.01.2023;14:51;06.01.2023 14:51;43.00;39.00;85.66;40.00;4.00;0.00;29.99;1015.60;5.00;;FEW;OVC;;;600.00;900.00;;;BR;;;;;;;40.27;KLGA 061451Z 04004KT 5SM BR FEW006 OVC009 06/04 A2999 RMK AO2 SLP156 60001 T00610039 51015;LGA;
LGA;06.01.2023;15:36;06.01.2023 15:36;43.00;39.00;85.66;60.00;5.00;T;29.99;;6.00;;SCT;OVC;;;800.00;1100.00;;;-RA BR;;;;;;;39.46;KLGA 061536Z 06005KT 6SM -RA BR SCT008 OVC011 06/04 A2999 RMK AO2 RAB22 P0000 T00610039;LGA;
LGA;06.01.2023;15:51;06.01.2023 15:51;43.00;39.00;85.66;70.00;5.00;T;29.98;1015.30;5.00;;SCT;OVC;;;800.00;1100.00;;;-RA BR;;;;;;;39.46;KLGA 061551Z 07005KT 5SM -RA BR SCT008 OVC011 06/04 A2998 RMK AO2 RAB22 SLP153 P0000 T00610039;LGA;
JFK;06.01.2023;15:51;06.01.2023 15:51;44.00;42.00;92.62;0.00;0.00;T;29.99;1015.60;9.00;;OVC;;;;900.00;;;;-RA;;;;;;;44.10;KJFK 061551Z 00000KT 9SM -RA OVC009 07/06 A2999 RMK AO2 RAB05 SLP156 P0000 T00670056;JFK;
JFK;06.01.2023;16:51;06.01.2023 16:51;45.00;43.00;92.65;320.00;3.00;T;29.97;1014.90;4.00;;OVC;;;;900.00;;;;-RA BR;;;;;;;43.55;KJFK 061651Z 32003KT 4SM -RA BR OVC009 07/06 A2997 RMK AO2 RAE15B43 SLP149 P0000 T00720061;JFK;
LGA;06.01.2023;16:51;06.01.2023 16:51;43.00;39.00;85.66;40.00;5.00;T;29.96;1014.60;5.00;;BKN;OVC;;;800.00;1100.00;;;BR;;;;;;;39.46;KLGA 061651Z 04005KT 5SM BR BKN008 OVC011 06/04 A2996 RMK AO2 RAE1559 SLP146 P0000 T00610039;LGA;
LGA;06.01.2023;17:51;06.01.2023 17:51;44.00;40.00;85.06;70.00;6.00;0.00;29.95;1014.00;8.00;;FEW;SCT;BKN;;1100.00;1900.00;2500.00;;BR;;;;;;;40.10;KLGA 061751Z COR 07006KT 8SM FEW011 SCT019 BKN025 07/04 A2995 RMK AO2 SLP140 60001 T00670044 10067 20056 58016;LGA;
LGA;06.01.2023;18:51;06.01.2023 18:51;44.00;39.00;82.12;60.00;4.00;0.00;29.94;1013.90;10.00;;FEW;SCT;BKN;;1100.00;1800.00;2500.00;;;;;;;;;41.55;KLGA 061851Z 06004KT 10SM FEW011 SCT018 BKN025 07/04 A2994 RMK AO2 SLP139 T00670039;LGA;
JFK;06.01.2023;19:12;06.01.2023 19:12;45.00;44.00;96.63;200.00;6.00;0.00;29.97;;10.00;;FEW;BKN;BKN;;900.00;1800.00;4900.00;;;;;;;;;41.19;KJFK 061912Z COR 20006KT 10SM FEW009 BKN018 BKN049 07/07 A2997 RMK T00720067;JFK;
LGA;06.01.2023;19:33;06.01.2023 19:33;46.00;40.00;79.13;;3.00;0.00;29.95;;10.00;;FEW;BKN;BKN;;2700.00;4600.00;6000.00;;;;;;;;;44.69;KLGA 061933Z VRB03KT 10SM FEW027 BKN046 BKN060 08/04 A2995 RMK AO2 T00780044;LGA;
LGA;06.01.2023;19:51;06.01.2023 19:51;47.00;39.00;73.85;0.00;0.00;T;29.95;1014.30;10.00;;FEW;BKN;BKN;;2700.00;4600.00;6000.00;;;;;;;;;46.90;KLGA 061951Z 00000KT 10SM FEW027 BKN046 BKN060 08/04 A2995 RMK AO2 RAB36E45 SLP143 P0000 T00830039;LGA;
JFK;06.01.2023;19:51;06.01.2023 19:51;45.00;44.00;96.63;210.00;8.00;0.00;29.97;1014.80;10.00;;SCT;BKN;OVC;;900.00;1600.00;7000.00;;;;;;;;;40.13;KJFK 061951Z 21008KT 10SM SCT009 BKN016 OVC070 07/07 A2997 RMK SLP148 T00720067;JFK;
JFK;06.01.2023;20:30;06.01.2023 20:30;46.00;42.00;86.16;240.00;7.00;T;29.98;;10.00;;FEW;SCT;BKN;;1100.00;3100.00;5000.00;;;;;;;;;41.84;KJFK 062030Z 24007KT 10SM FEW011 SCT031 BKN050 08/06 A2998 RMK AO2 RAB1952E11 P0000 T00780056;JFK;
JFK;06.01.2023;20:51;06.01.2023 20:51;46.00;41.00;82.58;250.00;8.00;T;29.98;1015.30;10.00;;FEW;SCT;BKN;;1600.00;3100.00;4300.00;;;;;;;;;41.36;KJFK 062051Z 25008KT 10SM FEW016 SCT031 BKN043 08/05 A2998 RMK RAB1952E11 SLP153 P0000 60005 T00780050 53008;JFK;
LGA;06.01.2023;20:51;06.01.2023 20:51;48.00;36.00;62.97;290.00;10.00;T;29.97;1014.80;10.00;;FEW;SCT;BKN;;2900.00;5000.00;6500.00;;;;;;;;;43.03;KLGA 062051Z 29010KT 10SM FEW029 SCT050 BKN065 09/02 A2997 RMK AO2 RAB16E33 SLP148 P0000 60000 T00890022 53008;LGA;
JFK;06.01.2023;21:51;06.01.2023 21:51;45.00;39.00;79.36;260.00;13.00;0.00;30.00;1015.80;10.00;;FEW;BKN;;;2700.00;6500.00;;;;;;;;;;38.22;KJFK 062151Z 26013KT 10SM FEW027 BKN065 07/04 A3000 RMK SLP158 T00720039;JFK;
LGA;06.01.2023;21:51;06.01.2023 21:51;46.00;35.00;65.52;290.00;9.00;0.00;29.99;1015.50;10.00;;FEW;FEW;BKN;BKN;2700.00;5000.00;7000.00;13000.00;;;;;;;;40.92;KLGA 062151Z 29009KT 10SM FEW027 FEW050 BKN070 BKN130 08/02 A2999 RMK AO2 SLP155 T00780017;LGA;
LGA;06.01.2023;22:51;06.01.2023 22:51;46.00;35.00;65.52;290.00;10.00;0.00;30.01;1016.30;10.00;;BKN;BKN;BKN;;3800.00;7000.00;12000.00;;;;;;;;;40.52;KLGA 062251Z 29010KT 10SM BKN038 BKN070 BKN120 08/02 A3001 RMK AO2 SLP163 T00780017;LGA;
JFK;06.01.2023;22:51;06.01.2023 22:51;45.00;38.00;76.01;250.00;9.00;0.00;30.03;1016.90;10.00;;BKN;BKN;;;3100.00;4400.00;;;;;;;;;;39.68;KJFK 062251Z 25009KT 10SM BKN031 BKN044 07/03 A3003 RMK AO2 SLP169 T00720033 $;JFK;
LGA;06.01.2023;23:51;06.01.2023 23:51;46.00;32.00;57.87;300.00;13.00;0.00;30.04;1017.30;10.00;;FEW;BKN;BKN;BKN;3000.00;4500.00;7000.00;13000.00;;;;;;;;39.50;KLGA 062351Z 30013KT 10SM FEW030 BKN045 BKN070 BKN130 08/00 A3004 RMK AO2 SLP173 60000 T00780000 10089 20067 53025;LGA;
JFK;06.01.2023;23:51;06.01.2023 23:51;46.00;36.00;67.90;290.00;13.00;0.00;30.05;1017.50;10.00;17.00;BKN;BKN;;;3200.00;4200.00;;;;;;;;;;39.50;KJFK 062351Z 29013G17KT 10SM BKN032 BKN042 08/02 A3005 RMK SLP175 60005 T00780022 10083 20067 53023;JFK;
LGA;07.01.2023;0:51;07.01.2023 00:51;44.00;30.90;59.50;300.00;10.00;0.00;30.07;1018.00;10.00;;FEW;SCT;BKN;;3000.00;5500.00;13000.00;;;;;;;;;38.14;KLGA 070051Z 30010KT 10SM FEW030 SCT055 BKN130 07/M01 A3007 RMK AO2 SLP180 T00671006;LGA;
JFK;07.01.2023;0:51;07.01.2023 00:51;44.00;33.00;65.02;300.00;12.00;0.00;30.08;1018.40;10.00;;FEW;BKN;BKN;;3200.00;5000.00;8000.00;;;;;;;;;37.40;KJFK 070051Z 30012KT 10SM FEW032 BKN050 BKN080 07/01 A3008 RMK SLP184 T00670006;JFK;
JFK;07.01.2023;1:51;07.01.2023 01:51;42.00;32.00;67.17;290.00;15.00;0.00;30.10;1019.00;10.00;;FEW;FEW;BKN;;3200.00;6500.00;8000.00;;;;;;;;;33.87;KJFK 070151Z 29015KT 10SM FEW032 FEW065 BKN080 06/00 A3010 RMK SLP190 T00560000;JFK;
LGA;07.01.2023;1:51;07.01.2023 01:51;43.00;30.00;59.83;300.00;14.00;0.00;30.09;1018.80;10.00;20.00;FEW;BKN;;;3000.00;8500.00;;;;;;;;;;35.34;KLGA 070151Z 30014G20KT 10SM FEW030 BKN085 06/M01 A3009 RMK AO2 SLP188 T00611011;LGA;
JFK;07.01.2023;2:51;07.01.2023 02:51;42.00;32.00;67.17;290.00;10.00;0.00;30.11;1019.50;10.00;;FEW;FEW;BKN;;3200.00;6500.00;8500.00;;;;;;;;;35.63;KJFK 070251Z 29010KT 10SM FEW032 FEW065 BKN085 06/00 A3011 RMK SLP195 T00560000 51020;JFK;
LGA;07.01.2023;2:51;07.01.2023 02:51;43.00;30.00;59.83;300.00;14.00;0.00;30.10;1019.10;10.00;20.00;FEW;BKN;BKN;;3000.00;8000.00;9000.00;;;;;;;;;35.34;KLGA 070251Z 30014G20KT 10SM FEW030 BKN080 BKN090 06/M01 A3010 RMK AO2 SLP191 T00611011 51018;LGA;
JFK;07.01.2023;3:51;07.01.2023 03:51;41.00;30.90;67.03;300.00;13.00;0.00;30.12;1020.00;10.00;;FEW;SCT;;;6500.00;9000.00;;;;;;;;;;33.10;KJFK 070351Z 30013KT 10SM FEW065 SCT090 05/M01 A3012 RMK SLP200 T00501006;JFK;
LGA;07.01.2023;3:51;07.01.2023 03:51;41.00;28.00;59.55;290.00;11.00;0.00;30.11;1019.70;10.00;;FEW;SCT;SCT;;6000.00;8000.00;9000.00;;;;;;;;;33.84;KLGA 070351Z 29011KT 10SM FEW060 SCT080 SCT090 05/M02 A3011 RMK AO2 SLP197 T00501022;LGA;
JFK;07.01.2023;4:51;07.01.2023 04:51;40.00;30.90;69.96;300.00;11.00;0.00;30.12;1019.90;10.00;;FEW;SCT;;;6500.00;9000.00;;;;;;;;;;32.45;KJFK 070451Z 30011KT 10SM FEW065 SCT090 04/M01 A3012 RMK SLP199 T00441006 400830044;JFK;
LGA;07.01.2023;4:51;07.01.2023 04:51;41.00;28.90;61.79;290.00;11.00;0.00;30.11;1019.50;10.00;;SCT;;;;7500.00;;;;;;;;;;;33.84;KLGA 070451Z 29011KT 10SM SCT075 05/M02 A3011 RMK AO2 SLP195 T00501017 400890050;LGA;
LGA;07.01.2023;5:51;07.01.2023 05:51;40.00;28.00;62.15;290.00;8.00;0.00;30.10;1019.40;10.00;;CLR;;;;;;;;;;;;;;;33.84;KLGA 070551Z 29008KT 10SM CLR 04/M02 A3010 RMK AO2 SLP194 T00441022 10078 20044 50002;LGA;
JFK;07.01.2023;5:51;07.01.2023 05:51;39.00;30.00;69.85;290.00;8.00;0.00;30.12;1019.70;10.00;;FEW;FEW;;;6500.00;9000.00;;;;;;;;;;32.74;KJFK 070551Z 29008KT 10SM FEW065 FEW090 04/M01 A3012 RMK SLP197 T00391011 10072 20039 50002;JFK;
JFK;07.01.2023;6:51;07.01.2023 06:51;38.00;28.90;69.73;290.00;10.00;0.00;30.12;1019.90;10.00;;FEW;;;;9000.00;;;;;;;;;;;30.37;KJFK 070651Z 29010KT 10SM FEW090 03/M02 A3012 RMK SLP199 T00331017;JFK;
LGA;07.01.2023;6:51;07.01.2023 06:51;40.00;27.00;59.65;290.00;11.00;0.00;30.11;1019.50;10.00;;FEW;;;;7500.00;;;;;;;;;;;32.45;KLGA 070651Z 29011KT 10SM FEW075 04/M03 A3011 RMK AO2 SLP195 T00441028;LGA;
LGA;07.01.2023;7:51;07.01.2023 07:51;39.00;27.00;61.78;300.00;8.00;0.00;30.11;1019.60;10.00;;FEW;;;;7500.00;;;;;;;;;;;32.74;KLGA 070751Z 30008KT 10SM FEW075 04/M03 A3011 RMK AO2 SLP196 T00391028;LGA;
JFK;07.01.2023;7:51;07.01.2023 07:51;36.00;28.90;75.15;270.00;7.00;0.00;30.12;1020.00;10.00;;FEW;FEW;;;5000.00;9000.00;;;;;;;;;;29.65;KJFK 070751Z 27007KT 10SM FEW050 FEW090 02/M02 A3012 RMK SLP200 T00221017;JFK;
LGA;07.01.2023;8:51;07.01.2023 08:51;39.00;27.00;61.78;290.00;11.00;0.00;30.11;1019.60;10.00;;CLR;;;;;;;;;;;;;;;31.31;KLGA 070851Z 29011KT 10SM CLR 04/M03 A3011 RMK AO2 SLP196 T00391028 51002;LGA;
JFK;07.01.2023;8:51;07.01.2023 08:51;37.00;30.90;78.37;280.00;9.00;0.00;30.12;1020.00;10.00;;FEW;;;;4500.00;;;;;;;;;;;29.73;KJFK 070851Z 28009KT 10SM FEW045 03/M01 A3012 RMK SLP200 T00281006 50002;JFK;
JFK;07.01.2023;9:51;07.01.2023 09:51;37.00;30.90;78.37;270.00;9.00;0.00;30.12;1019.90;10.00;;FEW;FEW;;;4500.00;10000.00;;;;;;;;;;29.73;KJFK 070951Z 27009KT 10SM FEW045 FEW100 03/M01 A3012 RMK AO2 SLP199 T00281006 $;JFK;
LGA;07.01.2023;9:51;07.01.2023 09:51;38.00;28.00;67.20;280.00;11.00;0.00;30.11;1019.50;10.00;;CLR;;;;;;;;;;;;;;;29.92;KLGA 070951Z 28011KT 10SM CLR 03/M02 A3011 RMK AO2 SLP195 T00331022;LGA;
JFK;07.01.2023;10:51;07.01.2023 10:51;36.00;30.90;81.53;270.00;10.00;0.00;30.13;1020.30;10.00;;FEW;FEW;;;4500.00;10000.00;;;;;;;;;;27.98;KJFK 071051Z 27010KT 10SM FEW045 FEW100 02/M01 A3013 RMK SLP203 T00221006;JFK;
LGA;07.01.2023;10:51;07.01.2023 10:51;38.00;28.00;67.20;290.00;10.00;0.00;30.12;1019.80;10.00;;FEW;FEW;;;5000.00;9000.00;;;;;;;;;;30.37;KLGA 071051Z 29010KT 10SM FEW050 FEW090 03/M02 A3012 RMK AO2 SLP198 T00331022;LGA;
JFK;07.01.2023;11:51;07.01.2023 11:51;37.00;30.00;75.56;280.00;9.00;0.00;30.14;1020.50;10.00;;FEW;SCT;;;4500.00;10000.00;;;;;;;;;;29.73;KJFK 071151Z COR 28009KT 10SM FEW045 SCT100 03/M01 A3014 RMK SLP205 70007 T00281011 10039 20022 53005;JFK;
LGA;07.01.2023;11:51;07.01.2023 11:51;39.00;28.00;64.37;300.00;8.00;0.00;30.12;1020.10;10.00;;BKN;;;;5000.00;;;;;;;;;;;32.74;KLGA 071151Z 30008KT 10SM BKN050 04/M02 A3012 RMK AO2 SLP201 70001 T00391022 10044 20033 53005;LGA;
JFK;07.01.2023;12:51;07.01.2023 12:51;38.00;30.90;75.64;280.00;9.00;0.00;30.15;1020.80;10.00;;BKN;;;;7000.00;;;;;;;;;;;30.85;KJFK 071251Z 28009KT 10SM BKN070 03/M01 A3015 RMK AO2 SLP208 T00331006 $;JFK;
LGA;07.01.2023;12:51;07.01.2023 12:51;39.00;28.00;64.37;300.00;9.00;0.00;30.13;1020.30;10.00;;BKN;;;;5000.00;;;;;;;;;;;32.22;KLGA 071251Z 30009KT 10SM BKN050 04/M02 A3013 RMK AO2 SLP203 T00391022;LGA;
LGA;07.01.2023;13:51;07.01.2023 13:51;40.00;28.00;62.15;310.00;6.00;0.00;30.15;1020.80;10.00;;BKN;;;;7000.00;;;;;;;;;;;35.04;KLGA 071351Z 31006KT 10SM BKN070 04/M02 A3015 RMK AO2 SLP208 T00441022;LGA;
JFK;07.01.2023;13:51;07.01.2023 13:51;40.00;30.90;69.96;300.00;9.00;0.00;30.16;1021.30;10.00;;BKN;BKN;;;7000.00;12000.00;;;;;;;;;;33.34;KJFK 071351Z 30009KT 10SM BKN070 BKN120 04/M01 A3016 RMK SLP213 T00441006;JFK;
LGA;07.01.2023;14:51;07.01.2023 14:51;40.00;28.00;62.15;300.00;11.00;0.00;30.16;1021.20;10.00;;BKN;;;;7000.00;;;;;;;;;;;32.45;KLGA 071451Z 30011KT 10SM BKN070 04/M02 A3016 RMK AO2 SLP212 T00441022 53011;LGA;
JFK;07.01.2023;14:51;07.01.2023 14:51;42.00;30.90;64.24;300.00;11.00;0.00;30.17;1021.70;10.00;;OVC;;;;7000.00;;;;;;;;;;;35.23;KJFK 071451Z 30011KT 10SM OVC070 06/M01 A3017 RMK AO2 SLP217 T00561006 53012 $;JFK;
JFK;07.01.2023;15:51;07.01.2023 15:51;42.00;28.90;59.22;300.00;9.00;0.00;30.16;1021.20;10.00;;BKN;;;;7000.00;;;;;;;;;;;36.07;KJFK 071551Z 30009KT 10SM BKN070 06/M02 A3016 RMK AO2 SLP212 T00561017 $;JFK;
LGA;07.01.2023;15:51;07.01.2023 15:51;42.00;28.00;57.08;300.00;10.00;0.00;30.14;1020.70;10.00;20.00;BKN;;;;7000.00;;;;;;;;;;;35.63;KLGA 071551Z 30010G20KT 10SM BKN070 06/M02 A3014 RMK AO2 SLP207 T00561022;LGA;
JFK;07.01.2023;16:51;07.01.2023 16:51;44.00;28.90;54.85;290.00;12.00;0.00;30.13;1020.20;10.00;;BKN;BKN;;;7000.00;25000.00;;;;;;;;;;37.40;KJFK 071651Z 29012KT 10SM BKN070 BKN250 07/M02 A3013 RMK AO2 SLP202 T00671017 $;JFK;
LGA;07.01.2023;16:51;07.01.2023 16:51;44.00;28.90;54.85;310.00;9.00;0.00;30.12;1019.90;10.00;;BKN;;;;7000.00;;;;;;;;;;;38.56;KLGA 071651Z 31009KT 10SM BKN070 07/M02 A3012 RMK AO2 SLP199 T00671017;LGA;
LGA;07.01.2023;17:51;07.01.2023 17:51;44.00;27.00;50.73;300.00;11.00;0.00;30.11;1019.50;10.00;;BKN;;;;7500.00;;;;;;;;;;;37.76;KLGA 071751Z 30011KT 10SM BKN075 07/M03 A3011 RMK AO2 SLP195 T00671028 10072 20033 56016;LGA;
JFK;07.01.2023;17:51;07.01.2023 17:51;45.00;28.00;51.08;300.00;9.00;0.00;30.12;1019.80;10.00;;BKN;;;;7000.00;;;;;;;;;;;39.68;KJFK 071751Z 30009KT 10SM BKN070 07/M02 A3012 RMK SLP198 T00721022 10083 20028 56020;JFK;
LGA;07.01.2023;18:51;07.01.2023 18:51;44.00;27.00;50.73;300.00;11.00;0.00;30.11;1019.60;10.00;;BKN;;;;7500.00;;;;;;;;;;;37.76;KLGA 071851Z 30011KT 10SM BKN075 07/M03 A3011 RMK AO2 SLP196 T00671028;LGA;
JFK;07.01.2023;18:51;07.01.2023 18:51;45.00;28.00;51.08;300.00;10.00;0.00;30.12;1019.70;10.00;;FEW;OVC;;;4100.00;7000.00;;;;;;;;;;39.27;KJFK 071851Z 30010KT 10SM FEW041 OVC070 07/M02 A3012 RMK SLP197 T00721022;JFK;
JFK;07.01.2023;19:51;07.01.2023 19:51;44.00;28.90;54.85;310.00;13.00;0.00;30.13;1020.10;10.00;;FEW;BKN;;;4000.00;7500.00;;;;;;;;;;37.07;KJFK 071951Z 31013KT 10SM FEW040 BKN075 07/M02 A3013 RMK SLP201 T00671017;JFK;
LGA;07.01.2023;19:51;07.01.2023 19:51;44.00;28.00;52.86;300.00;12.00;0.00;30.12;1019.80;10.00;;SCT;BKN;;;4000.00;8000.00;;;;;;;;;;37.40;KLGA 071951Z 30012KT 10SM SCT040 BKN080 07/M02 A3012 RMK AO2 SLP198 T00671022;LGA;
LGA;07.01.2023;20:51;07.01.2023 20:51;44.00;28.00;52.86;310.00;11.00;0.00;30.13;1020.10;10.00;16.00;BKN;BKN;;;4200.00;8000.00;;;;;;;;;;37.76;KLGA 072051Z 31011G16KT 10SM BKN042 BKN080 07/M02 A3013 RMK AO2 SLP201 T00671022 53006;LGA;
JFK;07.01.2023;20:51;07.01.2023 20:51;43.00;28.90;57.21;300.00;13.00;0.00;30.14;1020.50;10.00;;FEW;BKN;BKN;;4000.00;8000.00;25000.00;;;;;;;;;35.66;KJFK 072051Z 30013KT 10SM FEW040 BKN080 BKN250 06/M02 A3014 RMK AO2 SLP205 T00611017 53007 $;JFK;
LGA;07.01.2023;21:51;07.01.2023 21:51;43.00;27.00;52.91;300.00;10.00;0.00;30.14;1020.60;10.00;;BKN;BKN;BKN;;4500.00;8000.00;20000.00;;;;;;;;;36.76;KLGA 072151Z 30010KT 10SM BKN045 BKN080 BKN200 06/M03 A3014 RMK AO2 SLP206 T00611028;LGA;
JFK;07.01.2023;21:51;07.01.2023 21:51;43.00;28.90;57.21;310.00;13.00;0.00;30.15;1020.90;10.00;;BKN;BKN;BKN;;4600.00;8000.00;25000.00;;;;;;;;;35.66;KJFK 072151Z 31013KT 10SM BKN046 BKN080 BKN250 06/M02 A3015 RMK SLP209 T00611017;JFK;
LGA;07.01.2023;22:51;07.01.2023 22:51;43.00;27.00;52.91;290.00;10.00;0.00;30.16;1021.30;10.00;;FEW;BKN;BKN;;8000.00;21000.00;25000.00;;;;;;;;;36.76;KLGA 072251Z 29010KT 10SM FEW080 BKN210 BKN250 06/M03 A3016 RMK AO2 SLP213 T00611028;LGA;
JFK;07.01.2023;22:51;07.01.2023 22:51;42.00;28.00;57.08;290.00;9.00;0.00;30.17;1021.60;10.00;;FEW;FEW;BKN;;4500.00;8000.00;20000.00;;;;;;;;;36.07;KJFK 072251Z 29009KT 10SM FEW045 FEW080 BKN200 06/M02 A3017 RMK AO2 SLP216 T00561022 $;JFK;
JFK;07.01.2023;23:51;07.01.2023 23:51;42.00;28.00;57.08;300.00;17.00;0.00;30.19;1022.40;10.00;21.00;FEW;FEW;BKN;BKN;5000.00;8000.00;18000.00;25000.00;;;;;;;;33.31;KJFK 072351Z 30017G21KT 10SM FEW050 FEW080 BKN180 BKN250 06/M02 A3019 RMK AO2 SLP224 T00561022 10078 20056 53019 $;JFK;
LGA;07.01.2023;23:51;07.01.2023 23:51;43.00;26.10;50.98;290.00;10.00;0.00;30.18;1022.10;10.00;;FEW;SCT;BKN;;8000.00;19000.00;25000.00;;;;;;;;;36.76;KLGA 072351Z 29010KT 10SM FEW080 SCT190 BKN250 06/M03 A3018 RMK AO2 SLP221 T00611033 10067 20061 53019;LGA;
LGA;08.01.2023;0:51;08.01.2023 00:51;42.00;28.00;57.08;300.00;10.00;0.00;30.21;1022.90;10.00;;FEW;FEW;SCT;BKN;4500.00;8500.00;20000.00;25000.00;;;;;;;;35.63;KLGA 080051Z 30010KT 10SM FEW045 FEW085 SCT200 BKN250 06/M02 A3021 RMK AO2 SLP229 T00561022;LGA;
JFK;08.01.2023;0:51;08.01.2023 00:51;41.00;28.90;61.79;290.00;10.00;0.00;30.22;1023.20;10.00;;FEW;FEW;SCT;BKN;5000.00;8000.00;19000.00;25000.00;;;;;;;;34.25;KJFK 080051Z 29010KT 10SM FEW050 FEW080 SCT190 BKN250 05/M02 A3022 RMK SLP232 T00501017;JFK;
LGA;08.01.2023;1:51;08.01.2023 01:51;41.00;28.00;59.55;300.00;11.00;0.00;30.21;1023.00;10.00;;FEW;FEW;;;5000.00;25000.00;;;;;;;;;;33.84;KLGA 080151Z 30011KT 10SM FEW050 FEW250 05/M02 A3021 RMK AO2 SLP230 T00501022;LGA;
JFK;08.01.2023;1:51;08.01.2023 01:51;41.00;28.90;61.79;300.00;11.00;0.00;30.23;1023.50;10.00;;FEW;FEW;FEW;;5000.00;8000.00;25000.00;;;;;;;;;33.84;KJFK 080151Z 30011KT 10SM FEW050 FEW080 FEW250 05/M02 A3023 RMK SLP235 T00501017;JFK;
LGA;08.01.2023;2:51;08.01.2023 02:51;41.00;27.00;57.15;310.00;9.00;0.00;30.22;1023.30;10.00;;FEW;FEW;;;5000.00;25000.00;;;;;;;;;;34.70;KLGA 080251Z 31009KT 10SM FEW050 FEW250 05/M03 A3022 RMK AO2 SLP233 T00501028 51012;LGA;
JFK;08.01.2023;2:51;08.01.2023 02:51;40.00;27.00;59.65;310.00;14.00;0.00;30.23;1023.50;10.00;;FEW;FEW;FEW;;5000.00;8000.00;25000.00;;;;;;;;;31.35;KJFK 080251Z 31014KT 10SM FEW050 FEW080 FEW250 04/M03 A3023 RMK AO2 SLP235 T00441028 51011 $;JFK;
LGA;08.01.2023;3:51;08.01.2023 03:51;40.00;26.10;57.47;300.00;10.00;0.00;30.23;1023.60;10.00;;FEW;FEW;;;5000.00;25000.00;;;;;;;;;;32.87;KLGA 080351Z 30010KT 10SM FEW050 FEW250 04/M03 A3023 RMK AO2 SLP236 T00441033;LGA;
JFK;08.01.2023;3:51;08.01.2023 03:51;39.00;26.10;59.52;310.00;11.00;0.00;30.24;1023.90;10.00;;FEW;FEW;;;7500.00;25000.00;;;;;;;;;;31.31;KJFK 080351Z 31011KT 10SM FEW075 FEW250 04/M03 A3024 RMK SLP239 T00391033;JFK;
LGA;08.01.2023;4:51;08.01.2023 04:51;40.00;26.10;57.47;320.00;11.00;0.00;30.23;1023.60;10.00;;FEW;FEW;;;5000.00;25000.00;;;;;;;;;;32.45;KLGA 080451Z 32011KT 10SM FEW050 FEW250 04/M03 A3023 RMK AO2 SLP236 T00441033 400720033;LGA;
JFK;08.01.2023;4:51;08.01.2023 04:51;38.00;26.10;62.14;310.00;11.00;0.00;30.24;1024.00;10.00;;FEW;SCT;;;7000.00;25000.00;;;;;;;;;;29.92;KJFK 080451Z 31011KT 10SM FEW070 SCT250 03/M03 A3024 RMK AO2 SLP240 T00331033 400830022 $;JFK;
LGA;08.01.2023;5:51;08.01.2023 05:51;39.00;25.00;56.86;300.00;10.00;0.00;30.24;1023.90;10.00;;FEW;FEW;;;5000.00;25000.00;;;;;;;;;;31.75;KLGA 080551Z 30010KT 10SM FEW050 FEW250 04/M04 A3024 RMK AO2 SLP239 T00391039 10061 20039 51007;LGA;
JFK;08.01.2023;5:51;08.01.2023 05:51;37.00;25.00;61.50;300.00;9.00;0.00;30.25;1024.30;10.00;;FEW;FEW;;;6500.00;25000.00;;;;;;;;;;29.73;KJFK 080551Z 30009KT 10SM FEW065 FEW250 03/M04 A3025 RMK SLP243 T00281039 10061 20028 51008;JFK;
JFK;08.01.2023;6:51;08.01.2023 06:51;37.00;25.00;61.50;310.00;11.00;0.00;30.27;1024.80;10.00;;FEW;FEW;;;5500.00;25000.00;;;;;;;;;;28.79;KJFK 080651Z 31011KT 10SM FEW055 FEW250 03/M04 A3027 RMK SLP248 T00281039;JFK;
LGA;08.01.2023;6:51;08.01.2023 06:51;38.00;25.00;59.36;320.00;13.00;0.00;30.25;1024.30;10.00;;CLR;;;;;;;;;;;;;;;29.13;KLGA 080651Z 32013KT 10SM CLR 03/M04 A3025 RMK AO2 SLP243 T00331039;LGA;
LGA;08.01.2023;7:51;08.01.2023 07:51;37.00;24.10;59.24;290.00;10.00;0.00;30.28;1025.40;10.00;;CLR;;;;;;;;;;;;;;;29.24;KLGA 080751Z 29010KT 10SM CLR 03/M04 A3028 RMK AO2 SLP254 T00281044;LGA;
JFK;08.01.2023;7:51;08.01.2023 07:51;36.00;25.00;63.98;320.00;10.00;0.00;30.28;1025.40;10.00;;FEW;;;;25000.00;;;;;;;;;;;27.98;KJFK 080751Z 32010KT 10SM FEW250 02/M04 A3028 RMK AO2 SLP254 T00221039 $;JFK;
JFK;08.01.2023;8:51;08.01.2023 08:51;35.00;24.10;63.86;330.00;10.00;0.00;30.28;1025.40;10.00;;FEW;;;;25000.00;;;;;;;;;;;26.86;KJFK 080851Z 33010KT 10SM FEW250 02/M04 A3028 RMK SLP254 T00171044 50010;JFK;
LGA;08.01.2023;8:51;08.01.2023 08:51;37.00;23.00;56.57;330.00;10.00;0.00;30.28;1025.40;10.00;;CLR;;;;;;;;;;;;;;;29.24;KLGA 080851Z 33010KT 10SM CLR 03/M05 A3028 RMK AO2 SLP254 T00281050 51015;LGA;
JFK;08.01.2023;9:51;08.01.2023 09:51;34.00;23.00;63.72;320.00;6.00;0.00;30.30;1026.00;10.00;;CLR;;;;;;;;;;;;;;;27.94;KJFK 080951Z 32006KT 10SM CLR 01/M05 A3030 RMK AO2 SLP260 T00111050 $;JFK;
LGA;08.01.2023;9:51;08.01.2023 09:51;36.00;21.00;54.08;320.00;11.00;0.00;30.30;1025.80;10.00;;CLR;;;;;;;;;;;;;;;27.52;KLGA 080951Z 32011KT 10SM CLR 02/M06 A3030 RMK AO2 SLP258 T00221061;LGA;
JFK;08.01.2023;10:51;08.01.2023 10:51;34.00;21.90;60.83;320.00;11.00;0.00;30.32;1026.70;10.00;;CLR;;;;;;;;;;;;;;;24.99;KJFK 081051Z 32011KT 10SM CLR 01/M06 A3032 RMK AO2 SLP267 T00111056 $;JFK;
LGA;08.01.2023;10:51;08.01.2023 10:51;36.00;21.00;54.08;320.00;9.00;0.00;30.31;1026.40;10.00;;CLR;;;;;;;;;;;;;;;28.49;KLGA 081051Z 32009KT 10SM CLR 02/M06 A3031 RMK AO2 SLP264 T00221061;LGA;
LGA;08.01.2023;11:51;08.01.2023 11:51;35.00;19.90;53.49;330.00;9.00;0.00;30.32;1026.70;10.00;;CLR;;;;;;;;;;;;;;;27.37;KLGA 081151Z 33009KT 10SM CLR 02/M07 A3032 RMK AO2 SLP267 T00171067 10039 20017 51014;LGA;
JFK;08.01.2023;11:51;08.01.2023 11:51;33.00;21.90;63.06;330.00;9.00;0.00;30.33;1027.00;10.00;;FEW;;;;3000.00;;;;;;;;;;;24.88;KJFK 081151Z 33009KT 10SM FEW030 01/M06 A3033 RMK A02 SLP270 T00061056 10033 20000 51016;JFK;
LGA;08.01.2023;12:51;08.01.2023 12:51;33.00;21.90;63.06;20.00;7.00;0.00;30.32;1026.50;10.00;;FEW;FEW;;;3000.00;9000.00;;;;;;;;;;26.12;KLGA 081251Z 02007KT 10SM FEW030 FEW090 01/M06 A3032 RMK AO2 SLP265 T00061056;LGA;
JFK;08.01.2023;12:51;08.01.2023 12:51;32.00;24.10;72.30;350.00;8.00;0.00;30.33;1027.00;10.00;;FEW;FEW;;;3000.00;25000.00;;;;;;;;;;24.11;KJFK 081251Z 35008KT 10SM FEW030 FEW250 00/M04 A3033 RMK AO2 SLP270 T00001044 $;JFK;
LGA;08.01.2023;13:51;08.01.2023 13:51;34.00;19.90;55.88;10.00;6.00;0.00;30.34;1027.30;10.00;;FEW;FEW;;;3000.00;9000.00;;;;;;;;;;27.94;KLGA 081351Z 01006KT 10SM FEW030 FEW090 01/M07 A3034 RMK AO2 SLP273 T00111067;LGA;
JFK;08.01.2023;13:51;08.01.2023 13:51;35.00;21.90;58.22;360.00;7.00;0.00;30.34;1027.50;10.00;;FEW;FEW;;;3000.00;25000.00;;;;;;;;;;28.56;KJFK 081351Z 36007KT 10SM FEW030 FEW250 02/M06 A3034 RMK SLP275 T00171056;JFK;
LGA;08.01.2023;14:51;08.01.2023 14:51;36.00;19.90;51.61;360.00;8.00;0.00;30.34;1027.40;10.00;;FEW;FEW;;;3500.00;10000.00;;;;;;;;;;29.04;KLGA 081451Z 36008KT 10SM FEW035 FEW100 02/M07 A3034 RMK AO2 SLP274 T00221067 53006;LGA;
JFK;08.01.2023;14:51;08.01.2023 14:51;36.00;23.00;58.85;20.00;6.00;0.00;30.36;1027.90;10.00;;FEW;FEW;;;3000.00;25000.00;;;;;;;;;;30.35;KJFK 081451Z 02006KT 10SM FEW030 FEW250 02/M05 A3036 RMK AO2 SLP279 T00221050 53009 $;JFK;
JFK;08.01.2023;15:51;08.01.2023 15:51;38.00;21.00;50.18;330.00;7.00;0.00;30.35;1027.50;10.00;;FEW;SCT;;;3000.00;25000.00;;;;;;;;;;31.97;KJFK 081551Z 33007KT 10SM FEW030 SCT250 03/M06 A3035 RMK AO2 SLP275 T00331061 $;JFK;
LGA;08.01.2023;15:51;08.01.2023 15:51;36.00;19.00;49.66;;3.00;0.00;30.34;1027.30;10.00;;FEW;FEW;FEW;;3500.00;10000.00;20000.00;;;;;;;;;33.26;KLGA 081551Z VRB03KT 10SM FEW035 FEW100 FEW200 02/M07 A3034 RMK AO2 SLP273 T00221072;LGA;
LGA;08.01.2023;16:51;08.01.2023 16:51;39.00;19.90;45.87;320.00;5.00;0.00;30.30;1026.10;10.00;;FEW;FEW;FEW;SCT;3500.00;10000.00;20000.00;25000.00;;;;;;;;34.71;KLGA 081651Z 32005KT 10SM FEW035 FEW100 FEW200 SCT250 04/M07 A3030 RMK AO2 SLP261 T00391067;LGA;
JFK;08.01.2023;16:51;08.01.2023 16:51;39.00;21.00;48.06;350.00;4.00;0.00;30.31;1026.50;10.00;;BKN;;;;25000.00;;;;;;;;;;;35.59;KJFK 081651Z 35004KT 10SM BKN250 04/M06 A3031 RMK AO2 SLP265 T00391061 $;JFK;
JFK;08.01.2023;17:51;08.01.2023 17:51;41.00;19.00;40.83;290.00;4.00;0.00;30.29;1025.80;10.00;;BKN;;;;25000.00;;;;;;;;;;;37.93;KJFK 081751Z 29004KT 10SM BKN250 05/M07 A3029 RMK SLP258 T00501072 10050 20000 58021;JFK;
LGA;08.01.2023;17:51;08.01.2023 17:51;39.00;17.10;40.67;0.00;0.00;0.00;30.28;1025.20;10.00;;FEW;SCT;BKN;;12000.00;20000.00;25000.00;;;;;;;;;39.00;KLGA 081751Z 00000KT 10SM FEW120 SCT200 BKN250 04/M08 A3028 RMK AO2 SLP252 T00391083 10039 20006 58021;LGA;
JFK;08.01.2023;18:51;08.01.2023 18:51;40.00;18.00;40.82;0.00;0.00;0.00;30.27;1025.00;10.00;;BKN;;;;25000.00;;;;;;;;;;;39.90;KJFK 081851Z 00000KT 10SM BKN250 04/M08 A3027 RMK AO2 SLP250 T00441078 $;JFK;
LGA;08.01.2023;18:51;08.01.2023 18:51;39.00;16.00;38.78;90.00;4.00;0.00;30.26;1024.50;10.00;;FEW;SCT;BKN;;12000.00;20000.00;25000.00;;;;;;;;;35.59;KLGA 081851Z 09004KT 10SM FEW120 SCT200 BKN250 04/M09 A3026 RMK AO2 SLP245 T00391089;LGA;
JFK;08.01.2023;19:51;08.01.2023 19:51;38.00;26.10;62.14;220.00;9.00;0.00;30.28;1025.20;10.00;;BKN;;;;25000.00;;;;;;;;;;;30.85;KJFK 081951Z 22009KT 10SM BKN250 03/M03 A3028 RMK SLP252 T00331033;JFK;
LGA;08.01.2023;19:51;08.01.2023 19:51;40.00;15.10;36.01;60.00;4.00;0.00;30.26;1024.50;10.00;;FEW;SCT;BKN;;12000.00;20000.00;25000.00;;;;;;;;;36.65;KLGA 081951Z 06004KT 10SM FEW120 SCT200 BKN250 04/M09 A3026 RMK AO2 SLP245 T00441094;LGA;
LGA;08.01.2023;20:51;08.01.2023 20:51;40.00;18.00;40.82;70.00;5.00;0.00;30.24;1023.90;10.00;;SCT;BKN;;;20000.00;25000.00;;;;;;;;;;35.78;KLGA 082051Z 07005KT 10SM SCT200 BKN250 04/M08 A3024 RMK AO2 SLP239 T00441078 56013;LGA;
JFK;08.01.2023;20:51;08.01.2023 20:51;38.00;24.10;57.18;200.00;6.00;0.00;30.26;1024.50;10.00;;FEW;BKN;;;20000.00;25000.00;;;;;;;;;;32.64;KJFK 082051Z 20006KT 10SM FEW200 BKN250 03/M04 A3026 RMK AO2 SLP245 T00331044 56013 $;JFK;
LGA;08.01.2023;21:51;08.01.2023 21:51;39.00;16.00;38.78;210.00;8.00;0.00;30.23;1023.60;10.00;;FEW;SCT;BKN;;13000.00;20000.00;25000.00;;;;;;;;;32.74;KLGA 082151Z 21008KT 10SM FEW130 SCT200 BKN250 04/M09 A3023 RMK AO2 SLP236 T00391089;LGA;
JFK;08.01.2023;21:51;08.01.2023 21:51;35.00;26.10;69.41;200.00;8.00;0.00;30.25;1024.30;10.00;;SCT;BKN;;;20000.00;25000.00;;;;;;;;;;27.93;KJFK 082151Z 20008KT 10SM SCT200 BKN250 02/M03 A3025 RMK SLP243 T00171033;JFK;
JFK;08.01.2023;22:51;08.01.2023 22:51;36.00;28.00;72.43;190.00;8.00;0.00;30.24;1023.80;10.00;;SCT;SCT;BKN;;14000.00;20000.00;25000.00;;;;;;;;;29.04;KJFK 082251Z 19008KT 10SM SCT140 SCT200 BKN250 02/M02 A3024 RMK AO2 SLP238 T00221022 $;JFK;
LGA;08.01.2023;22:51;08.01.2023 22:51;38.00;19.90;47.89;180.00;9.00;0.00;30.22;1023.20;10.00;;FEW;SCT;BKN;;12000.00;20000.00;25000.00;;;;;;;;;30.85;KLGA 082251Z 18009KT 10SM FEW120 SCT200 BKN250 03/M07 A3022 RMK AO2 SLP232 T00331067;LGA;
LGA;08.01.2023;23:51;08.01.2023 23:51;38.00;25.00;59.36;210.00;9.00;0.00;30.20;1022.60;10.00;;FEW;BKN;;;12000.00;25000.00;;;;;;;;;;30.85;KLGA 082351Z 21009KT 10SM FEW120 BKN250 03/M04 A3020 RMK AO2 SLP226 T00331039 10044 20033 58013 $;LGA;
JFK;08.01.2023;23:51;08.01.2023 23:51;36.00;28.90;75.15;190.00;8.00;0.00;30.22;1023.20;10.00;;SCT;SCT;BKN;;12000.00;20000.00;25000.00;;;;;;;;;29.04;KJFK 082351Z 19008KT 10SM SCT120 SCT200 BKN250 02/M02 A3022 RMK AO2 SLP232 T00221017 10050 20017 58013 $;JFK;
LGA;09.01.2023;0:51;09.01.2023 00:51;38.00;25.00;59.36;170.00;7.00;0.00;30.19;1022.20;10.00;;FEW;BKN;;;12000.00;25000.00;;;;;;;;;;31.97;KLGA 090051Z 17007KT 10SM FEW120 BKN250 03/M04 A3019 RMK AO2 SLP222 T00331039;LGA;
JFK;09.01.2023;0:51;09.01.2023 00:51;35.00;28.90;77.88;200.00;6.00;0.00;30.20;1022.60;10.00;;SCT;SCT;BKN;;12000.00;20000.00;25000.00;;;;;;;;;29.26;KJFK 090051Z 20006KT 10SM SCT120 SCT200 BKN250 02/M02 A3020 RMK AO2 SLP226 T00171017 $;JFK;
LGA;09.01.2023;1:51;09.01.2023 01:51;39.00;24.10;54.77;210.00;8.00;0.00;30.18;1021.90;10.00;;SCT;BKN;;;12000.00;25000.00;;;;;;;;;;32.74;KLGA 090151Z 21008KT 10SM SCT120 BKN250 04/M04 A3018 RMK AO2 SLP219 T00391044 $;LGA;
JFK;09.01.2023;1:51;09.01.2023 01:51;38.00;30.90;75.64;200.00;11.00;0.00;30.20;1022.60;10.00;;FEW;BKN;BKN;;2500.00;10000.00;23000.00;;;;;;;;;29.92;KJFK 090151Z 20011KT 10SM FEW025 BKN100 BKN230 03/M01 A3020 RMK AO2 SLP226 T00331006 $;JFK;
JFK;09.01.2023;2:51;09.01.2023 02:51;38.00;30.90;75.64;200.00;12.00;0.00;30.17;1021.60;10.00;;SCT;BKN;;;10000.00;22000.00;;;;;;;;;;29.51;KJFK 090251Z 20012KT 10SM SCT100 BKN220 03/M01 A3017 RMK SLP216 T00331006 58017;JFK;
LGA;09.01.2023;2:51;09.01.2023 02:51;39.00;25.00;56.86;210.00;7.00;0.00;30.16;1021.10;10.00;;SCT;BKN;;;11000.00;25000.00;;;;;;;;;;33.31;KLGA 090251Z 21007KT 10SM SCT110 BKN250 04/M04 A3016 RMK AO2 SLP211 T00391039 58015 $;LGA;
LGA;09.01.2023;3:51;09.01.2023 03:51;38.00;27.00;64.49;220.00;5.00;0.00;30.13;1020.20;10.00;;SCT;BKN;;;10000.00;25000.00;;;;;;;;;;33.40;KLGA 090351Z 22005KT 10SM SCT100 BKN250 03/M03 A3013 RMK AO2 SLP202 T00331028 $;LGA;
JFK;09.01.2023;3:51;09.01.2023 03:51;37.00;30.90;78.37;230.00;11.00;0.00;30.15;1020.80;10.00;;SCT;OVC;;;9500.00;21000.00;;;;;;;;;;28.79;KJFK 090351Z 23011KT 10SM SCT095 OVC210 03/M01 A3015 RMK AO2 SLP208 T00281006 $;JFK;
LGA;09.01.2023;4:51;09.01.2023 04:51;39.00;27.00;61.78;210.00;8.00;0.00;30.12;1019.80;10.00;;BKN;BKN;OVC;;5000.00;10000.00;20000.00;;;;;;;;;32.74;KLGA 090451Z 21008KT 10SM BKN050 BKN100 OVC200 04/M03 A3012 RMK AO2 SLP198 T00391028 400440006 $;LGA;
JFK;09.01.2023;4:51;09.01.2023 04:51;39.00;32.00;75.75;220.00;10.00;0.00;30.13;1020.30;10.00;;OVC;;;;5000.00;;;;;;;;;;;31.75;KJFK 090451Z 22010KT 10SM OVC050 04/00 A3013 RMK AO2 SLP203 T00390000 400500000 $;JFK;
LGA;09.01.2023;5:51;09.01.2023 05:51;39.00;28.00;64.37;200.00;8.00;0.00;30.08;1018.50;10.00;;OVC;;;;4300.00;;;;;;;;;;;32.74;KLGA 090551Z 20008KT 10SM OVC043 04/M02 A3008 RMK AO2 SLP185 T00391022 10039 20033 58026 $;LGA;
JFK;09.01.2023;5:51;09.01.2023 05:51;38.00;34.00;85.69;230.00;9.00;T;30.09;1019.00;10.00;;FEW;OVC;;;1300.00;4100.00;;;-RA;;;;;;;30.85;KJFK 090551Z 23009KT 10SM -RA FEW013 OVC041 03/01 A3009 RMK SLP190 RAB0458 P0000 60000 T00330011 10039 20017 58026;JFK;
LGA;09.01.2023;6:51;09.01.2023 06:51;39.00;30.00;69.85;170.00;3.00;T;30.05;1017.50;10.00;;FEW;OVC;;;2300.00;4300.00;;;;;;;;;;36.69;KLGA 090651Z 17003KT 10SM FEW023 OVC043 04/M01 A3005 RMK AO2 RAB0553E14 SLP175 P0000 T00391011 $;LGA;
JFK;09.01.2023;6:51;09.01.2023 06:51;39.00;36.00;88.87;240.00;5.00;T;30.07;1018.10;10.00;;SCT;OVC;;;2000.00;4200.00;;;-RA;;;;;;;34.71;KJFK 090651Z 24005KT 10SM -RA SCT020 OVC042 04/02 A3007 RMK SLP181 P0000 T00390022;JFK;
JFK;09.01.2023;7:20;09.01.2023 07:20;39.00;36.00;88.87;240.00;8.00;T;30.07;;10.00;;BKN;OVC;;;1800.00;4200.00;;;-RA;;;;;;;32.74;KJFK 090720Z 24008KT 10SM -RA BKN018 OVC042 04/02 A3007 RMK AO2 P0000 T00390022 $;JFK;
LGA;09.01.2023;7:51;09.01.2023 07:51;39.00;30.90;72.45;210.00;6.00;T;30.04;1017.10;10.00;;FEW;OVC;;;2100.00;4300.00;;;;;;;;;;33.96;KLGA 090751Z 21006KT 10SM FEW021 OVC043 04/M01 A3004 RMK AO2 RAB12E50 SLP171 P0000 T00391006 $;LGA;
JFK;09.01.2023;7:51;09.01.2023 07:51;38.00;35.00;89.53;230.00;10.00;T;30.05;1017.50;10.00;;BKN;OVC;;;1600.00;3300.00;;;-RA;;;;;;;30.37;KJFK 090751Z 23010KT 10SM -RA BKN016 OVC033 03/02 A3005 RMK AO2 SLP175 P0000 T00330017 $;JFK;
LGA;09.01.2023;8:18;09.01.2023 08:18;38.00;30.90;75.64;220.00;6.00;T;30.02;;10.00;;FEW;BKN;OVC;;1800.00;2700.00;3500.00;;-RA;;;;;;;32.64;KLGA 090818Z 22006KT 10SM -RA FEW018 BKN027 OVC035 03/M01 A3002 RMK AO2 RAB01 P0000 T00331006 $;LGA;
JFK;09.01.2023;8:51;09.01.2023 08:51;38.00;36.00;92.78;210.00;4.00;0.01;30.01;1016.00;8.00;;OVC;;;;1500.00;;;;-RA;;;;;;;34.31;KJFK 090851Z 21004KT 8SM -RA OVC015 03/02 A3001 RMK AO2 SLP160 P0001 60001 T00330022 58029 $;JFK;
LGA;09.01.2023;8:51;09.01.2023 08:51;38.00;32.00;79.08;210.00;5.00;T;29.99;1015.60;8.00;;FEW;BKN;OVC;;1200.00;2100.00;3300.00;;-RA;;;;;;;33.40;KLGA 090851Z 21005KT 8SM -RA FEW012 BKN021 OVC033 03/00 A2999 RMK AO2 RAB01 SLP156 P0000 60000 T00330000 58029 $;LGA;
JFK;09.01.2023;9:40;09.01.2023 09:40;37.00;37.00;100.00;260.00;4.00;0.01;29.98;;8.00;;OVC;;;;1000.00;;;;-RA;;;;;;;33.26;KJFK 090940Z 26004KT 8SM -RA OVC010 03/03 A2998 RMK P0001 T00280028;JFK;
LGA;09.01.2023;9:42;09.01.2023 09:42;38.00;33.00;82.66;340.00;6.00;T;29.97;;10.00;;BKN;OVC;;;1000.00;1700.00;;;-RA;;;;;;;32.64;KLGA 090942Z 34006KT 10SM -RA BKN010 OVC017 03/01 A2997 RMK AO2 RAE10B37 P0000 T00330006 $;LGA;
LGA;09.01.2023;9:51;09.01.2023 09:51;38.00;32.00;79.08;340.00;5.00;T;29.97;1014.70;10.00;;OVC;;;;1200.00;;;;;;;;;;;33.40;KLGA 090951Z 34005KT 10SM OVC012 03/00 A2997 RMK AO2 RAE10B37E51 SLP147 P0000 T00330000 $;LGA;
JFK;09.01.2023;9:51;09.01.2023 09:51;38.00;37.00;96.52;260.00;4.00;0.01;29.98;1015.20;9.00;;OVC;;;;1000.00;;;;-RA;;;;;;;34.31;KJFK 090951Z 26004KT 9SM -RA OVC010 03/03 A2998 RMK SLP152 P0001 T00330028;JFK;
LGA;09.01.2023;10:51;09.01.2023 10:51;38.00;32.00;79.08;310.00;6.00;0.00;29.97;1014.80;10.00;;OVC;;;;1200.00;;;;;;;;;;;32.64;KLGA 091051Z 31006KT 10SM OVC012 03/00 A2997 RMK AO2 SLP148 T00330000;LGA;
JFK;09.01.2023;10:51;09.01.2023 10:51;38.00;37.00;96.52;250.00;5.00;T;29.98;1015.20;10.00;;OVC;;;;1000.00;;;;;;;;;;;33.40;KJFK 091051Z 25005KT 10SM OVC010 03/03 A2998 RMK RAE50 SLP152 P0000 T00330028;JFK;
LGA;09.01.2023;11:51;09.01.2023 11:51;38.00;32.00;79.08;0.00;0.00;0.00;29.95;1014.10;10.00;;SCT;OVC;;;2300.00;3500.00;;;;;;;;;;37.90;KLGA 091151Z 00000KT 10SM SCT023 OVC035 03/00 A2995 RMK AO2 SLP141 60000 T00330000 10044 20033 56015;LGA;
JFK;09.01.2023;11:51;09.01.2023 11:51;38.00;36.00;92.78;320.00;3.00;0.00;29.97;1014.70;10.00;;OVC;;;;1100.00;;;;;;;;;;;35.43;KJFK 091151Z 32003KT 10SM OVC011 03/02 A2997 RMK SLP147 60002 70002 T00330022 10039 20028 56013;JFK;
JFK;09.01.2023;12:21;09.01.2023 12:21;38.00;36.00;92.78;30.00;5.00;0.00;29.96;;10.00;;FEW;BKN;BKN;;1200.00;1700.00;3800.00;;;;;;;;;33.40;KJFK 091221Z 03005KT 10SM FEW012 BKN017 BKN038 03/02 A2996 RMK T00330022;JFK;
LGA;09.01.2023;12:51;09.01.2023 12:51;39.00;32.00;75.75;320.00;8.00;0.00;29.95;1014.20;10.00;;SCT;BKN;BKN;OVC;2300.00;3500.00;7000.00;15000.00;;;;;;;;32.74;KLGA 091251Z 32008KT 10SM SCT023 BKN035 BKN070 OVC150 04/00 A2995 RMK AO2 SLP142 T00390000 $;LGA;
JFK;09.01.2023;12:51;09.01.2023 12:51;38.00;36.00;92.78;0.00;0.00;0.00;29.96;1014.60;10.00;;FEW;BKN;BKN;;1200.00;2600.00;10000.00;;;;;;;;;37.90;KJFK 091251Z 00000KT 10SM FEW012 BKN026 BKN100 03/02 A2996 RMK AO2 SLP146 T00330022;JFK;
JFK;09.01.2023;13:51;09.01.2023 13:51;39.00;34.00;82.08;330.00;7.00;0.00;29.97;1014.90;10.00;;SCT;BKN;BKN;BKN;1500.00;2400.00;6500.00;13000.00;;;;;;;;33.31;KJFK 091351Z 33007KT 10SM SCT015 BKN024 BKN065 BKN130 04/01 A2997 RMK AO2 SLP149 T00390011;JFK;
LGA;09.01.2023;13:51;09.01.2023 13:51;39.00;30.90;72.45;320.00;7.00;0.00;29.96;1014.60;10.00;;FEW;SCT;BKN;OVC;2300.00;3500.00;6500.00;15000.00;;;;;;;;33.31;KLGA 091351Z 32007KT 10SM FEW023 SCT035 BKN065 OVC150 04/M01 A2996 RMK AO2 SLP146 T00391006 $;LGA;
JFK;09.01.2023;14:42;09.01.2023 14:42;40.00;32.00;73.14;330.00;8.00;0.00;29.97;;10.00;;FEW;BKN;BKN;BKN;1800.00;6000.00;8500.00;13000.00;;;;;;;;33.84;KJFK 091442Z 33008KT 10SM FEW018 BKN060 BKN085 BKN130 04/00 A2997 RMK AO2 T00440000;JFK;
JFK;09.01.2023;14:51;09.01.2023 14:51;42.00;32.00;67.17;330.00;8.00;0.00;29.97;1014.80;10.00;;FEW;BKN;BKN;BKN;2000.00;6000.00;8500.00;13000.00;;;;;;;;36.55;KJFK 091451Z 33008KT 10SM FEW020 BKN060 BKN085 BKN130 06/00 A2997 RMK AO2 SLP148 T00560000 52001;JFK;
LGA;09.01.2023;14:51;09.01.2023 14:51;39.00;30.00;69.85;320.00;8.00;0.00;29.96;1014.50;10.00;;FEW;BKN;BKN;;3500.00;8500.00;11000.00;;;;;;;;;32.74;KLGA 091451Z 32008KT 10SM FEW035 BKN085 BKN110 04/M01 A2996 RMK AO2 SLP145 T00391011 50004 $;LGA;
LGA;09.01.2023;15:51;09.01.2023 15:51;40.00;28.90;64.49;300.00;8.00;0.00;29.95;1014.10;10.00;;FEW;SCT;;;2500.00;6000.00;;;;;;;;;;33.84;KLGA 091551Z 30008KT 10SM FEW025 SCT060 04/M02 A2995 RMK AO2 SLP141 T00441017 $;LGA;
JFK;09.01.2023;15:51;09.01.2023 15:51;43.00;30.00;59.83;310.00;12.00;0.00;29.96;1014.40;10.00;;FEW;SCT;BKN;BKN;2900.00;6000.00;9000.00;13000.00;;;;;;;;36.00;KJFK 091551Z 31012KT 10SM FEW029 SCT060 BKN090 BKN130 06/M01 A2996 RMK AO2 SLP144 T00611011;JFK;
JFK;09.01.2023;16:51;09.01.2023 16:51;43.00;30.00;59.83;340.00;10.00;0.00;29.92;1013.30;10.00;;FEW;FEW;SCT;;3800.00;9000.00;13000.00;;;;;;;;;36.76;KJFK 091651Z 34010KT 10SM FEW038 FEW090 SCT130 06/M01 A2992 RMK AO2 SLP133 T00611011;JFK;
LGA;09.01.2023;16:51;09.01.2023 16:51;42.00;27.00;54.78;310.00;10.00;0.00;29.92;1013.10;10.00;;FEW;SCT;;;3000.00;13000.00;;;;;;;;;;35.63;KLGA 091651Z 31010KT 10SM FEW030 SCT130 06/M03 A2992 RMK AO2 SLP131 T00561028 $;LGA;
JFK;09.01.2023;17:51;09.01.2023 17:51;44.00;28.00;52.86;300.00;13.00;0.00;29.90;1012.40;10.00;;FEW;FEW;FEW;;4300.00;9500.00;13000.00;;;;;;;;;37.07;KJFK 091751Z 30013KT 10SM FEW043 FEW095 FEW130 07/M02 A2990 RMK AO2 SLP124 T00671022 10072 20033 58024;JFK;
LGA;09.01.2023;17:51;09.01.2023 17:51;43.00;26.10;50.98;310.00;11.00;0.00;29.89;1012.20;10.00;;FEW;FEW;;;5000.00;13000.00;;;;;;;;;;36.37;KLGA 091751Z 31011KT 10SM FEW050 FEW130 06/M03 A2989 RMK AO2 SLP122 T00611033 10061 20033 58023 $;LGA;
JFK;09.01.2023;18:51;09.01.2023 18:51;45.00;26.10;47.23;310.00;12.00;0.00;29.88;1011.90;10.00;;FEW;FEW;;;4500.00;13000.00;;;;;;;;;;38.55;KJFK 091851Z 31012KT 10SM FEW045 FEW130 07/M03 A2988 RMK AO2 SLP119 T00721033;JFK;
LGA;09.01.2023;18:51;09.01.2023 18:51;44.00;25.00;46.70;310.00;12.00;0.00;29.88;1011.70;10.00;;FEW;FEW;;;4500.00;13000.00;;;;;;;;;;37.40;KLGA 091851Z 31012KT 10SM FEW045 FEW130 07/M04 A2988 RMK AO2 SLP117 T00671039 $;LGA;
LGA;09.01.2023;19:51;09.01.2023 19:51;44.00;24.10;44.98;320.00;13.00;0.00;29.88;1011.70;10.00;;FEW;;;;4000.00;;;;;;;;;;;37.07;KLGA 091951Z 32013KT 10SM FEW040 07/M04 A2988 RMK AO2 SLP117 T00671044 $;LGA;
JFK;09.01.2023;19:51;09.01.2023 19:51;45.00;25.00;45.12;310.00;10.00;0.00;29.88;1011.80;10.00;;FEW;;;;4500.00;;;;;;;;;;;39.27;KJFK 091951Z 31010KT 10SM FEW045 07/M04 A2988 RMK AO2 SLP118 T00721039;JFK;
JFK;09.01.2023;20:51;09.01.2023 20:51;44.00;24.10;44.98;310.00;12.00;0.00;29.89;1012.20;10.00;;CLR;;;;;;;;;;;;;;;37.40;KJFK 092051Z 31012KT 10SM CLR 07/M04 A2989 RMK AO2 SLP122 T00671044 55002;JFK;
LGA;09.01.2023;20:51;09.01.2023 20:51;44.00;24.10;44.98;320.00;9.00;0.00;29.89;1012.00;10.00;;FEW;;;;4000.00;;;;;;;;;;;38.56;KLGA 092051Z 32009KT 10SM FEW040 07/M04 A2989 RMK AO2 SLP120 T00671044 55002 $;LGA;
LGA;09.01.2023;21:51;09.01.2023 21:51;42.00;21.00;42.62;300.00;13.00;0.00;29.90;1012.30;10.00;;FEW;;;;4000.00;;;;;;;;;;;34.51;KLGA 092151Z 30013KT 10SM FEW040 06/M06 A2990 RMK AO2 SLP123 T00561061 $;LGA;
JFK;09.01.2023;21:51;09.01.2023 21:51;41.00;21.90;46.19;310.00;12.00;0.00;29.90;1012.40;10.00;;CLR;;;;;;;;;;;;;;;33.46;KJFK 092151Z 31012KT 10SM CLR 05/M06 A2990 RMK AO2 SLP124 T00501056;JFK;
LGA;09.01.2023;22:51;09.01.2023 22:51;41.00;21.90;46.19;310.00;14.00;0.00;29.91;1012.90;10.00;;CLR;;;;;;;;;;;;;;;32.76;KLGA 092251Z 31014KT 10SM CLR 05/M06 A2991 RMK AO2 SLP129 T00501056 $;LGA;
JFK;09.01.2023;22:51;09.01.2023 22:51;41.00;21.90;46.19;310.00;11.00;0.00;29.92;1013.10;10.00;;CLR;;;;;;;;;;;;;;;33.84;KJFK 092251Z 31011KT 10SM CLR 05/M06 A2992 RMK AO2 SLP131 T00501056;JFK;
JFK;09.01.2023;23:51;09.01.2023 23:51;40.00;21.90;48.21;310.00;13.00;0.00;29.94;1013.80;10.00;;CLR;;;;;;;;;;;;;;;31.69;KJFK 092351Z 31013KT 10SM CLR 04/M06 A2994 RMK AO2 SLP138 T00441056 10078 20044 53016;JFK;
LGA;09.01.2023;23:51;09.01.2023 23:51;40.00;23.00;50.50;310.00;12.00;0.00;29.93;1013.40;10.00;;CLR;;;;;;;;;;;;;;;32.06;KLGA 092351Z 31012KT 10SM CLR 04/M05 A2993 RMK AO2 SLP134 T00441050 10067 20044 53013 $;LGA;
JFK;10.01.2023;0:51;10.01.2023 00:51;40.00;23.00;50.50;300.00;9.00;0.00;29.94;1013.70;10.00;;CLR;;;;;;;;;;;;;;;33.34;KJFK 100051Z 30009KT 10SM CLR 04/M05 A2994 RMK AO2 SLP137 T00441050;JFK;
LGA;10.01.2023;0:51;10.01.2023 00:51;40.00;23.00;50.50;310.00;12.00;0.00;29.92;1013.30;10.00;;CLR;;;;;;;;;;;;;;;32.06;KLGA 100051Z 31012KT 10SM CLR 04/M05 A2992 RMK AO2 SLP133 T00441050 $;LGA;
LGA;10.01.2023;1:51;10.01.2023 01:51;40.00;21.90;48.21;290.00;5.00;0.00;29.92;1013.20;10.00;;CLR;;;;;;;;;;;;;;;35.78;KLGA 100151Z 29005KT 10SM CLR 04/M06 A2992 RMK AO2 SLP132 T00441056 $;LGA;
JFK;10.01.2023;1:51;10.01.2023 01:51;39.00;23.00;52.30;280.00;7.00;0.00;29.94;1013.70;10.00;;FEW;;;;25000.00;;;;;;;;;;;33.31;KJFK 100151Z 28007KT 10SM FEW250 04/M05 A2994 RMK AO2 SLP137 T00391050;JFK;
LGA;10.01.2023;2:51;10.01.2023 02:51;40.00;21.90;48.21;290.00;11.00;0.00;29.93;1013.30;10.00;17.00;CLR;;;;;;;;;;;;;;;32.45;KLGA 100251Z 29011G17KT 10SM CLR 04/M06 A2993 RMK AO2 SLP133 T00441056 55000 $;LGA;
JFK;10.01.2023;2:51;10.01.2023 02:51;39.00;25.00;56.86;260.00;10.00;0.00;29.94;1013.90;10.00;;FEW;;;;25000.00;;;;;;;;;;;31.75;KJFK 100251Z 26010KT 10SM FEW250 04/M04 A2994 RMK AO2 SLP139 T00391039 53001;JFK;
JFK;10.01.2023;3:51;10.01.2023 03:51;39.00;25.00;56.86;280.00;9.00;0.00;29.95;1014.10;10.00;;FEW;;;;25000.00;;;;;;;;;;;32.22;KJFK 100351Z 28009KT 10SM FEW250 04/M04 A2995 RMK AO2 SLP141 T00391039;JFK;
LGA;10.01.2023;3:51;10.01.2023 03:51;40.00;21.90;48.21;270.00;9.00;0.00;29.93;1013.50;10.00;;CLR;;;;;;;;;;;;;;;33.34;KLGA 100351Z 27009KT 10SM CLR 04/M06 A2993 RMK AO2 SLP135 T00441056 $;LGA;
JFK;10.01.2023;4:51;10.01.2023 04:51;38.00;26.10;62.14;270.00;10.00;0.00;29.95;1014.10;10.00;;FEW;;;;25000.00;;;;;;;;;;;30.37;KJFK 100451Z 27010KT 10SM FEW250 03/M03 A2995 RMK AO2 SLP141 T00331033 400780028;JFK;
LGA;10.01.2023;4:51;10.01.2023 04:51;40.00;21.90;48.21;310.00;12.00;0.00;29.93;1013.60;10.00;;CLR;;;;;;;;;;;;;;;32.06;KLGA 100451Z COR 31012KT 10SM CLR 04/M06 A2993 RMK AO2 SLP136 T00441056 400670033 $;LGA;
LGA;10.01.2023;5:51;10.01.2023 05:51;39.00;21.90;49.93;300.00;10.00;0.00;29.94;1013.80;10.00;;CLR;;;;;;;;;;;;;;;31.75;KLGA 100551Z 30010KT 10SM CLR 04/M06 A2994 RMK AO2 SLP138 T00391056 10044 20039 53005 $;LGA;
JFK;10.01.2023;5:51;10.01.2023 05:51;37.00;24.10;59.24;270.00;7.00;0.00;29.95;1014.20;10.00;;CLR;;;;;;;;;;;;;;;30.87;KJFK 100551Z 27007KT 10SM CLR 03/M04 A2995 RMK AO2 SLP142 T00281044 10050 20028 51003;JFK;
JFK;10.01.2023;6:51;10.01.2023 06:51;36.00;24.10;61.62;300.00;9.00;0.00;29.97;1014.90;10.00;;FEW;;;;4500.00;;;;;;;;;;;28.49;KJFK 100651Z 30009KT 10SM FEW045 02/M04 A2997 RMK AO2 SLP149 T00221044;JFK;
LGA;10.01.2023;6:51;10.01.2023 06:51;39.00;23.00;52.30;300.00;8.00;0.00;29.96;1014.50;10.00;;SCT;;;;4000.00;;;;;;;;;;;32.74;KLGA 100651Z 30008KT 10SM SCT040 04/M05 A2996 RMK AO2 SLP145 T00391050 $;LGA;
JFK;10.01.2023;7:51;10.01.2023 07:51;38.00;24.10;57.18;300.00;7.00;0.00;30.00;1015.70;10.00;16.00;SCT;;;;4000.00;;;;;;;;;;;31.97;KJFK 100751Z 30007G16KT 10SM SCT040 03/M04 A3000 RMK AO2 SLP157 T00331044;JFK;
LGA;10.01.2023;7:51;10.01.2023 07:51;39.00;21.90;49.93;290.00;8.00;0.00;29.98;1015.20;10.00;;BKN;;;;3900.00;;;;;;;;;;;32.74;KLGA 100751Z 29008KT 10SM BKN039 04/M06 A2998 RMK AO2 SLP152 T00391056 $;LGA;
LGA;10.01.2023;8:51;10.01.2023 08:51;39.00;23.00;52.30;300.00;7.00;0.00;29.97;1014.80;10.00;;BKN;;;;3800.00;;;;;;;;;;;33.31;KLGA 100851Z 30007KT 10SM BKN038 04/M05 A2997 RMK AO2 SLP148 T00391050 50010 $;LGA;
JFK;10.01.2023;8:51;10.01.2023 08:51;35.00;27.00;72.04;260.00;7.00;0.00;29.99;1015.40;10.00;;BKN;;;;3900.00;;;;;;;;;;;28.56;KJFK 100851Z 26007KT 10SM BKN039 02/M03 A2999 RMK AO2 SLP154 T00171028 50013;JFK;
LGA;10.01.2023;9:51;10.01.2023 09:51;39.00;24.10;54.77;300.00;7.00;0.00;29.98;1015.30;10.00;;OVC;;;;3600.00;;;;;;;;;;;33.31;KLGA 100951Z 30007KT 10SM OVC036 04/M04 A2998 RMK AO2 SLP153 T00391044 $;LGA;
JFK;10.01.2023;9:51;10.01.2023 09:51;36.00;28.00;72.43;260.00;7.00;0.00;30.00;1015.70;10.00;;BKN;;;;3900.00;;;;;;;;;;;29.65;KJFK 100951Z 26007KT 10SM BKN039 02/M02 A3000 RMK AO2 SLP157 T00221022;JFK;
LGA;10.01.2023;10:51;10.01.2023 10:51;39.00;25.00;56.86;320.00;8.00;0.00;30.00;1015.80;10.00;;OVC;;;;3600.00;;;;;;;;;;;32.74;KLGA 101051Z 32008KT 10SM OVC036 04/M04 A3000 RMK AO2 SLP158 T00391039;LGA;
JFK;10.01.2023;10:51;10.01.2023 10:51;37.00;27.00;66.82;260.00;8.00;0.00;30.02;1016.50;10.00;;OVC;;;;3600.00;;;;;;;;;;;30.27;KJFK 101051Z 26008KT 10SM OVC036 03/M03 A3002 RMK AO2 SLP165 T00281028;JFK;
JFK;10.01.2023;11:51;10.01.2023 11:51;39.00;26.10;59.52;330.00;12.00;0.00;30.03;1016.70;10.00;;BKN;;;;3600.00;;;;;;;;;;;30.91;KJFK 101151Z 33012KT 10SM BKN036 04/M03 A3003 RMK AO2 SLP167 T00391033 10039 20017 51013;JFK;
LGA;10.01.2023;11:51;10.01.2023 11:51;39.00;25.00;56.86;320.00;9.00;0.00;30.01;1016.30;10.00;;OVC;;;;3500.00;;;;;;;;;;;32.22;KLGA 101151Z 32009KT 10SM OVC035 04/M04 A3001 RMK AO2 SLP163 T00391039 10039 20039 53015;LGA;
LGA;10.01.2023;12:51;10.01.2023 12:51;40.00;25.00;54.90;280.00;7.00;0.00;30.03;1016.90;10.00;;BKN;OVC;;;3500.00;6000.00;;;;;;;;;;34.41;KLGA 101251Z 28007KT 10SM BKN035 OVC060 04/M04 A3003 RMK AO2 SLP169 T00441039;LGA;
JFK;10.01.2023;12:51;10.01.2023 12:51;38.00;28.00;67.20;260.00;10.00;0.00;30.05;1017.40;10.00;;BKN;BKN;;;3600.00;25000.00;;;;;;;;;;30.37;KJFK 101251Z 26010KT 10SM BKN036 BKN250 03/M02 A3005 RMK AO2 SLP174 T00331022;JFK;
JFK;10.01.2023;13:51;10.01.2023 13:51;38.00;28.90;69.73;240.00;7.00;0.00;30.06;1017.80;10.00;;BKN;BKN;;;3600.00;25000.00;;;;;;;;;;31.97;KJFK 101351Z 24007KT 10SM BKN036 BKN250 03/M02 A3006 RMK AO2 SLP178 T00331017;JFK;
LGA;10.01.2023;13:51;10.01.2023 13:51;40.00;25.00;54.90;300.00;6.00;0.00;30.04;1017.20;10.00;;BKN;OVC;;;3700.00;6000.00;;;;;;;;;;35.04;KLGA 101351Z 30006KT 10SM BKN037 OVC060 04/M04 A3004 RMK AO2 SLP172 T00441039;LGA;
JFK;10.01.2023;14:51;10.01.2023 14:51;39.00;28.90;66.79;240.00;11.00;0.00;30.07;1018.10;10.00;;OVC;;;;3700.00;;;;;;;;;;;31.31;KJFK 101451Z 24011KT 10SM OVC037 04/M02 A3007 RMK AO2 SLP181 T00391017 51014;JFK;
LGA;10.01.2023;14:51;10.01.2023 14:51;40.00;24.10;52.88;280.00;8.00;0.00;30.06;1017.70;10.00;;OVC;;;;3700.00;;;;;;;;;;;33.84;KLGA 101451Z 28008KT 10SM OVC037 04/M04 A3006 RMK AO2 SLP177 T00441044 51014 $;LGA;
LGA;10.01.2023;15:51;10.01.2023 15:51;41.00;25.00;52.61;280.00;7.00;0.00;30.05;1017.50;10.00;;OVC;;;;3600.00;;;;;;;;;;;35.75;KLGA 101551Z 28007KT 10SM OVC036 05/M04 A3005 RMK AO2 SLP175 T00501039 $;LGA;
JFK;10.01.2023;15:51;10.01.2023 15:51;40.00;30.00;67.45;240.00;8.00;0.00;30.06;1017.90;10.00;;OVC;;;;3800.00;;;;;;;;;;;33.84;KJFK 101551Z 24008KT 10SM OVC038 04/M01 A3006 RMK AO2 SLP179 T00441011;JFK;
LGA;10.01.2023;16:51;10.01.2023 16:51;41.00;25.00;52.61;280.00;6.00;0.00;30.03;1016.70;10.00;;OVC;;;;3700.00;;;;;;;;;;;36.37;KLGA 101651Z 28006KT 10SM OVC037 05/M04 A3003 RMK AO2 SLP167 T00501039 $;LGA;
JFK;10.01.2023;16:51;10.01.2023 16:51;40.00;30.00;67.45;270.00;8.00;0.00;30.04;1017.10;10.00;;OVC;;;;3600.00;;;;;;;;;;;33.84;KJFK 101651Z 27008KT 10SM OVC036 04/M01 A3004 RMK AO2 SLP171 T00441011;JFK;
JFK;10.01.2023;17:51;10.01.2023 17:51;41.00;28.00;59.55;260.00;9.00;0.00;30.03;1016.70;10.00;;OVC;;;;3600.00;;;;;;;;;;;34.70;KJFK 101751Z 26009KT 10SM OVC036 05/M02 A3003 RMK AO2 SLP167 T00501022 10050 20028 58014;JFK;
LGA;10.01.2023;17:51;10.01.2023 17:51;41.00;25.00;52.61;310.00;6.00;0.00;30.01;1016.30;10.00;;OVC;;;;3700.00;;;;;;;;;;;36.37;KLGA 101751Z 31006KT 10SM OVC037 05/M04 A3001 RMK AO2 SLP163 T00501039 10050 20039 58014 $;LGA;
LGA;10.01.2023;18:51;10.01.2023 18:51;41.00;26.10;55.07;290.00;8.00;0.00;30.02;1016.40;10.00;;OVC;;;;3600.00;;;;;;;;;;;35.20;KLGA 101851Z 29008KT 240V320 10SM OVC036 05/M03 A3002 RMK AO2 SLP164 T00501033 $;LGA;
JFK;10.01.2023;18:51;10.01.2023 18:51;40.00;28.00;62.15;260.00;10.00;0.00;30.03;1016.80;10.00;;OVC;;;;3600.00;;;;;;;;;;;32.87;KJFK 101851Z 26010KT 10SM OVC036 04/M02 A3003 RMK AO2 SLP168 T00441022;JFK;
JFK;10.01.2023;19:51;10.01.2023 19:51;41.00;28.00;59.55;270.00;10.00;0.00;30.03;1016.80;10.00;;OVC;;;;3800.00;;;;;;;;;;;34.25;KJFK 101951Z 27010KT 10SM OVC038 05/M02 A3003 RMK AO2 SLP168 T00501022;JFK;
LGA;10.01.2023;19:51;10.01.2023 19:51;41.00;27.00;57.15;290.00;6.00;0.00;30.02;1016.40;10.00;;FEW;OVC;;;3000.00;3900.00;;;;;;;;;;36.37;KLGA 101951Z 29006KT 10SM FEW030 OVC039 05/M03 A3002 RMK AO2 SLP164 T00501028 $;LGA;
JFK;10.01.2023;20:51;10.01.2023 20:51;40.00;28.90;64.49;250.00;9.00;0.00;30.04;1017.10;10.00;;OVC;;;;3800.00;;;;;;;;;;;33.34;KJFK 102051Z 25009KT 10SM OVC038 04/M02 A3004 RMK AO2 SLP171 T00441017 53004;JFK;
LGA;10.01.2023;20:51;10.01.2023 20:51;41.00;27.00;57.15;300.00;5.00;0.00;30.02;1016.60;10.00;;OVC;;;;3900.00;;;;;;;;;;;37.08;KLGA 102051Z 30005KT 10SM OVC039 05/M03 A3002 RMK AO2 SLP166 T00501028 53003 $;LGA;
JFK;10.01.2023;21:51;10.01.2023 21:51;41.00;28.90;61.79;310.00;5.00;0.00;30.05;1017.30;10.00;;OVC;;;;3700.00;;;;;;;;;;;37.08;KJFK 102151Z 31005KT 10SM OVC037 05/M02 A3005 RMK AO2 SLP173 T00501017;JFK;
LGA;10.01.2023;21:51;10.01.2023 21:51;41.00;26.10;55.07;310.00;6.00;0.00;30.03;1016.90;10.00;;OVC;;;;3900.00;;;;;;;;;;;36.37;KLGA 102151Z 31006KT 10SM OVC039 05/M03 A3003 RMK AO2 SLP169 T00501033;LGA;
JFK;10.01.2023;22:51;10.01.2023 22:51;41.00;28.00;59.55;320.00;7.00;0.00;30.06;1017.90;10.00;;OVC;;;;3900.00;;;;;;;;;;;35.75;KJFK 102251Z 32007KT 10SM OVC039 05/M02 A3006 RMK AO2 SLP179 T00501022;JFK;
LGA;10.01.2023;22:51;10.01.2023 22:51;41.00;26.10;55.07;300.00;10.00;0.00;30.05;1017.40;10.00;;OVC;;;;4100.00;;;;;;;;;;;34.25;KLGA 102251Z 30010KT 10SM OVC041 05/M03 A3005 RMK AO2 SLP174 T00501033;LGA;
JFK;10.01.2023;23:51;10.01.2023 23:51;41.00;27.00;57.15;310.00;9.00;0.00;30.08;1018.40;10.00;;OVC;;;;3900.00;;;;;;;;;;;34.70;KJFK 102351Z 31009KT 10SM OVC039 05/M03 A3008 RMK AO2 SLP184 T00501028 10050 20044 53013;JFK;
LGA;10.01.2023;23:51;10.01.2023 23:51;41.00;24.10;50.67;330.00;8.00;0.00;30.06;1018.00;10.00;;OVC;;;;3900.00;;;;;;;;;;;35.20;KLGA 102351Z 33008KT 10SM OVC039 05/M04 A3006 RMK AO2 SLP180 T00501044 10050 20050 53014;LGA;
JFK;11.01.2023;0:51;11.01.2023 00:51;40.00;27.00;59.65;340.00;6.00;0.00;30.09;1018.90;10.00;;OVC;;;;3800.00;;;;;;;;;;;35.04;KJFK 110051Z 34006KT 10SM OVC038 04/M03 A3009 RMK AO2 SLP189 T00441028;JFK;
LGA;11.01.2023;0:51;11.01.2023 00:51;41.00;24.10;50.67;320.00;12.00;0.00;30.08;1018.50;10.00;;OVC;;;;4000.00;;;;;;;;;;;33.46;KLGA 110051Z 32012KT 10SM OVC040 05/M04 A3008 RMK AO2 SLP185 T00501044;LGA;
JFK;11.01.2023;1:51;11.01.2023 01:51;40.00;25.00;54.90;350.00;10.00;0.00;30.10;1019.30;10.00;;OVC;;;;4000.00;;;;;;;;;;;32.87;KJFK 110151Z 35010KT 10SM OVC040 04/M04 A3010 RMK AO2 SLP193 T00441039;JFK;
LGA;11.01.2023;1:51;11.01.2023 01:51;40.00;23.00;50.50;340.00;7.00;0.00;30.09;1018.80;10.00;;OVC;;;;4300.00;;;;;;;;;;;34.41;KLGA 110151Z 34007KT 10SM OVC043 04/M05 A3009 RMK AO2 SLP188 T00441050;LGA;
LGA;11.01.2023;2:51;11.01.2023 02:51;40.00;23.00;50.50;330.00;8.00;0.00;30.11;1019.40;10.00;;OVC;;;;4400.00;;;;;;;;;;;33.84;KLGA 110251Z 33008KT 10SM OVC044 04/M05 A3011 RMK AO2 SLP194 T00441050 53014;LGA;
JFK;11.01.2023;2:51;11.01.2023 02:51;40.00;25.00;54.90;350.00;8.00;0.00;30.12;1019.80;10.00;;OVC;;;;4100.00;;;;;;;;;;;33.84;KJFK 110251Z 35008KT 10SM OVC041 04/M04 A3012 RMK AO2 SLP198 T00441039 51014;JFK;
JFK;11.01.2023;3:51;11.01.2023 03:51;40.00;25.00;54.90;350.00;7.00;0.00;30.12;1020.00;10.00;;OVC;;;;4300.00;;;;;;;;;;;34.41;KJFK 110351Z 35007KT 10SM OVC043 04/M04 A3012 RMK AO2 SLP200 T00441039;JFK;
LGA;11.01.2023;3:51;11.01.2023 03:51;40.00;24.10;52.88;330.00;9.00;0.00;30.11;1019.70;10.00;;OVC;;;;4400.00;;;;;;;;;;;33.34;KLGA 110351Z 33009KT 10SM OVC044 04/M04 A3011 RMK AO2 SLP197 T00441044;LGA;
LGA;11.01.2023;4:51;11.01.2023 04:51;40.00;24.10;52.88;360.00;7.00;0.00;30.13;1020.10;10.00;;OVC;;;;4400.00;;;;;;;;;;;34.41;KLGA 110451Z 36007KT 10SM OVC044 04/M04 A3013 RMK AO2 SLP201 T00441044 400500039;LGA;
JFK;11.01.2023;4:51;11.01.2023 04:51;39.00;25.00;56.86;340.00;9.00;0.00;30.14;1020.50;10.00;;OVC;;;;4400.00;;;;;;;;;;;32.22;KJFK 110451Z 34009KT 10SM OVC044 04/M04 A3014 RMK AO2 SLP205 T00391039 400500017;JFK;
JFK;11.01.2023;5:51;11.01.2023 05:51;38.00;27.00;64.49;40.00;9.00;0.00;30.14;1020.60;10.00;;OVC;;;;4600.00;;;;;;;;;;;30.85;KJFK 110551Z 04009KT 10SM OVC046 03/M03 A3014 RMK AO2 SLP206 T00331028 10050 20033 51008;JFK;
LGA;11.01.2023;5:51;11.01.2023 05:51;39.00;25.00;56.86;40.00;7.00;0.00;30.13;1020.30;10.00;;OVC;;;;4500.00;;;;;;;;;;;33.31;KLGA 110551Z 04007KT 10SM OVC045 04/M04 A3013 RMK AO2 SLP203 T00391039 10050 20039 51009;LGA;
LGA;11.01.2023;6:51;11.01.2023 06:51;38.00;24.10;57.18;70.00;9.00;0.00;30.14;1020.40;10.00;;OVC;;;;4500.00;;;;;;;;;;;30.85;KLGA 110651Z 07009KT 10SM OVC045 03/M04 A3014 RMK AO2 SLP204 T00331044;LGA;
JFK;11.01.2023;6:51;11.01.2023 06:51;37.00;27.00;66.82;40.00;9.00;0.00;30.15;1020.90;10.00;;OVC;;;;4500.00;;;;;;;;;;;29.73;KJFK 110651Z 04009KT 10SM OVC045 03/M03 A3015 RMK AO2 SLP209 T00281028;JFK;
JFK;11.01.2023;7:51;11.01.2023 07:51;36.00;25.00;63.98;40.00;7.00;0.00;30.18;1021.80;10.00;;OVC;;;;4500.00;;;;;;;;;;;29.65;KJFK 110751Z 04007KT 10SM OVC045 02/M04 A3018 RMK AO2 SLP218 T00221039;JFK;
LGA;11.01.2023;7:51;11.01.2023 07:51;37.00;23.00;56.57;70.00;8.00;0.00;30.17;1021.50;10.00;;OVC;;;;4400.00;;;;;;;;;;;30.27;KLGA 110751Z 07008KT 10SM OVC044 03/M05 A3017 RMK AO2 SLP215 T00281050 $;LGA;
JFK;11.01.2023;8:51;11.01.2023 08:51;36.00;25.00;63.98;30.00;9.00;0.00;30.18;1022.00;10.00;;OVC;;;;4400.00;;;;;;;;;;;28.49;KJFK 110851Z 03009KT 10SM OVC044 02/M04 A3018 RMK AO2 SLP220 T00221039 53014;JFK;
LGA;11.01.2023;8:51;11.01.2023 08:51;36.00;21.90;56.18;50.00;10.00;0.00;30.18;1021.90;10.00;;OVC;;;;4400.00;;;;;;;;;;;27.98;KLGA 110851Z 05010KT 10SM OVC044 02/M06 A3018 RMK AO2 SLP219 T00221056 53016 $;LGA;
LGA;11.01.2023;9:51;11.01.2023 09:51;36.00;21.00;54.08;40.00;9.00;0.00;30.20;1022.50;10.00;;OVC;;;;4300.00;;;;;;;;;;;28.49;KLGA 110951Z 04009KT 10SM OVC043 02/M06 A3020 RMK AO2 SLP225 T00221061 $;LGA;
JFK;11.01.2023;9:51;11.01.2023 09:51;35.00;23.00;60.99;20.00;9.00;0.00;30.20;1022.70;10.00;;OVC;;;;4400.00;;;;;;;;;;;27.37;KJFK 110951Z 02009KT 10SM OVC044 02/M05 A3020 RMK AO2 SLP227 T00171050;JFK;
JFK;11.01.2023;10:51;11.01.2023 10:51;35.00;23.00;60.99;40.00;10.00;0.00;30.19;1022.40;10.00;;OVC;;;;4400.00;;;;;;;;;;;26.86;KJFK 111051Z 04010KT 10SM OVC044 02/M05 A3019 RMK AO2 SLP224 T00171050;JFK;
LGA;11.01.2023;10:51;11.01.2023 10:51;35.00;19.90;53.49;50.00;11.00;0.00;30.18;1022.00;10.00;;OVC;;;;4400.00;;;;;;;;;;;26.38;KLGA 111051Z 05011KT 10SM OVC044 02/M07 A3018 RMK AO2 SLP220 T00171067 $;LGA;
JFK;11.01.2023;11:51;11.01.2023 11:51;35.00;24.10;63.86;50.00;10.00;0.00;30.20;1022.60;10.00;;BKN;;;;4400.00;;;;;;;;;;;26.86;KJFK 111151Z 05010KT 10SM BKN044 02/M04 A3020 RMK AO2 SLP226 T00171044 10033 20017 51006;JFK;
LGA;11.01.2023;11:51;11.01.2023 11:51;35.00;21.90;58.22;50.00;12.00;0.00;30.20;1022.60;10.00;;BKN;OVC;;;4400.00;25000.00;;;;;;;;;;25.95;KLGA 111151Z 05012KT 10SM BKN044 OVC250 02/M06 A3020 RMK AO2 SLP226 T00171056 10039 20017 51007 $;LGA;
JFK;11.01.2023;12:51;11.01.2023 12:51;35.00;23.00;60.99;40.00;7.00;0.00;30.24;1023.90;10.00;;BKN;;;;4300.00;;;;;;;;;;;28.56;KJFK 111251Z 04007KT 10SM BKN043 02/M05 A3024 RMK AO2 SLP239 T00171050;JFK;
LGA;11.01.2023;12:51;11.01.2023 12:51;35.00;21.90;58.22;70.00;11.00;0.00;30.23;1023.70;10.00;;BKN;OVC;;;4300.00;25000.00;;;;;;;;;;26.38;KLGA 111251Z 07011KT 10SM BKN043 OVC250 02/M06 A3023 RMK AO2 SLP237 T00171056 $;LGA;
JFK;11.01.2023;13:51;11.01.2023 13:51;35.00;24.10;63.86;40.00;8.00;0.00;30.25;1024.30;10.00;;FEW;BKN;;;3200.00;4300.00;;;;;;;;;;27.93;KJFK 111351Z 04008KT 10SM FEW032 BKN043 02/M04 A3025 RMK AO2 SLP243 T00171044;JFK;
LGA;11.01.2023;13:51;11.01.2023 13:51;35.00;21.00;56.05;60.00;9.00;0.00;30.24;1024.10;10.00;;BKN;BKN;;;4300.00;25000.00;;;;;;;;;;27.37;KLGA 111351Z 06009KT 10SM BKN043 BKN250 02/M06 A3024 RMK AO2 SLP241 T00171061 $;LGA;
JFK;11.01.2023;14:51;11.01.2023 14:51;36.00;24.10;61.62;70.00;9.00;0.00;30.27;1024.90;10.00;;FEW;BKN;BKN;;3200.00;4300.00;25000.00;;;;;;;;;28.49;KJFK 111451Z 07009KT 10SM FEW032 BKN043 BKN250 02/M04 A3027 RMK AO2 SLP249 T00221044 51023;JFK;
LGA;11.01.2023;14:51;11.01.2023 14:51;37.00;21.90;54.01;50.00;8.00;0.00;30.27;1024.90;10.00;;BKN;OVC;;;4400.00;15000.00;;;;;;;;;;30.27;KLGA 111451Z 05008KT 10SM BKN044 OVC150 03/M06 A3027 RMK AO2 SLP249 T00281056 51023 $;LGA;
LGA;11.01.2023;15:51;11.01.2023 15:51;36.00;19.90;51.61;40.00;9.00;0.00;30.26;1024.80;10.00;;BKN;BKN;;;4400.00;25000.00;;;;;;;;;;28.49;KLGA 111551Z 04009KT 10SM BKN044 BKN250 02/M07 A3026 RMK AO2 SLP248 T00221067;LGA;
JFK;11.01.2023;15:51;11.01.2023 15:51;38.00;24.10;57.18;50.00;8.00;0.00;30.27;1025.00;10.00;;FEW;BKN;BKN;;3400.00;4400.00;25000.00;;;;;;;;;31.38;KJFK 111551Z 05008KT 10SM FEW034 BKN044 BKN250 03/M04 A3027 RMK AO2 SLP250 T00331044;JFK;
LGA;11.01.2023;16:51;11.01.2023 16:51;37.00;21.90;54.01;40.00;9.00;0.00;30.26;1024.60;10.00;;BKN;BKN;;;4500.00;25000.00;;;;;;;;;;29.73;KLGA 111651Z 04009KT 10SM BKN045 BKN250 03/M06 A3026 RMK AO2 SLP246 T00281056;LGA;
JFK;11.01.2023;16:51;11.01.2023 16:51;39.00;23.00;52.30;30.00;6.00;0.00;30.27;1024.80;10.00;;FEW;BKN;BKN;;3700.00;4500.00;25000.00;;;;;;;;;33.96;KJFK 111651Z 03006KT 10SM FEW037 BKN045 BKN250 04/M05 A3027 RMK AO2 SLP248 T00391050;JFK;
JFK;11.01.2023;17:51;11.01.2023 17:51;39.00;21.90;49.93;0.00;0.00;0.00;30.24;1024.00;10.00;;FEW;BKN;BKN;;3700.00;4600.00;25000.00;;;;;;;;;39.00;KJFK 111751Z 00000KT 10SM FEW037 BKN046 BKN250 04/M06 A3024 RMK AO2 SLP240 T00391056 10044 20017 58008;JFK;
LGA;11.01.2023;17:51;11.01.2023 17:51;37.00;21.90;54.01;40.00;9.00;0.00;30.24;1023.90;10.00;;BKN;BKN;;;4600.00;25000.00;;;;;;;;;;29.73;KLGA 111751Z 04009KT 10SM BKN046 BKN250 03/M06 A3024 RMK AO2 SLP239 T00281056 10028 20017 58009;LGA;
LGA;11.01.2023;18:51;11.01.2023 18:51;38.00;21.00;50.18;50.00;8.00;0.00;30.23;1023.50;10.00;;BKN;BKN;;;4600.00;25000.00;;;;;;;;;;31.38;KLGA 111851Z 05008KT 10SM BKN046 BKN250 03/M06 A3023 RMK AO2 SLP235 T00331061;LGA;
JFK;11.01.2023;18:51;11.01.2023 18:51;40.00;21.90;48.21;30.00;8.00;0.00;30.23;1023.60;10.00;;FEW;BKN;BKN;;3700.00;4600.00;24000.00;;;;;;;;;33.84;KJFK 111851Z 03008KT 10SM FEW037 BKN046 BKN240 04/M06 A3023 RMK AO2 SLP236 BKN046 V SCT T00441056;JFK;
LGA;11.01.2023;19:51;11.01.2023 19:51;39.00;19.00;44.14;40.00;6.00;0.00;30.24;1023.90;10.00;;FEW;BKN;BKN;;3700.00;4500.00;25000.00;;;;;;;;;33.96;KLGA 111951Z 04006KT 10SM FEW037 BKN045 BKN250 04/M07 A3024 RMK AO2 SLP239 T00391072;LGA;
JFK;11.01.2023;19:51;11.01.2023 19:51;39.00;21.90;49.93;;4.00;0.00;30.24;1024.10;10.00;;FEW;BKN;OVC;;3700.00;4500.00;25000.00;;;;;;;;;35.59;KJFK 111951Z VRB04KT 10SM FEW037 BKN045 OVC250 04/M06 A3024 RMK AO2 SLP241 T00391056;JFK;
JFK;11.01.2023;20:51;11.01.2023 20:51;38.00;24.10;57.18;150.00;7.00;0.00;30.26;1024.60;10.00;;BKN;BKN;OVC;;4500.00;20000.00;25000.00;;;;;;;;;31.97;KJFK 112051Z 15007KT 10SM BKN045 BKN200 OVC250 03/M04 A3026 RMK AO2 SLP246 T00331044 53005;JFK;
LGA;11.01.2023;20:51;11.01.2023 20:51;38.00;19.00;46.08;60.00;6.00;0.00;30.24;1024.00;10.00;;FEW;BKN;OVC;;3700.00;4500.00;25000.00;;;;;;;;;32.64;KLGA 112051Z 06006KT 10SM FEW037 BKN045 OVC250 03/M07 A3024 RMK AO2 SLP240 T00331072 53000;LGA;
JFK;11.01.2023;21:51;11.01.2023 21:51;37.00;24.10;59.24;110.00;5.00;0.00;30.25;1024.40;10.00;;SCT;BKN;BKN;;4500.00;18000.00;25000.00;;;;;;;;;32.33;KJFK 112151Z 11005KT 10SM SCT045 BKN180 BKN250 03/M04 A3025 RMK AO2 SLP244 T00281044;JFK;
LGA;11.01.2023;21:51;11.01.2023 21:51;38.00;19.90;47.89;50.00;9.00;0.00;30.24;1024.00;10.00;;SCT;BKN;OVC;;4500.00;17000.00;25000.00;;;;;;;;;30.85;KLGA 112151Z 05009KT 10SM SCT045 BKN170 OVC250 03/M07 A3024 RMK AO2 SLP240 T00331067;LGA;
LGA;11.01.2023;22:51;11.01.2023 22:51;39.00;19.00;44.14;70.00;6.00;0.00;30.26;1024.70;10.00;;FEW;SCT;BKN;;4500.00;19000.00;25000.00;;;;;;;;;33.96;KLGA 112251Z 07006KT 10SM FEW045 SCT190 BKN250 04/M07 A3026 RMK AO2 SLP247 T00391072 $;LGA;
JFK;11.01.2023;22:51;11.01.2023 22:51;36.00;24.10;61.62;100.00;4.00;0.00;30.28;1025.20;10.00;;FEW;SCT;BKN;;4500.00;18000.00;25000.00;;;;;;;;;32.09;KJFK 112251Z 10004KT 10SM FEW045 SCT180 BKN250 02/M04 A3028 RMK AO2 SLP252 T00221044;JFK;
LGA;11.01.2023;23:51;11.01.2023 23:51;38.00;21.90;52.13;70.00;9.00;0.00;30.26;1024.50;10.00;;FEW;BKN;BKN;BKN;4500.00;15000.00;19000.00;25000.00;;;;;;;;30.85;KLGA 112351Z 07009KT 10SM FEW045 BKN150 BKN190 BKN250 03/M06 A3026 RMK AO2 SLP245 T00331056 10044 20028 50005 $;LGA;
JFK;11.01.2023;23:51;11.01.2023 23:51;36.00;26.10;66.97;90.00;5.00;0.00;30.27;1024.90;10.00;;FEW;SCT;BKN;;3400.00;15000.00;25000.00;;;;;;;;;31.15;KJFK 112351Z 09005KT 10SM FEW034 SCT150 BKN250 02/M03 A3027 RMK AO2 SLP249 T00221033 10044 20017 50003;JFK;
LGA;12.01.2023;0:51;12.01.2023 00:51;39.00;23.00;52.30;100.00;9.00;0.00;30.26;1024.70;10.00;;FEW;FEW;SCT;BKN;4000.00;15000.00;20000.00;25000.00;;;;;;;;32.22;KLGA 120051Z 10009KT 10SM FEW040 FEW150 SCT200 BKN250 04/M05 A3026 RMK AO2 SLP247 T00391050 $;LGA;
JFK;12.01.2023;0:51;12.01.2023 00:51;34.00;27.00;75.26;70.00;6.00;0.00;30.27;1025.00;10.00;;FEW;SCT;BKN;;3500.00;19000.00;25000.00;;;;;;;;;27.94;KJFK 120051Z 07006KT 10SM FEW035 SCT190 BKN250 01/M03 A3027 RMK AO2 SLP250 T00111028;JFK;
LGA;12.01.2023;1:51;12.01.2023 01:51;37.00;24.10;59.24;70.00;5.00;0.00;30.26;1024.60;10.00;;SCT;SCT;BKN;BKN;4000.00;10000.00;20000.00;25000.00;;;;;;;;32.33;KLGA 120151Z 07005KT 10SM SCT040 SCT100 BKN200 BKN250 03/M04 A3026 RMK AO2 SLP246 T00281044 $;LGA;
JFK;12.01.2023;1:51;12.01.2023 01:51;33.00;27.00;78.03;50.00;5.00;0.00;30.27;1024.90;10.00;;FEW;FEW;SCT;;3500.00;19000.00;25000.00;;;;;;;;;27.70;KJFK 120151Z 05005KT 10SM FEW035 FEW190 SCT250 01/M03 A3027 RMK AO2 SLP249 T00061028;JFK;
JFK;12.01.2023;2:51;12.01.2023 02:51;33.00;27.00;78.03;50.00;6.00;0.00;30.28;1025.20;10.00;;FEW;SCT;BKN;BKN;3500.00;8500.00;11000.00;25000.00;;;;;;;;26.86;KJFK 120251Z 05006KT 10SM FEW035 SCT085 BKN110 BKN250 01/M03 A3028 RMK AO2 SLP252 T00061028 53003;JFK;
LGA;12.01.2023;2:51;12.01.2023 02:51;37.00;25.00;61.50;90.00;9.00;0.00;30.26;1024.80;10.00;;FEW;BKN;BKN;BKN;3500.00;8500.00;20000.00;25000.00;;;;;;;;29.73;KLGA 120251Z 09009KT 10SM FEW035 BKN085 BKN200 BKN250 03/M04 A3026 RMK AO2 SLP248 T00281039 51003 $;LGA;
JFK;12.01.2023;3:51;12.01.2023 03:51;35.00;27.00;72.04;60.00;5.00;0.00;30.27;1025.00;10.00;;OVC;;;;7000.00;;;;;;;;;;;30.08;KJFK 120351Z 06005KT 10SM OVC070 02/M03 A3027 RMK AO2 SLP250 T00171028;JFK;
LGA;12.01.2023;3:51;12.01.2023 03:51;36.00;24.10;61.62;90.00;7.00;0.00;30.27;1024.80;10.00;;OVC;;;;7000.00;;;;;;;;;;;29.65;KLGA 120351Z 09007KT 10SM OVC070 02/M04 A3027 RMK AO2 SLP248 T00221044 $;LGA;
JFK;12.01.2023;4:51;12.01.2023 04:51;35.00;28.00;75.06;60.00;6.00;0.00;30.26;1024.60;10.00;;FEW;OVC;;;3500.00;7000.00;;;;;;;;;;29.26;KJFK 120451Z 06006KT 10SM FEW035 OVC070 02/M02 A3026 RMK AO2 SLP246 T00171022 400440000;JFK;
LGA;12.01.2023;4:51;12.01.2023 04:51;36.00;25.00;63.98;60.00;7.00;0.00;30.25;1024.30;10.00;;OVC;;;;6500.00;;;;;;;;;;;29.65;KLGA 120451Z 06007KT 10SM OVC065 02/M04 A3025 RMK AO2 SLP243 T00221039 400780017 $;LGA;
JFK;12.01.2023;5:51;12.01.2023 05:51;36.00;28.00;72.43;40.00;5.00;0.00;30.25;1024.10;10.00;;BKN;OVC;;;3100.00;7000.00;;;;;;;;;;31.15;KJFK 120551Z 04005KT 10SM BKN031 OVC070 02/M02 A3025 RMK AO2 SLP241 T00221022 10022 20000 58011;JFK;
LGA;12.01.2023;5:51;12.01.2023 05:51;37.00;25.00;61.50;80.00;5.00;0.00;30.24;1024.00;10.00;;BKN;OVC;;;3500.00;7000.00;;;;;;;;;;32.33;KLGA 120551Z 08005KT 10SM BKN035 OVC070 03/M04 A3024 RMK AO2 SLP240 T00281039 10044 20022 58008 $;LGA;
LGA;12.01.2023;6:05;12.01.2023 06:05;37.00;26.10;64.38;70.00;8.00;0.00;30.24;;10.00;;BKN;OVC;;;2800.00;3600.00;;;;;;;;;;30.27;KLGA 120605Z 07008KT 10SM BKN028 OVC036 03/M03 A3024 RMK AO2 T00281033 $;LGA;
JFK;12.01.2023;6:17;12.01.2023 06:17;37.00;28.90;72.24;30.00;5.00;0.00;30.25;;10.00;;OVC;;;;2800.00;;;;;;;;;;;32.33;KJFK 120617Z 03005KT 10SM OVC028 03/M02 A3025 RMK AO2 T00281017;JFK;
LGA;12.01.2023;6:51;12.01.2023 06:51;38.00;27.00;64.49;80.00;7.00;0.00;30.23;1023.70;10.00;;OVC;;;;2500.00;;;;;;;;;;;31.97;KLGA 120651Z 08007KT 10SM OVC025 03/M03 A3023 RMK AO2 SLP237 T00331028 $;LGA;
JFK;12.01.2023;6:51;12.01.2023 06:51;37.00;30.00;75.56;60.00;5.00;0.00;30.24;1024.00;10.00;;OVC;;;;2800.00;;;;;;;;;;;32.33;KJFK 120651Z 06005KT 10SM OVC028 03/M01 A3024 RMK AO2 SLP240 T00281011;JFK;
JFK;12.01.2023;7:51;12.01.2023 07:51;38.00;30.90;75.64;70.00;6.00;0.00;30.22;1023.10;10.00;;OVC;;;;2600.00;;;;;;;;;;;32.64;KJFK 120751Z 07006KT 10SM OVC026 03/M01 A3022 RMK AO2 SLP231 T00331006;JFK;
LGA;12.01.2023;7:51;12.01.2023 07:51;38.00;27.00;64.49;70.00;5.00;0.00;30.21;1023.00;10.00;;OVC;;;;2400.00;;;;;;;;;;;33.40;KLGA 120751Z 07005KT 10SM OVC024 03/M03 A3021 RMK AO2 SLP230 T00331028 $;LGA;
LGA;12.01.2023;8:51;12.01.2023 08:51;38.00;28.90;69.73;50.00;7.00;0.00;30.19;1022.40;10.00;;BKN;OVC;;;2000.00;2700.00;;;;;;;;;;31.97;KLGA 120851Z 05007KT 10SM BKN020 OVC027 03/M02 A3019 RMK AO2 SLP224 T00331017 58016 $;LGA;
JFK;12.01.2023;8:51;12.01.2023 08:51;39.00;33.00;79.17;80.00;7.00;0.00;30.20;1022.60;10.00;;BKN;OVC;;;2800.00;5500.00;;;;;;;;;;33.31;KJFK 120851Z 08007KT 10SM BKN028 OVC055 04/01 A3020 RMK AO2 SLP226 T00390006 58016;JFK;
LGA;12.01.2023;9:51;12.01.2023 09:51;39.00;30.00;69.85;70.00;6.00;0.00;30.18;1022.00;10.00;;OVC;;;;2200.00;;;;;;;;;;;33.96;KLGA 120951Z 07006KT 10SM OVC022 04/M01 A3018 RMK AO2 SLP220 T00391011 $;LGA;
JFK;12.01.2023;9:51;12.01.2023 09:51;40.00;34.00;79.25;70.00;6.00;0.00;30.19;1022.30;10.00;;BKN;OVC;;;2400.00;5000.00;;;;;;;;;;35.04;KJFK 120951Z 07006KT 10SM BKN024 OVC050 04/01 A3019 RMK AO2 SLP223 T00440011;JFK;
JFK;12.01.2023;10:51;12.01.2023 10:51;43.00;38.00;82.04;100.00;8.00;0.00;30.19;1022.20;10.00;;BKN;OVC;;;2200.00;5500.00;;;;;;;;;;37.66;KJFK 121051Z 10008KT 10SM BKN022 OVC055 06/03 A3019 RMK AO2 SLP222 T00610033;JFK;
LGA;12.01.2023;10:51;12.01.2023 10:51;39.00;32.00;75.75;50.00;7.00;T;30.19;1022.30;10.00;;BKN;OVC;;;2000.00;2500.00;;;-RA;;;;;;;33.31;KLGA 121051Z 05007KT 10SM -RA BKN020 OVC025 04/00 A3019 RMK AO2 RAB49 SLP223 P0000 T00390000 $;LGA;
LGA;12.01.2023;11:51;12.01.2023 11:51;39.00;33.00;79.17;40.00;8.00;0.02;30.19;1022.20;10.00;;BKN;OVC;;;1900.00;2500.00;;;-RA;;;;;;;32.74;KLGA 121151Z 04008KT 10SM -RA BKN019 OVC025 04/01 A3019 RMK AO2 SLP222 P0002 60002 70002 T00390006 10044 20028 56003 $;LGA;
JFK;12.01.2023;11:51;12.01.2023 11:51;43.00;39.00;85.66;90.00;7.00;T;30.19;1022.20;10.00;;FEW;BKN;OVC;;1800.00;2300.00;5000.00;;-RA;;;;;;;38.19;KJFK 121151Z 09007KT 10SM -RA FEW018 BKN023 OVC050 06/04 A3019 RMK AO2 RAB26 SLP222 P0000 60000 T00610039 10061 20022 56003;JFK;
JFK;12.01.2023;12:51;12.01.2023 12:51;42.00;41.00;95.84;140.00;3.00;0.02;30.19;1022.20;8.00;;BKN;BKN;OVC;;1600.00;2100.00;3500.00;;-RA;;;;;;;40.23;KJFK 121251Z 14003KT 8SM -RA BKN016 BKN021 OVC035 06/05 A3019 RMK AO2 SLP222 P0002 T00560050;JFK;
LGA;12.01.2023;12:51;12.01.2023 12:51;40.00;34.00;79.25;60.00;9.00;T;30.18;1022.00;8.00;;BKN;BKN;OVC;;1900.00;3000.00;3900.00;;-RA;;;;;;;33.34;KLGA 121251Z 06009KT 8SM -RA BKN019 BKN030 OVC039 04/01 A3018 RMK AO2 SLP220 P0000 T00440011 $;LGA;
JFK;12.01.2023;13:08;12.01.2023 13:08;43.00;41.00;92.58;80.00;4.00;0.01;30.19;;5.00;;BKN;OVC;;;1200.00;3100.00;;;RA BR;;;;;;;40.27;KJFK 121308Z 08004KT 5SM RA BR BKN012 OVC031 06/05 A3019 RMK AO2 P0001 T00610050;JFK;
LGA;12.01.2023;13:51;12.01.2023 13:51;41.00;35.00;79.34;60.00;10.00;0.02;30.18;1022.00;5.00;;FEW;BKN;OVC;;1600.00;2300.00;3800.00;;-RA;;;;;;;34.25;KLGA 121351Z 06010KT 5SM -RA FEW016 BKN023 OVC038 05/02 A3018 RMK AO2 SLP220 P0002 T00500017 $;LGA;
JFK;12.01.2023;13:51;12.01.2023 13:51;44.00;42.00;92.62;90.00;5.00;0.03;30.19;1022.30;8.00;;FEW;BKN;OVC;;1200.00;2200.00;3400.00;;-RA;;;;;;;40.77;KJFK 121351Z 09005KT 8SM -RA FEW012 BKN022 OVC034 07/06 A3019 RMK AO2 SLP223 P0003 T00670056;JFK;
JFK;12.01.2023;14:51;12.01.2023 14:51;45.00;44.00;96.63;90.00;6.00;0.02;30.18;1022.00;10.00;;FEW;SCT;OVC;;1100.00;2700.00;4800.00;;;;;;;;;41.19;KJFK 121451Z 09006KT 10SM FEW011 SCT027 OVC048 07/07 A3018 RMK AO2 RAE38 SLP220 P0002 60007 T00720067 58003;JFK;
LGA;12.01.2023;14:51;12.01.2023 14:51;41.00;36.00;82.22;60.00;9.00;0.02;30.18;1021.80;10.00;;FEW;BKN;OVC;;1600.00;2300.00;3800.00;;;;;;;;;34.70;KLGA 121451Z 06009KT 10SM FEW016 BKN023 OVC038 05/02 A3018 RMK AO2 RAE37 SLP218 P0002 60004 T00500022 58004 $;LGA;
LGA;12.01.2023;15:29;12.01.2023 15:29;41.00;37.00;85.54;40.00;9.00;T;30.17;;10.00;;FEW;SCT;OVC;;1100.00;2500.00;4800.00;;-RA;;;;;;;34.70;KLGA 121529Z 04009KT 10SM -RA FEW011 SCT025 OVC048 05/03 A3017 RMK AO2 RAB24 P0000 T00500028 $;LGA;
LGA;12.01.2023;15:51;12.01.2023 15:51;42.00;37.00;81.98;40.00;8.00;T;30.16;1021.20;10.00;;FEW;SCT;OVC;;1100.00;2500.00;4800.00;;;;;;;;;36.55;KLGA 121551Z 04008KT 10SM FEW011 SCT025 OVC048 06/03 A3016 RMK AO2 RAB24E34 SLP212 P0000 T00560028;LGA;
JFK;12.01.2023;15:51;12.01.2023 15:51;46.00;43.00;89.20;100.00;6.00;0.00;30.16;1021.40;10.00;;FEW;SCT;OVC;;2700.00;4200.00;5000.00;;;;;;;;;42.39;KJFK 121551Z 10006KT 10SM FEW027 SCT042 OVC050 08/06 A3016 RMK AO2 SLP214 T00780061;JFK;
LGA;12.01.2023;16:51;12.01.2023 16:51;42.00;38.00;84.93;50.00;9.00;0.00;30.11;1019.70;10.00;;FEW;SCT;OVC;;1200.00;2800.00;4900.00;;;;;;;;;36.07;KLGA 121651Z 05009KT 10SM FEW012 SCT028 OVC049 06/03 A3011 RMK AO2 SLP197 T00560033;LGA;
JFK;12.01.2023;16:51;12.01.2023 16:51;47.00;45.00;93.06;100.00;9.00;0.00;30.11;1019.70;10.00;;FEW;OVC;;;2200.00;4800.00;;;;;;;;;;42.04;KJFK 121651Z 10009KT 10SM FEW022 OVC048 08/07 A3011 RMK AO2 PRESFR SLP197 T00830072;JFK;
LGA;12.01.2023;17:23;12.01.2023 17:23;43.00;39.00;85.66;40.00;11.00;0.00;30.08;;10.00;;FEW;SCT;OVC;;900.00;2500.00;4700.00;;;;;;;;;36.37;KLGA 121723Z 04011KT 10SM FEW009 SCT025 OVC047 06/04 A3008 RMK AO2 T00610039;LGA;
LGA;12.01.2023;17:47;12.01.2023 17:47;42.80;39.20;86.99;50.00;10.00;0.00;30.06;;5.00;;BKN;BKN;OVC;;700.00;2500.00;4700.00;;BR;;;;;;;36.51;KLGA 121747Z 05010KT 5SM BR BKN007 BKN025 OVC047 06/04 A3006 RMK AO2;LGA;
LGA;12.01.2023;17:51;12.01.2023 17:51;43.00;39.00;85.66;50.00;11.00;0.00;30.06;1017.80;5.00;;BKN;BKN;OVC;;700.00;2500.00;4700.00;;BR;;;;;;;36.37;KLGA 121751Z 05011KT 5SM BR BKN007 BKN025 OVC047 06/04 A3006 RMK AO2 SLP178 60004 T00610039 10061 20039 58040;LGA;
JFK;12.01.2023;17:51;12.01.2023 17:51;48.00;46.00;92.74;110.00;8.00;0.00;30.06;1018.00;10.00;;FEW;OVC;;;1900.00;4800.00;;;;;;;;;;43.82;KJFK 121751Z 11008KT 10SM FEW019 OVC048 09/08 A3006 RMK AO2 SLP180 60007 T00890078 10089 20056 58040;JFK;
LGA;12.01.2023;18:13;12.01.2023 18:13;43.00;39.00;85.66;40.00;12.00;0.00;30.05;;6.00;;SCT;BKN;OVC;;700.00;2500.00;4600.00;;BR;;;;;;;36.00;KLGA 121813Z 04012KT 6SM BR SCT007 BKN025 OVC046 06/04 A3005 RMK AO2 T00610039 $;LGA;
LGA;12.01.2023;18:51;12.01.2023 18:51;43.00;39.00;85.66;40.00;12.00;0.00;30.03;1016.80;6.00;;SCT;BKN;OVC;;700.00;2500.00;4600.00;;BR;;;;;;;36.00;KLGA 121851Z 04012KT 6SM BR SCT007 BKN025 OVC046 06/04 A3003 RMK AO2 SLP168 T00610039 $;LGA;
JFK;12.01.2023;18:51;12.01.2023 18:51;49.00;46.00;89.67;110.00;8.00;0.00;30.03;1016.90;10.00;;FEW;SCT;OVC;;1500.00;3700.00;4700.00;;;;;;;;;44.93;KJFK 121851Z 11008KT 10SM FEW015 SCT037 OVC047 09/08 A3003 RMK AO2 SLP169 T00940078;JFK;
LGA;12.01.2023;19:20;12.01.2023 19:20;45.00;40.00;82.19;50.00;11.00;0.00;30.02;;10.00;;SCT;SCT;OVC;;700.00;2500.00;3700.00;;;;;;;;;38.89;KLGA 121920Z 05011KT 10SM SCT007 SCT025 OVC037 07/04 A3002 RMK AO2 T00720044 $;LGA;
JFK;12.01.2023;19:51;12.01.2023 19:51;49.00;47.00;92.77;110.00;8.00;0.00;30.00;1016.00;10.00;;FEW;SCT;OVC;;1500.00;3600.00;5500.00;;;;;;;;;44.93;KJFK 121951Z 11008KT 10SM FEW015 SCT036 OVC055 09/08 A3000 RMK AO2 SLP160 T00940083;JFK;
LGA;12.01.2023;19:51;12.01.2023 19:51;44.00;40.00;85.06;50.00;12.00;0.00;30.00;1016.00;10.00;;FEW;OVC;;;700.00;3200.00;;;;;;;;;;37.40;KLGA 121951Z 05012KT 10SM FEW007 OVC032 07/04 A3000 RMK AO2 SLP160 T00670044 $;LGA;
JFK;12.01.2023;20:51;12.01.2023 20:51;51.00;46.00;82.62;130.00;16.00;0.00;29.98;1015.00;10.00;23.00;FEW;FEW;OVC;;1500.00;3300.00;5000.00;;;;;;;;;51.10;KJFK 122051Z 13016G23KT 10SM FEW015 FEW033 OVC050 11/08 A2998 RMK AO2 SLP150 T01060078 56030;JFK;
LGA;12.01.2023;20:51;12.01.2023 20:51;44.00;40.00;85.06;50.00;12.00;0.00;29.97;1014.80;10.00;;FEW;BKN;OVC;;900.00;3000.00;3600.00;;;;;;;;;37.40;KLGA 122051Z 05012KT 10SM FEW009 BKN030 OVC036 07/04 A2997 RMK AO2 SLP148 T00670044 58031 $;LGA;
LGA;12.01.2023;21:07;12.01.2023 21:07;45.00;41.00;85.77;50.00;11.00;0.00;29.96;;10.00;;FEW;BKN;OVC;;900.00;2900.00;3600.00;;;;;;;;;38.89;KLGA 122107Z 05011KT 10SM FEW009 BKN029 OVC036 07/05 A2996 RMK AO2 T00720050 $;LGA;
LGA;12.01.2023;21:40;12.01.2023 21:40;54.00;47.00;76.83;130.00;11.00;0.00;29.92;;10.00;;FEW;OVC;;;900.00;1800.00;;;;;;;;;;54.00;KLGA 122140Z 13011KT 10SM FEW009 OVC018 12/08 A2992 RMK AO2 T01220083 $;LGA;
JFK;12.01.2023;21:44;12.01.2023 21:44;52.00;47.00;82.68;120.00;16.00;0.00;29.92;;10.00;;BKN;OVC;;;1200.00;5500.00;;;;;;;27.00;130.00;2023-01-12 21:30;52.00;KJFK 122144Z 12016KT 10SM BKN012 OVC055 11/08 A2992 RMK AO2 PK WND 13027/2130 T01110083;JFK;
JFK;12.01.2023;21:51;12.01.2023 21:51;51.00;47.00;85.48;130.00;16.00;0.00;29.92;1013.10;10.00;22.00;BKN;OVC;;;1200.00;5000.00;;;;;;;27.00;130.00;2023-01-12 21:30;51.10;KJFK 122151Z 13016G22KT 10SM BKN012 OVC050 11/08 A2992 RMK AO2 PK WND 13027/2130 SLP131 T01060083;JFK;
LGA;12.01.2023;21:51;12.01.2023 21:51;54.00;47.00;76.83;130.00;13.00;0.00;29.91;1012.80;10.00;17.00;FEW;OVC;;;900.00;1800.00;;;;;;;;;;54.00;KLGA 122151Z 13013G17KT 10SM FEW009 OVC018 12/08 A2991 RMK AO2 PRESFR SLP128 T01220083 $;LGA;
LGA;12.01.2023;22:18;12.01.2023 22:18;54.00;46.00;74.26;140.00;16.00;0.00;29.90;;10.00;19.00;OVC;;;;1400.00;;;;;;;;;;;54.00;KLGA 122218Z 14016G19KT 10SM OVC014 12/08 A2990 RMK AO2 T01220078 $;LGA;
JFK;12.01.2023;22:47;12.01.2023 22:47;51.80;48.20;87.47;140.00;13.00;0.00;29.90;;10.00;24.00;BKN;BKN;OVC;;1200.00;3000.00;4800.00;;TS;;;;;;;51.80;KJFK 122247Z 14013G24KT 10SM TS BKN012 BKN030CB OVC048 11/09 A2990 RMK AO2 TSB47 OCNL LTGCG SW TS SW MOV NE;JFK;
LGA;12.01.2023;22:51;12.01.2023 22:51;54.00;47.00;76.83;160.00;11.00;0.00;29.88;1011.80;10.00;18.00;BKN;OVC;;;1200.00;5000.00;;;;;;;;;;54.00;KLGA 122251Z 16011G18KT 10SM BKN012 OVC050 12/08 A2988 RMK AO2 LTG DSNT S AND W SLP118 OCNL LTGIC DSNT SW CB DSNT SW T01220083 $;LGA;
JFK;12.01.2023;22:51;12.01.2023 22:51;51.00;49.00;92.14;140.00;15.00;T;29.91;1012.80;9.00;20.00;BKN;BKN;OVC;;1200.00;3000.00;4800.00;;-TSRA;;;;;;;51.10;KJFK 122251Z 14015G20KT 9SM -TSRA BKN012 BKN030CB OVC048 11/09 A2991 RMK AO2 RAB50 TSB47 SLP128 OCNL LTGCG SW TS SW MOV NE P0000 T01060094;JFK;
LGA;12.01.2023;23:14;12.01.2023 23:14;53.00;47.00;79.40;190.00;18.00;0.04;29.89;;2.00;22.00;BKN;OVC;;;1300.00;2700.00;;;+RA;;;;;;;53.10;KLGA 122314Z 19018G22KT 2SM R04/4000VP6000FT +RA BKN013 OVC027 12/08 A2989 RMK AO2 SFC VIS 2 1/2 LTG DSNT NW RAB2254 P0004 T01170083 $;LGA;
LGA;12.01.2023;23:36;12.01.2023 23:36;53.00;48.00;82.76;140.00;9.00;0.15;29.86;;5.00;;BKN;BKN;OVC;;900.00;1500.00;3000.00;;-RA;;;;;;;53.10;KLGA 122336Z 14009KT 5SM -RA BKN009 BKN015 OVC030 12/09 A2986 RMK AO2 LTG DSNT E RAB2254 PRESFR P0015 T01170089 $;LGA;
JFK;12.01.2023;23:36;12.01.2023 23:36;50.00;50.00;100.00;140.00;14.00;0.17;29.88;;6.00;;BKN;BKN;OVC;;1000.00;2100.00;3600.00;;-RA BR;;;;;;;50.00;KJFK 122336Z 14014KT 6SM -RA BR BKN010 BKN021 OVC036 10/10 A2988 RMK AO2 LTG DSNT NE AND E TSE36 CIG 005V017 P0017 T01000100;JFK;
JFK;12.01.2023;23:39;12.01.2023 23:39;51.00;50.00;96.00;150.00;15.00;0.18;29.87;;7.00;;BKN;BKN;OVC;;700.00;1200.00;3900.00;;-RA;;;;;;;51.10;KJFK 122339Z 15015KT 7SM -RA BKN007 BKN012 OVC039 11/10 A2987 RMK AO2 LTG DSNT NE AND E TSE36 CIG 005V010 P0018 T01060100;JFK;
LGA;12.01.2023;23:51;12.01.2023 23:51;54.00;49.00;82.82;180.00;16.00;0.16;29.85;1010.80;5.00;25.00;BKN;OVC;;;900.00;1500.00;;;-RA;;;;;;;54.00;KLGA 122351Z 18016G25KT 5SM -RA BKN009 OVC015 12/09 A2985 RMK AO2 RAB2254 SLP108 P0016 60016 T01220094 10139 20061 56040 $;LGA;
JFK;12.01.2023;23:51;12.01.2023 23:51;51.00;51.00;100.00;150.00;14.00;0.18;29.87;1011.50;5.00;21.00;BKN;BKN;OVC;;700.00;1200.00;2800.00;;-RA BR;;;;;;;51.10;KJFK 122351Z 15014G21KT 5SM -RA BR BKN007 BKN012 OVC028 11/11 A2987 RMK AO2 TSE36 SLP115 P0018 60018 T01060106 10111 20089 58017;JFK;
LGA;13.01.2023;0:03;13.01.2023 00:03;53.00;49.00;85.59;180.00;15.00;0.01;29.84;;7.00;22.00;OVC;;;;700.00;;;;-RA;;;;;;;53.10;KLGA 130003Z 18015G22KT 7SM -RA OVC007 12/09 A2984 RMK AO2 LTG DSNT SE P0001 T01170094 $;LGA;
LGA;13.01.2023;0:17;13.01.2023 00:17;52.00;48.00;86.17;170.00;14.00;0.02;29.83;;9.00;19.00;OVC;;;;600.00;;;;-RA;;;;;;;52.00;KLGA 130017Z 17014G19KT 9SM -RA OVC006 11/09 A2983 RMK AO2 P0002 T01110089 $;LGA;
LGA;13.01.2023;0:35;13.01.2023 00:35;52.00;48.00;86.17;170.00;12.00;0.02;29.82;;5.00;;OVC;;;;500.00;;;;BR;;;;;;;52.00;KLGA 130035Z 17012KT 5SM BR OVC005 11/09 A2982 RMK AO2 RAE22 P0002 T01110089 $;LGA;
LGA;13.01.2023;0:48;13.01.2023 00:48;51.80;48.20;87.47;180.00;6.00;0.02;29.82;;8.00;;OVC;;;;400.00;;;;;;;;;;;51.80;KLGA 130048Z 18006KT 8SM OVC004 11/09 A2982 RMK AO2 RAE22 P0002 $;LGA;
LGA;13.01.2023;0:51;13.01.2023 00:51;52.00;49.00;89.13;170.00;12.00;0.02;29.82;1009.60;7.00;15.00;OVC;;;;400.00;;;;;;;;;;;52.00;KLGA 130051Z 17012G15KT 7SM OVC004 11/09 A2982 RMK AO2 RAE22 SLP096 P0002 T01110094 $;LGA;
JFK;13.01.2023;0:51;13.01.2023 00:51;52.00;52.00;100.00;160.00;19.00;0.01;29.82;1009.80;5.00;;BKN;OVC;;;400.00;1300.00;;;BR;;;;26.00;160.00;2023-01-13 00:40;52.00;KJFK 130051Z 16019KT 5SM BR BKN004 OVC013 11/11 A2982 RMK AO2 PK WND 16026/0040 SLP098 RAE14 P0001 T01110111;JFK;
JFK;13.01.2023;1:51;13.01.2023 01:51;51.00;50.00;96.00;180.00;16.00;0.01;29.80;1009.10;5.00;;OVC;;;;500.00;;;;BR;;;;30.00;160.00;2023-01-13 01:07;51.10;KJFK 130151Z 18016KT 5SM BR OVC005 11/10 A2980 RMK AO2 PK WND 16030/0107 RAB0058E39 SLP091 VIS E 2 1/2 P0001 T01060100;JFK;
LGA;13.01.2023;1:51;13.01.2023 01:51;53.00;49.00;85.59;180.00;14.00;0.05;29.78;1008.20;8.00;18.00;OVC;;;;400.00;;;;-RA;;;;;;;53.10;KLGA 130151Z 18014G18KT 8SM -RA OVC004 12/09 A2978 RMK AO2 RAB04 SLP082 P0005 T01170094 $;LGA;
LGA;13.01.2023;2:47;13.01.2023 02:47;53.60;50.00;87.56;180.00;11.00;0.01;29.74;;8.00;;OVC;;;;500.00;;;;;;;;;;;53.60;KLGA 130247Z 18011KT 8SM OVC005 12/10 A2974 RMK AO2 RAE0153B11E23 P0001 $;LGA;
LGA;13.01.2023;2:51;13.01.2023 02:51;53.00;50.00;89.18;180.00;10.00;0.01;29.74;1007.00;8.00;;OVC;;;;500.00;;;;;;;;;;;53.10;KLGA 130251Z 18010KT 8SM OVC005 12/10 A2974 RMK AO2 RAE0153B11E23 SLP070 P0001 60008 T01170100 56026 $;LGA;
JFK;13.01.2023;2:51;13.01.2023 02:51;50.00;50.00;100.00;180.00;17.00;0.00;29.76;1007.60;3.00;;OVC;;;;500.00;;;;BR;;;;;;;50.00;KJFK 130251Z 18017KT 3SM BR OVC005 10/10 A2976 RMK AO2 SLP076 60002 T01000100 56039;JFK;
JFK;13.01.2023;2:56;13.01.2023 02:56;50.00;50.00;100.00;180.00;18.00;0.00;29.75;;0.75;;OVC;;;;300.00;;;;BR;;;;;;;50.00;KJFK 130256Z 18018KT 3/4SM R04R/P6000FT BR OVC003 10/10 A2975 RMK AO2 SFC VIS 3 T01000100;JFK;
LGA;13.01.2023;3:11;13.01.2023 03:11;54.00;50.00;86.29;180.00;12.00;0.00;29.73;;8.00;18.00;OVC;;;;700.00;;;;;;;;;;;54.00;KLGA 130311Z 18012G18KT 8SM OVC007 12/10 A2973 RMK AO2 T01220100 $;LGA;
JFK;13.01.2023;3:18;13.01.2023 03:18;50.00;50.00;100.00;170.00;16.00;0.00;29.74;;1.50;;BKN;BKN;OVC;;300.00;1600.00;4100.00;;BR;;;;;;;50.00;KJFK 130318Z 17016KT 1 1/2SM BR BKN003 BKN016 OVC041 10/10 A2974 RMK AO2 SFC VIS 5 T01000100;JFK;
LGA;13.01.2023;3:47;13.01.2023 03:47;53.60;50.00;87.56;180.00;12.00;0.00;29.70;;9.00;20.00;OVC;;;;900.00;;;;;;;;;;;53.60;KLGA 130347Z 18012G20KT 9SM OVC009 12/10 A2970 RMK AO2 $;LGA;
JFK;13.01.2023;3:51;13.01.2023 03:51;50.00;50.00;100.00;170.00;16.00;0.00;29.73;1006.50;1.50;;BKN;BKN;OVC;;400.00;1400.00;7000.00;;BR;;;;;;;50.00;KJFK 130351Z 17016KT 1 1/2SM BR BKN004 BKN014 OVC070 10/10 A2973 RMK AO2 SFC VIS 5 SLP065 T01000100;JFK;
LGA;13.01.2023;3:51;13.01.2023 03:51;54.00;50.00;86.29;190.00;15.00;0.00;29.70;1005.70;9.00;;OVC;;;;900.00;;;;;;;;;;;54.00;KLGA 130351Z 19015KT 9SM OVC009 12/10 A2970 RMK AO2 SLP057 T01220100 $;LGA;
JFK;13.01.2023;4:51;13.01.2023 04:51;51.00;51.00;100.00;180.00;20.00;0.00;29.68;1005.00;8.00;;FEW;BKN;OVC;;400.00;8500.00;22000.00;;;;;;27.00;170.00;2023-01-13 04:42;51.10;KJFK 130451Z 18020KT 8SM FEW004 BKN085 OVC220 11/11 A2968 RMK AO2 PK WND 17027/0442 SLP050 T01060106 401170022;JFK;
LGA;13.01.2023;4:51;13.01.2023 04:51;53.00;49.00;85.59;180.00;13.00;0.00;29.67;1004.60;9.00;20.00;OVC;;;;800.00;;;;;;;;27.00;190.00;2023-01-13 04:28;53.10;KLGA 130451Z 18013G20KT 9SM OVC008 12/09 A2967 RMK AO2 PK WND 19027/0428 SLP046 T01170094 401390022 $;LGA;
LGA;13.01.2023;5:26;13.01.2023 05:26;53.00;49.00;85.59;180.00;12.00;0.00;29.64;;9.00;;SCT;BKN;OVC;;900.00;9000.00;25000.00;;;;;;;;;53.10;KLGA 130526Z COR 18012KT 9SM SCT009 BKN090 OVC250 12/09 A2964 RMK AO2 T01170094 $;LGA;
LGA;13.01.2023;5:51;13.01.2023 05:51;53.00;49.00;85.59;170.00;8.00;0.00;29.63;1003.20;9.00;;FEW;SCT;BKN;OVC;800.00;9000.00;11000.00;15000.00;;;;;;;;53.10;KLGA 130551Z 17008KT 9SM FEW008 SCT090 BKN110 OVC150 12/09 A2963 RMK AO2 SLP032 60008 T01170094 10128 20111 58027 $;LGA;
JFK;13.01.2023;5:51;13.01.2023 05:51;51.00;50.00;96.00;180.00;23.00;0.00;29.65;1004.00;8.00;29.00;FEW;SCT;OVC;;500.00;4800.00;10000.00;;;;;;32.00;170.00;2023-01-13 05:04;51.10;KJFK 130551Z 18023G29KT 8SM FEW005 SCT048 OVC100 11/10 A2965 RMK AO2 PK WND 17032/0504 SLP040 60002 T01060100 10117 20100 56036;JFK;
JFK;13.01.2023;6:26;13.01.2023 06:26;50.00;50.00;100.00;190.00;22.00;0.01;29.63;;1.50;;BKN;OVC;;;400.00;5000.00;;;-RA BR;;;;32.00;190.00;2023-01-13 06:08;50.00;KJFK 130626Z 19022KT 1 1/2SM -RA BR BKN004 OVC050 10/10 A2963 RMK AO2 PK WND 19032/0608 SFC VIS 6 LTG DSNT SE RAB03 P0001 T01000100;JFK;
LGA;13.01.2023;6:51;13.01.2023 06:51;53.00;49.00;85.59;170.00;13.00;0.07;29.59;1002.00;8.00;;SCT;BKN;OVC;;800.00;2300.00;3100.00;;;;;;;;;53.10;KLGA 130651Z 17013KT 8SM SCT008 BKN023 OVC031 12/09 A2959 RMK AO2 RAB0554E41 SLP020 P0007 T01170094 $;LGA;
JFK;13.01.2023;6:51;13.01.2023 06:51;50.00;50.00;100.00;190.00;20.00;0.01;29.62;1003.10;1.50;25.00;OVC;;;;400.00;;;;BR;;;;32.00;190.00;2023-01-13 06:08;50.00;KJFK 130651Z 19020G25KT 1 1/2SM BR OVC004 10/10 A2962 RMK AO2 PK WND 19032/0608 SFC VIS 5 RAB03E31 SLP031 P0001 T01000100;JFK;
LGA;13.01.2023;7:05;13.01.2023 07:05;54.00;50.00;86.29;180.00;14.00;0.00;29.58;;8.00;;BKN;BKN;OVC;;700.00;2300.00;2700.00;;;;;;;;;54.00;KLGA 130705Z 18014KT 8SM BKN007 BKN023 OVC027 12/10 A2958 RMK AO2 T01220100 $;LGA;
LGA;13.01.2023;7:13;13.01.2023 07:13;55.00;51.00;86.66;170.00;14.00;0.00;29.58;;9.00;22.00;SCT;BKN;OVC;;700.00;2300.00;3800.00;;;;;;;;;55.00;KLGA 130713Z 17014G22KT 9SM SCT007 BKN023 OVC038 13/11 A2958 RMK AO2 T01280106 $;LGA;
LGA;13.01.2023;7:51;13.01.2023 07:51;54.00;50.00;86.29;200.00;11.00;0.00;29.58;1001.60;9.00;18.00;FEW;OVC;;;900.00;2300.00;;;;;;;;;;54.00;KLGA 130751Z 20011G18KT 9SM FEW009 OVC023 12/10 A2958 RMK AO2 SLP016 T01220100 $;LGA;
JFK;13.01.2023;7:51;13.01.2023 07:51;51.00;51.00;100.00;190.00;28.00;0.00;29.60;1002.40;1.50;32.00;BKN;BKN;OVC;;400.00;2800.00;13000.00;;BR;;;;34.00;180.00;2023-01-13 07:20;51.10;KJFK 130751Z 19028G32KT 1 1/2SM BR BKN004 BKN028 OVC130 11/11 A2960 RMK AO2 PK WND 18034/0720 SFC VIS 6 SLP024 T01060106;JFK;
LGA;13.01.2023;8:17;13.01.2023 08:17;54.00;50.00;86.29;180.00;8.00;0.00;29.56;;9.00;;FEW;FEW;OVC;;900.00;1800.00;16000.00;;;;;;;;;54.00;KLGA 130817Z 18008KT 9SM FEW009 FEW018 OVC160 12/10 A2956 RMK AO2 T01220100 $;LGA;
JFK;13.01.2023;8:19;13.01.2023 08:19;50.00;50.00;100.00;180.00;21.00;0.00;29.58;;6.00;;FEW;FEW;OVC;;400.00;2800.00;19000.00;;BR;;;;33.00;190.00;2023-01-13 07:58;50.00;KJFK 130819Z 18021KT 6SM BR FEW004 FEW028 OVC190 10/10 A2958 RMK AO2 PK WND 19033/0758 T01000100;JFK;
LGA;13.01.2023;8:51;13.01.2023 08:51;52.00;48.00;86.17;160.00;13.00;0.00;29.54;1000.40;7.00;;FEW;OVC;;;1500.00;20000.00;;;;;;;;;;52.00;KLGA 130851Z 16013KT 7SM FEW015 OVC200 11/09 A2954 RMK AO2 SLP004 60007 T01110089 57027 $;LGA;
JFK;13.01.2023;8:51;13.01.2023 08:51;50.00;50.00;100.00;180.00;20.00;0.00;29.56;1001.00;5.00;27.00;SCT;OVC;;;400.00;21000.00;;;BR;;;;33.00;190.00;2023-01-13 07:58;50.00;KJFK 130851Z 18020G27KT 5SM BR SCT004 OVC210 10/10 A2956 RMK AO2 PK WND 19033/0758 SLP010 60001 T01000100 58030;JFK;
LGA;13.01.2023;9:45;13.01.2023 09:45;51.80;48.20;87.47;180.00;8.00;0.00;29.55;;7.00;;FEW;BKN;OVC;;400.00;9000.00;16000.00;;;;;;;;;51.80;KLGA 130945Z 18008KT 7SM FEW004 BKN090 OVC160 11/09 A2955 RMK AO2 $;LGA;
JFK;13.01.2023;9:51;13.01.2023 09:51;49.00;48.00;96.69;180.00;16.00;0.00;29.57;1001.10;6.00;;FEW;SCT;OVC;;400.00;9500.00;19000.00;;BR;;;;26.00;190.00;2023-01-13 08:55;42.45;KJFK 130951Z 18016KT 6SM BR FEW004 SCT095 OVC190 09/09 A2957 RMK AO2 PK WND 19026/0855 SLP011 T00940089;JFK;
LGA;13.01.2023;9:51;13.01.2023 09:51;51.00;48.00;89.09;170.00;8.00;0.00;29.54;1000.30;7.00;;FEW;BKN;OVC;;400.00;9000.00;16000.00;;;;;;;;;51.10;KLGA 130951Z 17008KT 7SM FEW004 BKN090 OVC160 11/09 A2954 RMK AO2 SLP003 T01060089 $;LGA;
LGA;13.01.2023;10:47;13.01.2023 10:47;51.80;48.20;87.47;180.00;9.00;0.00;29.56;;9.00;;OVC;;;;2900.00;;;;;;;;;;;51.80;KLGA 131047Z 18009KT 9SM OVC029 11/09 A2956 RMK AO2 $;LGA;
JFK;13.01.2023;10:51;13.01.2023 10:51;49.00;48.00;96.69;190.00;17.00;T;29.58;1001.60;8.00;23.00;FEW;SCT;OVC;;400.00;2800.00;9000.00;;-RA;;;;27.00;190.00;2023-01-13 10:30;42.22;KJFK 131051Z 19017G23KT 8SM -RA FEW004 SCT028 OVC090 09/09 A2958 RMK AO2 PK WND 19027/1030 RAB48 SLP016 P0000 T00940089;JFK;
LGA;13.01.2023;10:51;13.01.2023 10:51;51.00;48.00;89.09;180.00;8.00;0.00;29.55;1000.70;9.00;;OVC;;;;2900.00;;;;;;;;;;;51.10;KLGA 131051Z 18008KT 9SM OVC029 11/09 A2955 RMK AO2 SLP007 T01060089 $;LGA;
LGA;13.01.2023;11:08;13.01.2023 11:08;51.00;48.00;89.09;170.00;8.00;0.00;29.55;;9.00;;FEW;OVC;;;700.00;2900.00;;;;;;;;;;51.10;KLGA 131108Z 17008KT 9SM FEW007 OVC029 11/09 A2955 RMK AO2 T01060089 $;LGA;
JFK;13.01.2023;11:51;13.01.2023 11:51;48.00;48.00;100.00;190.00;16.00;0.01;29.57;1001.40;7.00;;FEW;BKN;OVC;;600.00;3200.00;8000.00;;-RA;;;;;;;41.27;KJFK 131151Z 19016KT 7SM -RA FEW006 BKN032 OVC080 09/09 A2957 RMK AO2 SLP014 P0001 60002 70029 T00890089 10111 20089 50004;JFK;
LGA;13.01.2023;11:51;13.01.2023 11:51;50.00;47.00;89.04;190.00;10.00;0.02;29.55;1000.70;6.00;;FEW;BKN;OVC;;700.00;2500.00;5500.00;;-RA BR;;;;;;;50.00;KLGA 131151Z 19010KT 6SM -RA BR FEW007 BKN025 OVC055 10/08 A2955 RMK AO2 RAB10 SLP007 P0002 60009 70037 T01000083 10128 20100 53001 $;LGA;
JFK;13.01.2023;12:51;13.01.2023 12:51;48.00;48.00;100.00;180.00;15.00;0.01;29.57;1001.10;7.00;;FEW;SCT;BKN;OVC;400.00;3200.00;7000.00;13000.00;;;;;;;;41.52;KJFK 131251Z 18015KT 7SM FEW004 SCT032 BKN070 OVC130 09/09 A2957 RMK AO2 RAE26 SLP011 P0001 T00890089;JFK;
LGA;13.01.2023;12:51;13.01.2023 12:51;50.00;47.00;89.04;170.00;9.00;0.01;29.54;1000.30;8.00;;SCT;BKN;OVC;;2500.00;6500.00;8000.00;;BR;;;;;;;50.00;KLGA 131251Z COR 17009KT 8SM SCT025 BKN065 OVC080 10/08 A2954 RMK AO2 RAE10 SLP003 P0001 T01000083 $;LGA;
LGA;13.01.2023;13:51;13.01.2023 13:51;50.00;46.00;86.06;190.00;8.00;0.00;29.55;1000.50;9.00;;BKN;OVC;;;1900.00;6500.00;;;;;;;;;;50.00;KLGA 131351Z 19008KT 9SM BKN019 OVC065 10/08 A2955 RMK AO2 SLP005 T01000078 $;LGA;
JFK;13.01.2023;13:51;13.01.2023 13:51;48.00;48.00;100.00;180.00;15.00;0.00;29.57;1001.20;8.00;;FEW;SCT;BKN;OVC;400.00;2500.00;4400.00;13000.00;;;;;;;;41.52;KJFK 131351Z 18015KT 8SM FEW004 SCT025 BKN044 OVC130 09/09 A2957 RMK AO2 SLP012 T00890089;JFK;
JFK;13.01.2023;14:41;13.01.2023 14:41;49.00;48.00;96.69;190.00;13.00;0.00;29.55;;8.00;;FEW;BKN;BKN;OVC;1600.00;2400.00;4500.00;13000.00;;;;;;;;43.22;KJFK 131441Z 19013KT 8SM FEW016 BKN024 BKN045 OVC130 09/09 A2955 RMK AO2 T00940089;JFK;
LGA;13.01.2023;14:51;13.01.2023 14:51;53.00;49.00;85.59;200.00;7.00;0.00;29.54;1000.20;10.00;;BKN;OVC;;;1600.00;4500.00;;;;;;;;;;53.10;KLGA 131451Z 20007KT 10SM BKN016 OVC045 12/09 A2954 RMK AO2 SLP002 60001 T01170094 56005 $;LGA;
JFK;13.01.2023;14:51;13.01.2023 14:51;49.00;48.00;96.69;190.00;11.00;0.00;29.56;1001.00;8.00;;BKN;BKN;OVC;;1800.00;2400.00;13000.00;;;;;;;;;43.82;KJFK 131451Z 19011KT 8SM BKN018 BKN024 OVC130 09/09 A2956 RMK AO2 SLP010 60001 T00940089 57004;JFK;
LGA;13.01.2023;15:51;13.01.2023 15:51;55.00;49.00;79.85;180.00;10.00;0.00;29.54;1000.20;10.00;;BKN;OVC;;;1700.00;2500.00;;;;;;;;;;55.00;KLGA 131551Z 18010KT 10SM BKN017 OVC025 13/09 A2954 RMK AO2 SLP002 T01280094 $;LGA;
JFK;13.01.2023;15:51;13.01.2023 15:51;49.00;48.00;96.69;180.00;13.00;0.00;29.57;1001.20;9.00;;BKN;BKN;BKN;;1900.00;6500.00;13000.00;;;;;;;;;43.22;KJFK 131551Z 18013KT 9SM BKN019 BKN065 BKN130 09/09 A2957 RMK AO2 SLP012 T00940089;JFK;
JFK;13.01.2023;16:51;13.01.2023 16:51;49.00;48.00;96.69;190.00;12.00;0.00;29.55;1000.70;8.00;;FEW;BKN;BKN;;1700.00;2600.00;13000.00;;;;;;;;;43.51;KJFK 131651Z 19012KT 8SM FEW017 BKN026 BKN130 09/09 A2955 RMK AO2 SLP007 T00940089;JFK;
LGA;13.01.2023;16:51;13.01.2023 16:51;54.00;48.00;80.07;180.00;7.00;T;29.54;1000.10;10.00;;BKN;OVC;;;2000.00;2500.00;;;;;;;;;;54.00;KLGA 131651Z 18007KT 10SM BKN020 OVC025 12/09 A2954 RMK AO2 RAB17E26 SLP001 P0000 T01220089 $;LGA;
LGA;13.01.2023;17:25;13.01.2023 17:25;54.00;46.00;74.26;260.00;13.00;0.00;29.53;;10.00;;BKN;BKN;;;2100.00;8000.00;;;;;;;;;;54.00;KLGA 131725Z 26013KT 10SM BKN021 BKN080 12/08 A2953 RMK AO2 WSHFT 1705 T01220078 $;LGA;
JFK;13.01.2023;17:51;13.01.2023 17:51;52.00;48.00;86.17;250.00;11.00;0.00;29.53;1000.00;10.00;;BKN;BKN;;;1600.00;2800.00;;;;;;;;;;52.00;KJFK 131751Z 25011KT 10SM BKN016 BKN028 11/09 A2953 RMK AO2 SLP000 CIG 014V018 60001 T01110089 10111 20089 58010;JFK;
LGA;13.01.2023;17:51;13.01.2023 17:51;54.00;44.00;69.09;260.00;10.00;0.00;29.51;999.30;10.00;;BKN;BKN;BKN;;2600.00;8000.00;13000.00;;;;;;;;;54.00;KLGA 131751Z 26010KT 10SM BKN026 BKN080 BKN130 12/07 A2951 RMK AO2 WSHFT 1705 SLP993 60001 T01220067 10128 20100 58009 $;LGA;
JFK;13.01.2023;18:51;13.01.2023 18:51;50.00;45.00;82.86;230.00;12.00;0.00;29.55;1000.70;10.00;;BKN;BKN;BKN;;2300.00;3100.00;7500.00;;;;;;;;;50.00;KJFK 131851Z 23012KT 10SM BKN023 BKN031 BKN075 10/07 A2955 RMK AO2 SLP007 T01000072;JFK;
LGA;13.01.2023;18:51;13.01.2023 18:51;52.00;42.00;68.86;290.00;17.00;0.00;29.54;1000.40;10.00;21.00;BKN;BKN;;;2900.00;8000.00;;;;;;;;;;52.00;KLGA 131851Z 29017G21KT 10SM BKN029 BKN080 11/06 A2954 RMK AO2 SLP004 T01110056 $;LGA;
LGA;13.01.2023;18:59;13.01.2023 18:59;50.00;40.00;68.10;300.00;15.00;0.00;29.54;;10.00;;BKN;BKN;BKN;;2200.00;3500.00;8000.00;;;;;;;;;50.00;KLGA 131859Z 30015KT 10SM BKN022 BKN035 BKN080 10/04 A2954 RMK AO2 WSHFT 1844 T01000044 $;LGA;
JFK;13.01.2023;19:51;13.01.2023 19:51;50.00;42.00;74.15;290.00;13.00;0.00;29.56;1001.10;10.00;;BKN;BKN;;;2200.00;7500.00;;;;;;;;;;50.00;KJFK 131951Z 29013KT 10SM BKN022 BKN075 10/06 A2956 RMK AO2 SLP011 T01000056;JFK;
LGA;13.01.2023;19:51;13.01.2023 19:51;47.00;34.00;60.61;310.00;17.00;0.00;29.57;1001.20;10.00;;BKN;BKN;BKN;;2800.00;3300.00;8000.00;;;;;;;;;39.59;KLGA 131951Z 31017KT 10SM BKN028 BKN033 BKN080 08/01 A2957 RMK AO2 WSHFT 1844 SLP012 T00830011;LGA;
LGA;13.01.2023;20:41;13.01.2023 20:41;46.00;33.00;60.49;310.00;15.00;0.00;29.59;;10.00;;FEW;BKN;BKN;;2500.00;3800.00;8000.00;;;;;;26.00;310.00;2023-01-13 20:21;38.93;KLGA 132041Z 31015KT 10SM FEW025 BKN038 BKN080 08/01 A2959 RMK AO2 PK WND 31026/2021 T00780006;LGA;
JFK;13.01.2023;20:47;13.01.2023 20:47;46.40;37.40;70.68;320.00;17.00;0.00;29.59;;10.00;;FEW;BKN;BKN;BKN;2200.00;3500.00;7500.00;23000.00;;;;;;;;38.94;KJFK 132047Z 32017KT 10SM FEW022 BKN035 BKN075 BKN230 08/03 A2959 RMK AO2;JFK;
LGA;13.01.2023;20:51;13.01.2023 20:51;45.00;32.00;60.11;320.00;14.00;0.00;29.60;1002.10;10.00;22.00;FEW;BKN;BKN;BKN;2500.00;3800.00;8000.00;24000.00;;;;;26.00;310.00;2023-01-13 20:21;37.92;KLGA 132051Z 32014G22KT 10SM FEW025 BKN038 BKN080 BKN240 07/00 A2960 RMK AO2 PK WND 31026/2021 SLP021 T00720000 51028;LGA;
JFK;13.01.2023;20:51;13.01.2023 20:51;47.00;37.00;68.27;320.00;19.00;0.00;29.59;1002.10;10.00;;FEW;BKN;BKN;BKN;2200.00;3500.00;7500.00;23000.00;;;;;;;;39.14;KJFK 132051Z 32019KT 10SM FEW022 BKN035 BKN075 BKN230 08/03 A2959 RMK AO2 SLP021 T00830028 53021;JFK;
JFK;13.01.2023;21:51;13.01.2023 21:51;44.00;33.00;65.02;310.00;17.00;0.00;29.64;1003.60;10.00;;FEW;BKN;;;3500.00;23000.00;;;;;;;;;;35.93;KJFK 132151Z 31017KT 10SM FEW035 BKN230 07/01 A2964 RMK AO2 SLP036 T00670006;JFK;
LGA;13.01.2023;21:51;13.01.2023 21:51;43.00;30.00;59.83;300.00;14.00;0.00;29.64;1003.60;10.00;;FEW;FEW;BKN;;3500.00;8000.00;23000.00;;;;;;;;;35.34;KLGA 132151Z 30014KT 10SM FEW035 FEW080 BKN230 06/M01 A2964 RMK AO2 SLP036 T00611011;LGA;
LGA;13.01.2023;22:51;13.01.2023 22:51;41.00;28.90;61.79;310.00;15.00;0.00;29.66;1004.30;10.00;22.00;BKN;BKN;;;3000.00;22000.00;;;;;;;;;;32.45;KLGA 132251Z 31015G22KT 10SM BKN030 BKN220 05/M02 A2966 RMK AO2 SLP043 T00501017;LGA;
JFK;13.01.2023;22:51;13.01.2023 22:51;41.00;30.90;67.03;310.00;14.00;0.00;29.67;1004.50;10.00;22.00;FEW;BKN;;;3500.00;23000.00;;;;;;;;;;32.76;KJFK 132251Z 31014G22KT 10SM FEW035 BKN230 05/M01 A2967 RMK AO2 SLP045 T00501006;JFK;
LGA;13.01.2023;22:58;13.01.2023 22:58;41.00;28.90;61.79;310.00;17.00;0.00;29.66;;10.00;;BKN;BKN;;;2800.00;22000.00;;;;;;;;;;31.87;KLGA 132258Z 31017KT 10SM BKN028 BKN220 05/M02 A2966 RMK AO2 T00501017;LGA;
LGA;13.01.2023;23:41;13.01.2023 23:41;41.00;28.90;61.79;320.00;12.00;0.00;29.68;;10.00;;BKN;BKN;;;3000.00;22000.00;;;;;;;;;;33.46;KLGA 132341Z 32012KT 10SM BKN030 BKN220 05/M02 A2968 RMK AO2 T00501017;LGA;
JFK;13.01.2023;23:46;13.01.2023 23:46;41.00;30.20;65.16;320.00;15.00;0.00;29.67;;10.00;;OVC;;;;2700.00;;;;;;;;;;;32.45;KJFK 132346Z 32015KT 10SM OVC027 05/M01 A2967 RMK AO2;JFK;
LGA;13.01.2023;23:51;13.01.2023 23:51;41.00;28.90;61.79;330.00;15.00;0.00;29.67;1004.70;10.00;;BKN;BKN;;;3000.00;22000.00;;;;;;;;;;32.45;KLGA 132351Z 33015KT 10SM BKN030 BKN220 05/M02 A2967 RMK AO2 SLP047 T00501017 10128 20050 51025;LGA;
JFK;13.01.2023;23:51;13.01.2023 23:51;41.00;30.00;64.63;320.00;17.00;0.00;29.67;1004.70;10.00;;OVC;;;;2700.00;;;;;;;;;;;31.87;KJFK 132351Z 32017KT 10SM OVC027 05/M01 A2967 RMK AO2 SLP047 T00501011 10111 20050 51026;JFK;
LGA;14.01.2023;0:23;14.01.2023 00:23;41.00;28.00;59.55;320.00;11.00;0.00;29.69;;10.00;;OVC;;;;2800.00;;;;;;;;;;;33.84;KLGA 140023Z 32011KT 10SM OVC028 05/M02 A2969 RMK AO2 PRESRR T00501022;LGA;
JFK;14.01.2023;0:51;14.01.2023 00:51;41.00;30.00;64.63;320.00;18.00;0.00;29.69;1005.30;10.00;;OVC;;;;2600.00;;;;;;;;;;;31.60;KJFK 140051Z 32018KT 10SM OVC026 05/M01 A2969 RMK AO2 SLP053 T00501011;JFK;
LGA;14.01.2023;0:51;14.01.2023 00:51;41.00;28.00;59.55;330.00;10.00;0.00;29.69;1005.50;10.00;;OVC;;;;2800.00;;;;;;;;;;;34.25;KLGA 140051Z 33010KT 10SM OVC028 05/M02 A2969 RMK AO2 SLP055 T00501022;LGA;
LGA;14.01.2023;1:33;14.01.2023 01:33;40.00;27.00;59.65;330.00;14.00;0.00;29.69;;10.00;20.00;OVC;;;;3100.00;;;;;;;;;;;31.35;KLGA 140133Z 33014G20KT 10SM OVC031 04/M03 A2969 RMK AO2 T00441028;LGA;
LGA;14.01.2023;1:51;14.01.2023 01:51;40.00;27.00;59.65;330.00;13.00;0.00;29.69;1005.40;10.00;20.00;BKN;OVC;;;3000.00;3500.00;;;;;;;;;;31.69;KLGA 140151Z 33013G20KT 10SM BKN030 OVC035 04/M03 A2969 RMK AO2 SLP054 T00441028;LGA;
JFK;14.01.2023;1:51;14.01.2023 01:51;40.00;28.90;64.49;320.00;17.00;0.00;29.70;1005.80;10.00;26.00;OVC;;;;3000.00;;;;;;;;26.00;340.00;2023-01-14 01:45;30.42;KJFK 140151Z 32017G26KT 10SM OVC030 04/M02 A2970 RMK AO2 PK WND 34026/0145 SLP058 T00441017;JFK;
JFK;14.01.2023;2:51;14.01.2023 02:51;40.00;28.90;64.49;350.00;17.00;0.00;29.69;1005.30;10.00;;OVC;;;;3600.00;;;;;;;;;;;30.42;KJFK 140251Z 35017KT 10SM OVC036 04/M02 A2969 RMK AO2 SLP053 T00441017 50000;JFK;
LGA;14.01.2023;2:51;14.01.2023 02:51;40.00;26.10;57.47;340.00;11.00;0.00;29.70;1005.80;10.00;;OVC;;;;3700.00;;;;;;;;;;;32.45;KLGA 140251Z 34011KT 10SM OVC037 04/M03 A2970 RMK AO2 SLP058 T00441033 51011;LGA;
JFK;14.01.2023;3:51;14.01.2023 03:51;39.00;28.00;64.37;350.00;17.00;0.00;29.69;1005.30;10.00;;OVC;;;;3700.00;;;;;;;;30.00;350.00;2023-01-14 03:00;29.25;KJFK 140351Z 35017KT 10SM OVC037 04/M02 A2969 RMK AO2 PK WND 35030/0300 SLP053 T00391022;JFK;
LGA;14.01.2023;3:51;14.01.2023 03:51;39.00;26.10;59.52;10.00;15.00;0.00;29.70;1005.60;10.00;22.00;SCT;OVC;;;3100.00;4300.00;;;;;;;;;;29.85;KLGA 140351Z 01015G22KT 10SM SCT031 OVC043 04/M03 A2970 RMK AO2 SLP056 T00391033;LGA;
JFK;14.01.2023;4:51;14.01.2023 04:51;38.00;27.00;64.49;350.00;17.00;0.00;29.69;1005.20;10.00;27.00;OVC;;;;3700.00;;;;;;;;27.00;350.00;2023-01-14 04:46;27.80;KJFK 140451Z 35017G27KT 10SM OVC037 03/M03 A2969 RMK AO2 PK WND 35027/0446 SLP052 T00331028 401110033 $;JFK;
LGA;14.01.2023;4:51;14.01.2023 04:51;38.00;26.10;62.14;10.00;15.00;0.00;29.69;1005.40;10.00;21.00;OVC;;;;4100.00;;;;;;;;;;;28.43;KLGA 140451Z 01015G21KT 10SM OVC041 03/M03 A2969 RMK AO2 SLP054 T00331033 401280033;LGA;
JFK;14.01.2023;5:51;14.01.2023 05:51;37.00;27.00;66.82;350.00;18.00;0.00;29.70;1005.70;10.00;26.00;OVC;;;;3800.00;;;;;;;;27.00;360.00;2023-01-14 05:06;26.33;KJFK 140551Z 35018G26KT 10SM OVC038 03/M03 A2970 RMK AO2 PK WND 36027/0506 SLP057 T00281028 10050 20028 53004 $;JFK;
LGA;14.01.2023;5:51;14.01.2023 05:51;37.00;25.00;61.50;360.00;16.00;0.00;29.70;1005.70;10.00;24.00;FEW;OVC;;;2900.00;4100.00;;;;;;;;;;26.94;KLGA 140551Z 36016G24KT 10SM FEW029 OVC041 03/M04 A2970 RMK AO2 SLP057 T00281039 10050 20028 55001;LGA;
LGA;14.01.2023;6:51;14.01.2023 06:51;36.00;25.00;63.98;10.00;15.00;0.00;29.71;1006.20;10.00;21.00;OVC;;;;4100.00;;;;;;;;26.00;10.00;2023-01-14 06:32;25.97;KLGA 140651Z 01015G21KT 10SM OVC041 02/M04 A2971 RMK AO2 PK WND 01026/0632 SLP062 T00221039;LGA;
JFK;14.01.2023;6:51;14.01.2023 06:51;36.00;26.10;66.97;350.00;20.00;0.00;29.70;1005.80;10.00;26.00;OVC;;;;3500.00;;;;;;;;26.00;360.00;2023-01-14 06:10;24.45;KJFK 140651Z 35020G26KT 10SM OVC035 02/M03 A2970 RMK AO2 PK WND 36026/0610 SLP058 T00221033 $;JFK;
LGA;14.01.2023;7:51;14.01.2023 07:51;36.00;24.10;61.62;340.00;17.00;0.00;29.74;1007.10;10.00;23.00;SCT;OVC;;;2700.00;3100.00;;;;;;;28.00;350.00;2023-01-14 07:21;25.32;KLGA 140751Z 34017G23KT 10SM SCT027 OVC031 02/M04 A2974 RMK AO2 PK WND 35028/0721 SLP071 T00221044;LGA;
JFK;14.01.2023;7:51;14.01.2023 07:51;35.00;26.10;69.41;340.00;16.00;0.00;29.75;1007.20;10.00;;SCT;OVC;;;2500.00;3400.00;;;;;;;31.00;340.00;2023-01-14 06:57;24.46;KJFK 140751Z 34016KT 10SM SCT025 OVC034 02/M03 A2975 RMK AO2 PK WND 34031/0657 SLP072 T00171033 $;JFK;
LGA;14.01.2023;8:51;14.01.2023 08:51;35.00;24.10;63.86;340.00;18.00;0.00;29.74;1006.90;10.00;23.00;SCT;OVC;;;2700.00;3400.00;;;;;;;26.00;360.00;2023-01-14 08:22;23.83;KLGA 140851Z 34018G23KT 10SM SCT027 OVC034 02/M04 A2974 RMK AO2 PK WND 36026/0822 SLP069 T00171044 50012;LGA;
JFK;14.01.2023;8:51;14.01.2023 08:51;34.00;27.00;75.26;340.00;19.00;0.00;29.73;1006.80;10.00;24.00;SCT;OVC;;;2800.00;3500.00;;;;;;;27.00;350.00;2023-01-14 08:36;22.08;KJFK 140851Z 34019G24KT 10SM SCT028 OVC035 01/M03 A2973 RMK AO2 PK WND 35027/0836 SLP068 T00111028 50011 $;JFK;
LGA;14.01.2023;9:36;14.01.2023 09:36;34.00;24.10;66.72;350.00;19.00;T;29.75;;10.00;29.00;FEW;OVC;;;2700.00;3600.00;;;-SN;;;;29.00;340.00;2023-01-14 09:23;22.08;KLGA 140936Z 35019G29KT 10SM -SN FEW027 OVC036 01/M04 A2975 RMK AO2 PK WND 34029/0923 SNB36 P0000 T00111044;LGA;
JFK;14.01.2023;9:51;14.01.2023 09:51;33.00;26.10;75.18;340.00;24.00;T;29.74;1007.10;8.00;30.00;OVC;;;;3600.00;;;;-SN;;;;33.00;340.00;2023-01-14 09:16;19.54;KJFK 140951Z 34024G30KT 8SM -SN OVC036 01/M03 A2974 RMK AO2 PK WND 34033/0916 SNB47 SLP071 P0000 T00061033 $;JFK;
LGA;14.01.2023;9:51;14.01.2023 09:51;34.00;24.10;66.72;350.00;19.00;T;29.75;1007.40;9.00;27.00;FEW;OVC;;;2700.00;3600.00;;;-SN;;;;29.00;340.00;2023-01-14 09:23;22.08;KLGA 140951Z 35019G27KT 9SM -SN FEW027 OVC036 01/M04 A2975 RMK AO2 PK WND 34029/0923 SNB36 SLP074 P0000 T00111044;LGA;
JFK;14.01.2023;10:51;14.01.2023 10:51;32.00;26.10;78.58;350.00;18.00;T;29.75;1007.30;9.00;31.00;FEW;BKN;;;1800.00;3400.00;;;;;;;31.00;340.00;2023-01-14 10:48;19.75;KJFK 141051Z 35018G31KT 9SM FEW018 BKN034 00/M03 A2975 RMK AO2 PK WND 34031/1048 SNE46 SLP073 P0000 T00001033 $;JFK;
LGA;14.01.2023;10:51;14.01.2023 10:51;33.00;25.00;71.82;360.00;11.00;T;29.76;1007.60;9.00;23.00;FEW;OVC;;;2000.00;3600.00;;;-SN;;;;;;;23.86;KLGA 141051Z 36011G23KT 9SM -SN FEW020 OVC036 01/M04 A2976 RMK AO2 SLP076 P0000 T00061039;LGA;
LGA;14.01.2023;11:39;14.01.2023 11:39;34.00;24.10;66.72;350.00;17.00;T;29.77;;9.00;25.00;FEW;OVC;;;2500.00;3400.00;;;;;;;;;;22.70;KLGA 141139Z 35017G25KT 9SM FEW025 OVC034 01/M04 A2977 RMK AO2 SNE37 P0000 T00111044;LGA;
LGA;14.01.2023;11:51;14.01.2023 11:51;33.00;23.00;66.06;360.00;20.00;T;29.77;1008.00;10.00;29.00;FEW;OVC;;;2400.00;3400.00;;;;;;;29.00;360.00;2023-01-14 11:49;20.60;KLGA 141151Z 36020G29KT 10SM FEW024 OVC034 01/M05 A2977 RMK AO2 PK WND 36029/1149 SNE37 SLP080 931000 P0000 60000 70001 T00061050 10028 20006 51010;LGA;
JFK;14.01.2023;11:51;14.01.2023 11:51;32.00;25.00;75.07;350.00;19.00;0.00;29.76;1007.60;10.00;28.00;OVC;;;;3100.00;;;;;;;;32.00;360.00;2023-01-14 11:18;19.44;KJFK 141151Z 35019G28KT 10SM OVC031 00/M04 A2976 RMK AO2 PK WND 36032/1118 SLP076 60000 70001 T00001039 10028 20000 52008 $;JFK;
LGA;14.01.2023;12:51;14.01.2023 12:51;33.00;24.10;69.17;350.00;16.00;T;29.78;1008.50;9.00;;FEW;OVC;;;2100.00;3600.00;;;-SN;;;;27.00;350.00;2023-01-14 12:28;21.85;KLGA 141251Z COR 35016KT 9SM -SN FEW021 OVC036 01/M04 A2978 RMK AO2 PK WND 35027/1228 SNB07E29B51 SLP085 P0000 T00061044;LGA;
JFK;14.01.2023;12:51;14.01.2023 12:51;32.00;25.00;75.07;350.00;15.00;T;29.78;1008.30;10.00;25.00;FEW;OVC;;;2100.00;3300.00;;;-SN;;;;29.00;350.00;2023-01-14 12:34;20.78;KJFK 141251Z 35015G25KT 10SM -SN FEW021 OVC033 00/M04 A2978 RMK AO2 PK WND 35029/1234 SNB51 SLP083 P0000 T00001039 $;JFK;
LGA;14.01.2023;13:51;14.01.2023 13:51;33.00;24.10;69.17;350.00;12.00;T;29.82;1009.60;9.00;19.00;SCT;OVC;;;2100.00;3500.00;;;-SN;;;;26.00;10.00;2023-01-14 12:52;23.40;KLGA 141351Z 35012G19KT 9SM -SN SCT021 OVC035 01/M04 A2982 RMK AO2 PK WND 01026/1252 SLP096 P0000 T00061044 $;LGA;
JFK;14.01.2023;13:51;14.01.2023 13:51;32.00;26.10;78.58;360.00;16.00;T;29.82;1009.70;9.00;23.00;SCT;OVC;;;2000.00;3700.00;;;-SN;;;;29.00;350.00;2023-01-14 13:37;20.42;KJFK 141351Z 36016G23KT 9SM -SN SCT020 OVC037 00/M03 A2982 RMK AO2 PK WND 35029/1337 SLP097 P0000 T00001033 $;JFK;
JFK;14.01.2023;14:30;14.01.2023 14:30;32.00;25.00;75.07;340.00;16.00;T;29.83;;10.00;;BKN;OVC;;;2000.00;3600.00;;;;;;;;;;20.42;KJFK 141430Z 34016KT 10SM BKN020 OVC036 00/M04 A2983 RMK AO2 SNE19 P0000 T00001039 $;JFK;
LGA;14.01.2023;14:51;14.01.2023 14:51;33.00;23.00;66.06;350.00;16.00;T;29.84;1010.40;9.00;23.00;SCT;OVC;;;2400.00;3600.00;;;-SN;;;;28.00;360.00;2023-01-14 14:32;21.85;KLGA 141451Z 35016G23KT 9SM -SN SCT024 OVC036 01/M05 A2984 RMK AO2 PK WND 36028/1432 SLP104 P0000 60000 T00061050 53024 $;LGA;
JFK;14.01.2023;14:51;14.01.2023 14:51;32.00;25.00;75.07;330.00;17.00;T;29.84;1010.50;10.00;;BKN;OVC;;;2000.00;3400.00;;;;;;;;;;20.08;KJFK 141451Z 33017KT 10SM BKN020 OVC034 00/M04 A2984 RMK AO2 SNE19 SLP105 P0000 60000 T00001039 53028 $;JFK;
JFK;14.01.2023;15:51;14.01.2023 15:51;33.00;25.00;71.82;340.00;17.00;T;29.84;1010.60;9.00;26.00;OVC;;;;4100.00;;;;;;;;28.00;340.00;2023-01-14 15:32;21.52;KJFK 141551Z 34017G26KT 9SM OVC041 01/M04 A2984 RMK AO2 PK WND 34028/1532 SNB13E27 SLP106 P0000 T00061039 $;JFK;
LGA;14.01.2023;15:51;14.01.2023 15:51;33.00;21.90;63.06;360.00;16.00;T;29.85;1010.60;8.00;22.00;FEW;OVC;;;2500.00;3300.00;;;-SN;;;;;;;21.85;KLGA 141551Z 36016G22KT 8SM -SN FEW025 OVC033 01/M06 A2985 RMK AO2 SLP106 P0000 T00061056 $;LGA;
LGA;14.01.2023;15:58;14.01.2023 15:58;33.00;23.00;66.06;350.00;15.00;T;29.85;;3.00;22.00;BKN;OVC;;;2500.00;3300.00;;;-SN;;;;;;;22.21;KLGA 141558Z 35015G22KT 3SM -SN BKN025 OVC033 01/M05 A2985 RMK AO2 P0000 T00061050 $;LGA;
LGA;14.01.2023;16:32;14.01.2023 16:32;33.00;24.10;69.17;360.00;17.00;T;29.83;;7.00;25.00;SCT;OVC;;;2300.00;3100.00;;;-SN;;;;;;;21.52;KLGA 141632Z 36017G25KT 7SM -SN SCT023 OVC031 01/M04 A2983 RMK AO2 P0000 T00061044 $;LGA;
JFK;14.01.2023;16:51;14.01.2023 16:51;33.00;26.10;75.18;340.00;20.00;T;29.83;1010.00;9.00;25.00;BKN;OVC;;;2100.00;4000.00;;;;;;;29.00;350.00;2023-01-14 16:18;20.60;KJFK 141651Z 34020G25KT 9SM BKN021 OVC040 01/M03 A2983 RMK AO2 PK WND 35029/1618 SNB06E47 SLP100 P0000 T00061033 $;JFK;
LGA;14.01.2023;16:51;14.01.2023 16:51;33.00;24.10;69.17;10.00;14.00;T;29.82;1009.90;9.00;23.00;FEW;OVC;;;2200.00;3500.00;;;-SN;;;;26.00;350.00;2023-01-14 16:41;22.58;KLGA 141651Z 01014G23KT 9SM -SN FEW022 OVC035 01/M04 A2982 RMK AO2 PK WND 35026/1641 SLP099 P0000 T00061044 $;LGA;
LGA;14.01.2023;17:13;14.01.2023 17:13;34.00;24.10;66.72;360.00;14.00;T;29.83;;9.00;18.00;FEW;OVC;;;2500.00;3500.00;;;;;;;;;;23.74;KLGA 141713Z 36014G18KT 9SM FEW025 OVC035 01/M04 A2983 RMK AO2 SNE12 P0000 T00111044 $;LGA;
JFK;14.01.2023;17:38;14.01.2023 17:38;34.00;25.00;69.28;340.00;19.00;T;29.83;;9.00;25.00;SCT;OVC;;;2200.00;3800.00;;;-SN;;;;;;;22.08;KJFK 141738Z 34019G25KT 9SM -SN SCT022 OVC038 01/M04 A2983 RMK AO2 SNB32 P0000 T00111039 $;JFK;
LGA;14.01.2023;17:51;14.01.2023 17:51;34.00;21.90;60.83;360.00;14.00;T;29.83;1010.10;10.00;;SCT;OVC;;;2500.00;3500.00;;;;;;;;;;23.74;KLGA 141751Z COR 36014KT 10SM SCT025 OVC035 01/M06 A2983 RMK AO2 SNE12 SLP101 931000 P0000 60000 T00111056 10011 20000 58002 $;LGA;
JFK;14.01.2023;17:51;14.01.2023 17:51;35.00;25.00;66.31;350.00;21.00;T;29.83;1010.00;9.00;25.00;FEW;OVC;;;2200.00;3900.00;;;;;;;27.00;340.00;2023-01-14 17:40;22.99;KJFK 141751Z 35021G25KT 9SM FEW022 OVC039 02/M04 A2983 RMK AO2 PK WND 34027/1740 SNB32E48 SLP100 P0000 60000 T00171039 10017 20000 58004 $;JFK;
LGA;14.01.2023;18:51;14.01.2023 18:51;35.00;21.90;58.22;10.00;16.00;0.00;29.82;1009.80;10.00;;FEW;OVC;;;2500.00;4000.00;;;;;;;;;;24.46;KLGA 141851Z 01016KT 10SM FEW025 OVC040 02/M06 A2982 RMK AO2 SLP098 T00171056 $;LGA;
JFK;14.01.2023;18:51;14.01.2023 18:51;35.00;24.10;63.86;340.00;22.00;0.00;29.81;1009.50;10.00;26.00;SCT;BKN;BKN;;3200.00;4000.00;5500.00;;;;;;28.00;340.00;2023-01-14 18:07;22.73;KJFK 141851Z 34022G26KT 10SM SCT032 BKN040 BKN055 02/M04 A2981 RMK AO2 PK WND 34028/1807 SLP095 T00171044 $;JFK;
LGA;14.01.2023;19:51;14.01.2023 19:51;35.00;21.00;56.05;360.00;12.00;0.00;29.84;1010.40;10.00;;FEW;BKN;BKN;;2500.00;3800.00;5500.00;;;;;;;;;25.95;KLGA 141951Z 36012KT 10SM FEW025 BKN038 BKN055 02/M06 A2984 RMK AO2 SLP104 T00171061 $;LGA;
JFK;14.01.2023;19:51;14.01.2023 19:51;35.00;23.00;60.99;350.00;22.00;0.00;29.84;1010.20;10.00;29.00;BKN;BKN;;;3600.00;5500.00;;;;;;;30.00;340.00;2023-01-14 19:18;22.73;KJFK 141951Z 35022G29KT 10SM BKN036 BKN055 02/M05 A2984 RMK AO2 PK WND 34030/1918 SLP102 T00171050 $;JFK;
LGA;14.01.2023;20:51;14.01.2023 20:51;34.00;21.00;58.56;350.00;16.00;0.00;29.85;1010.80;10.00;;BKN;BKN;;;3700.00;5000.00;;;;;;;;;;23.03;KLGA 142051Z 35016KT 10SM BKN037 BKN050 01/M06 A2985 RMK AO2 SLP108 T00111061 53006 $;LGA;
JFK;14.01.2023;20:51;14.01.2023 20:51;34.00;21.90;60.83;340.00;15.00;0.00;29.85;1010.70;10.00;24.00;BKN;BKN;;;3400.00;5500.00;;;;;;;29.00;350.00;2023-01-14 20:09;23.37;KJFK 142051Z 34015G24KT 10SM BKN034 BKN055 01/M06 A2985 RMK AO2 PK WND 35029/2009 SLP107 T00111056 53007 $;JFK;
JFK;14.01.2023;21:51;14.01.2023 21:51;33.00;21.90;63.06;340.00;19.00;0.00;29.86;1011.20;10.00;26.00;SCT;BKN;;;3500.00;5000.00;;;;;;;27.00;330.00;2023-01-14 21:38;20.89;KJFK 142151Z 34019G26KT 10SM SCT035 BKN050 01/M06 A2986 RMK AO2 PK WND 33027/2138 SLP112 T00061056 $;JFK;
LGA;14.01.2023;21:51;14.01.2023 21:51;33.00;21.00;60.71;360.00;12.00;0.00;29.88;1011.70;10.00;23.00;BKN;OVC;;;3600.00;4800.00;;;;;;;;;;23.40;KLGA 142151Z 36012G23KT 10SM BKN036 OVC048 01/M06 A2988 RMK AO2 SLP117 T00061061 $;LGA;
LGA;14.01.2023;22:30;14.01.2023 22:30;33.00;19.90;57.93;350.00;16.00;T;29.89;;10.00;27.00;BKN;OVC;;;3800.00;5000.00;;;-SN;;;;27.00;350.00;2023-01-14 22:24;21.85;KLGA 142230Z 35016G27KT 10SM -SN BKN038 OVC050 01/M07 A2989 RMK AO2 PK WND 35027/2224 SNB28 P0000 T00061067 $;LGA;
LGA;14.01.2023;22:51;14.01.2023 22:51;33.00;21.00;60.71;350.00;14.00;T;29.89;1012.00;9.00;25.00;SCT;OVC;;;3500.00;4500.00;;;-SN;;;;27.00;350.00;2023-01-14 22:24;22.58;KLGA 142251Z 35014G25KT 9SM -SN SCT035 OVC045 01/M06 A2989 RMK AO2 PK WND 35027/2224 SNB28 SLP120 P0000 T00061061 $;LGA;
JFK;14.01.2023;22:51;14.01.2023 22:51;32.00;21.90;65.92;350.00;21.00;0.00;29.88;1011.70;10.00;31.00;OVC;;;;3300.00;;;;;;;;32.00;340.00;2023-01-14 22:20;18.85;KJFK 142251Z 35021G31KT 10SM OVC033 00/M06 A2988 RMK AO2 PK WND 34032/2220 SLP117 T00001056 $;JFK;
LGA;14.01.2023;23:17;14.01.2023 23:17;33.00;21.00;60.71;360.00;12.00;T;29.90;;10.00;22.00;BKN;OVC;;;3800.00;4500.00;;;;;;;;;;23.40;KLGA 142317Z 36012G22KT 10SM BKN038 OVC045 01/M06 A2990 RMK AO2 SNE17 P0000 T00061061 $;LGA;
LGA;14.01.2023;23:51;14.01.2023 23:51;33.00;21.00;60.71;360.00;17.00;T;29.90;1012.50;10.00;25.00;SCT;BKN;OVC;;3800.00;4500.00;6000.00;;;;;;;;;21.52;KLGA 142351Z 36017G25KT 10SM SCT038 BKN045 OVC060 01/M06 A2990 RMK AO2 SNE17 SLP125 931000 P0000 60000 T00061061 10022 20006 51017 $;LGA;
JFK;14.01.2023;23:51;14.01.2023 23:51;32.00;21.00;63.45;340.00;21.00;0.00;29.88;1011.90;10.00;28.00;OVC;;;;3900.00;;;;;;;;32.00;360.00;2023-01-14 22:56;18.85;KJFK 142351Z 34021G28KT 10SM OVC039 00/M06 A2988 RMK AO2 PK WND 36032/2256 SLP119 T00001061 10022 20000 51012 $;JFK;
LGA;15.01.2023;0:51;15.01.2023 00:51;32.00;19.90;60.55;360.00;21.00;0.00;29.88;1011.70;10.00;35.00;BKN;OVC;;;3500.00;4800.00;;;;;;;35.00;360.00;2023-01-15 00:47;18.85;KLGA 150051Z 36021G35KT 10SM BKN035 OVC048 00/M07 A2988 RMK AO2 PK WND 36035/0047 SLP117 T00001067;LGA;
JFK;15.01.2023;0:51;15.01.2023 00:51;30.90;23.00;72.18;350.00;23.00;0.00;29.87;1011.40;10.00;30.00;BKN;OVC;;;3900.00;5500.00;;;;;;;32.00;350.00;2023-01-15 00:23;16.84;KJFK 150051Z 35023G30KT 10SM BKN039 OVC055 M01/M05 A2987 RMK AO2 PK WND 35032/0023 SLP114 T10061050 $;JFK;
LGA;15.01.2023;1:00;15.01.2023 01:00;32.00;19.90;60.55;360.00;19.00;T;29.88;;10.00;28.00;BKN;OVC;;;3600.00;4800.00;;;-SN;;;;27.00;20.00;2023-01-15 00:53;19.44;KLGA 150100Z 36019G28KT 10SM -SN BKN036 OVC048 00/M07 A2988 RMK AO2 PK WND 02027/0053 SNB58 P0000 T00001067;LGA;
JFK;15.01.2023;1:51;15.01.2023 01:51;32.00;21.00;63.45;340.00;23.00;0.00;29.85;1010.70;10.00;35.00;BKN;;;;6000.00;;;;;;;;35.00;340.00;2023-01-15 00:53;18.31;KJFK 150151Z 34023G35KT 10SM BKN060 00/M06 A2985 RMK AO2 PK WND 34035/0053 SLP107 T00001061 $;JFK;
LGA;15.01.2023;1:51;15.01.2023 01:51;32.00;19.90;60.55;360.00;17.00;T;29.87;1011.40;9.00;36.00;BKN;OVC;;;3800.00;4700.00;;;-SN;;;;36.00;10.00;2023-01-15 01:46;20.08;KLGA 150151Z 36017G36KT 9SM -SN BKN038 OVC047 00/M07 A2987 RMK AO2 PK WND 01036/0146 SLP114 SNB0058 P0000 T00001067;LGA;
LGA;15.01.2023;2:29;15.01.2023 02:29;32.00;19.90;60.55;350.00;18.00;T;29.90;;10.00;27.00;BKN;OVC;;;3800.00;4600.00;;;;;;;29.00;10.00;2023-01-15 02:05;19.75;KLGA 150229Z 35018G27KT 10SM BKN038 OVC046 00/M07 A2990 RMK AO2 PK WND 01029/0205 SNE29 P0000 T00001067;LGA;
JFK;15.01.2023;2:51;15.01.2023 02:51;32.00;21.90;65.92;350.00;22.00;0.00;29.90;1012.50;10.00;30.00;SCT;OVC;;;3900.00;6000.00;;;;;;;33.00;350.00;2023-01-15 02:29;18.58;KJFK 150251Z 35022G30KT 10SM SCT039 OVC060 00/M06 A2990 RMK AO2 PK WND 35033/0229 CIG 042 W SLP125 T00001056 53006 $;JFK;
LGA;15.01.2023;2:51;15.01.2023 02:51;32.00;19.90;60.55;360.00;19.00;T;29.92;1013.00;10.00;30.00;OVC;;;;3800.00;;;;;;;;31.00;10.00;2023-01-15 02:35;19.44;KLGA 150251Z 36019G30KT 10SM OVC038 00/M07 A2992 RMK AO2 PK WND 01031/0235 SNE29 SLP130 P0000 60000 T00001067 53005;LGA;
JFK;15.01.2023;3:02;15.01.2023 03:02;30.90;21.90;68.91;350.00;23.00;T;29.89;;10.00;29.00;OVC;;;;6000.00;;;;-SN;;;;29.00;350.00;2023-01-15 02:59;16.84;KJFK 150302Z 35023G29KT 10SM -SN OVC060 M01/M06 A2989 RMK AO2 PK WND 35029/0259 SNB02 P0000 T10061056 $;JFK;
LGA;15.01.2023;3:22;15.01.2023 03:22;32.00;19.90;60.55;360.00;18.00;T;29.91;;10.00;25.00;SCT;OVC;;;3500.00;4900.00;;;-SN;;;;29.00;10.00;2023-01-15 02:52;19.75;KLGA 150322Z 36018G25KT 10SM -SN SCT035 OVC049 00/M07 A2991 RMK AO2 PK WND 01029/0252 SNB22 P0000 T00001067;LGA;
LGA;15.01.2023;3:51;15.01.2023 03:51;32.00;19.90;60.55;350.00;19.00;T;29.91;1012.80;9.00;29.00;OVC;;;;4800.00;;;;-SN;;;;33.00;340.00;2023-01-15 03:37;19.44;KLGA 150351Z 35019G29KT 9SM -SN OVC048 00/M07 A2991 RMK AO2 PK WND 34033/0337 SNB22 SLP128 P0000 T00001067;LGA;
JFK;15.01.2023;3:51;15.01.2023 03:51;30.90;21.90;68.91;350.00;23.00;T;29.89;1012.20;9.00;31.00;FEW;OVC;;;4300.00;6500.00;;;-SN;;;;31.00;350.00;2023-01-15 03:46;16.84;KJFK 150351Z 35023G31KT 9SM -SN FEW043 OVC065 M01/M06 A2989 RMK AO2 PK WND 35031/0346 SNB02 SLP122 P0000 T10061056 $;JFK;
LGA;15.01.2023;4:29;15.01.2023 04:29;30.90;19.90;63.31;360.00;19.00;T;29.90;;9.00;32.00;BKN;OVC;;;4700.00;6000.00;;;;;;;32.00;360.00;2023-01-15 04:26;17.98;KLGA 150429Z 36019G32KT 9SM BKN047 OVC060 M01/M07 A2990 RMK AO2 PK WND 36032/0426 SNE29 P0000 T10061067;LGA;
JFK;15.01.2023;4:51;15.01.2023 04:51;30.90;21.00;66.34;350.00;20.00;T;29.89;1012.00;9.00;26.00;FEW;OVC;;;4100.00;6000.00;;;;;;;33.00;340.00;2023-01-15 04:19;17.68;KJFK 150451Z 35020G26KT 9SM FEW041 OVC060 M01/M06 A2989 RMK AO2 PK WND 34033/0419 SNE46 SLP120 P0000 T10061061 400331011 $;JFK;
LGA;15.01.2023;4:51;15.01.2023 04:51;30.90;19.90;63.31;360.00;22.00;T;29.90;1012.50;10.00;27.00;OVC;;;;6000.00;;;;;;;;32.00;360.00;2023-01-15 04:26;17.11;KLGA 150451Z 36022G27KT 10SM OVC060 M01/M07 A2990 RMK AO2 PK WND 36032/0426 SNE29 SLP125 P0000 T10061067 400331006;LGA;
JFK;15.01.2023;5:33;15.01.2023 05:33;30.00;21.00;68.81;340.00;18.00;T;29.90;;10.00;;BKN;;;;6500.00;;;;-SN;;;;30.00;340.00;2023-01-15 05:23;17.12;KJFK 150533Z 34018KT 10SM -SN BKN065 M01/M06 A2990 RMK AO2 PK WND 34030/0523 SNB33 P0000 T10111061 $;JFK;
JFK;15.01.2023;5:51;15.01.2023 05:51;30.00;21.00;68.81;350.00;18.00;T;29.88;1011.70;9.00;27.00;FEW;SCT;;;3900.00;6500.00;;;-SN;;;;30.00;340.00;2023-01-15 05:23;17.12;KJFK 150551Z 35018G27KT 9SM -SN FEW039 SCT065 M01/M06 A2988 RMK AO2 PK WND 34030/0523 SNB33 SLP117 P0000 60000 T10111061 10000 21011 56008 $;JFK;
LGA;15.01.2023;5:51;15.01.2023 05:51;30.90;19.90;63.31;350.00;24.00;0.00;29.90;1012.50;10.00;30.00;SCT;BKN;;;4800.00;6500.00;;;;;;;32.00;360.00;2023-01-15 05:34;16.58;KLGA 150551Z 35024G30KT 10SM SCT048 BKN065 M01/M07 A2990 RMK AO2 PK WND 36032/0534 SLP125 931000 60000 T10061067 10006 21006 56005;LGA;
JFK;15.01.2023;6:00;15.01.2023 06:00;30.00;21.00;68.81;340.00;16.00;T;29.88;;9.00;24.00;FEW;SCT;;;3900.00;7000.00;;;;;;;;;;17.81;KJFK 150600Z 34016G24KT 9SM FEW039 SCT070 M01/M06 A2988 RMK AO2 SNE00 P0000 T10111061 $;JFK;
JFK;15.01.2023;6:51;15.01.2023 06:51;28.90;21.00;71.96;340.00;22.00;T;29.91;1012.70;10.00;27.00;FEW;BKN;;;4100.00;8000.00;;;;;;;27.00;330.00;2023-01-15 06:51;14.43;KJFK 150651Z 34022G27KT 10SM FEW041 BKN080 M02/M06 A2991 RMK AO2 PK WND 33027/0651 SNE00 SLP127 P0000 T10171061 $;JFK;
LGA;15.01.2023;6:51;15.01.2023 06:51;30.90;19.90;63.31;350.00;22.00;0.00;29.91;1012.60;10.00;33.00;FEW;SCT;;;3500.00;6000.00;;;;;;;33.00;10.00;2023-01-15 06:45;17.11;KLGA 150651Z 35022G33KT 10SM FEW035 SCT060 M01/M07 A2991 RMK AO2 PK WND 01033/0645 SLP126 T10061067;LGA;
JFK;15.01.2023;7:51;15.01.2023 07:51;30.00;21.00;68.81;340.00;16.00;0.00;29.93;1013.50;10.00;30.00;FEW;SCT;;;3800.00;7500.00;;;;;;;32.00;350.00;2023-01-15 07:23;17.81;KJFK 150751Z 34016G30KT 10SM FEW038 SCT075 M01/M06 A2993 RMK AO2 PK WND 35032/0723 SLP135 T10111061 $;JFK;
LGA;15.01.2023;7:51;15.01.2023 07:51;30.90;19.90;63.31;360.00;21.00;0.00;29.94;1013.90;10.00;29.00;OVC;;;;3800.00;;;;;;;;29.00;350.00;2023-01-15 07:47;17.39;KLGA 150751Z 36021G29KT 10SM OVC038 M01/M07 A2994 RMK AO2 PK WND 35029/0747 SLP139 T10061067;LGA;
JFK;15.01.2023;8:51;15.01.2023 08:51;30.00;21.00;68.81;350.00;22.00;0.00;29.94;1013.70;10.00;30.00;SCT;OVC;;;3300.00;4800.00;;;;;;;30.00;360.00;2023-01-15 08:45;15.90;KJFK 150851Z 35022G30KT 10SM SCT033 OVC048 M01/M06 A2994 RMK AO2 PK WND 36030/0845 CIG 033 W SLP137 60000 T10111061 51020 $;JFK;
LGA;15.01.2023;8:51;15.01.2023 08:51;30.90;19.90;63.31;340.00;20.00;0.00;29.94;1013.80;10.00;31.00;OVC;;;;3700.00;;;;;;;;35.00;350.00;2023-01-15 08:27;17.68;KLGA 150851Z 34020G31KT 10SM OVC037 M01/M07 A2994 RMK AO2 PK WND 35035/0827 SLP138 T10061067 50014;LGA;
LGA;15.01.2023;9:51;15.01.2023 09:51;30.90;19.90;63.31;340.00;18.00;0.00;29.96;1014.50;10.00;22.00;BKN;OVC;;;3300.00;5500.00;;;;;;;32.00;350.00;2023-01-15 08:59;18.30;KLGA 150951Z 34018G22KT 10SM BKN033 OVC055 M01/M07 A2996 RMK AO2 PK WND 35032/0859 SLP145 T10061067;LGA;
JFK;15.01.2023;9:51;15.01.2023 09:51;30.00;21.00;68.81;350.00;23.00;0.00;29.94;1013.90;10.00;33.00;OVC;;;;4800.00;;;;;;;;33.00;360.00;2023-01-15 09:51;15.63;KJFK 150951Z 35023G33KT 10SM OVC048 M01/M06 A2994 RMK AO2 PK WND 36033/0951 SLP139 T10111061 $;JFK;
JFK;15.01.2023;10:51;15.01.2023 10:51;30.00;21.00;68.81;350.00;19.00;0.00;29.97;1014.70;10.00;;BKN;OVC;;;3900.00;5000.00;;;;;;;32.00;360.00;2023-01-15 10:03;16.79;KJFK 151051Z 35019KT 10SM BKN039 OVC050 M01/M06 A2997 RMK AO2 PK WND 36032/1003 SLP147 T10111061 $;JFK;
LGA;15.01.2023;10:51;15.01.2023 10:51;30.00;19.90;65.66;350.00;19.00;0.00;29.98;1015.30;10.00;27.00;SCT;OVC;;;4300.00;5500.00;;;;;;;28.00;350.00;2023-01-15 10:01;16.79;KLGA 151051Z 35019G27KT 10SM SCT043 OVC055 M01/M07 A2998 RMK AO2 PK WND 35028/1001 SLP153 T10111067;LGA;
LGA;15.01.2023;11:51;15.01.2023 11:51;30.90;19.90;63.31;360.00;20.00;0.00;30.01;1016.00;10.00;29.00;FEW;SCT;BKN;;2400.00;4100.00;5500.00;;;;;;30.00;350.00;2023-01-15 11:16;17.68;KLGA 151151Z 36020G29KT 10SM FEW024 SCT041 BKN055 M01/M07 A3001 RMK AO2 PK WND 35030/1116 SLP160 T10061067 11006 21011 53022;LGA;
JFK;15.01.2023;11:51;15.01.2023 11:51;30.00;21.00;68.81;350.00;20.00;0.00;29.97;1014.80;10.00;29.00;SCT;BKN;;;3600.00;5500.00;;;;;;;31.00;330.00;2023-01-15 11:36;16.48;KJFK 151151Z 35020G29KT 10SM SCT036 BKN055 M01/M06 A2997 RMK AO2 PK WND 33031/1136 SLP148 60000 T10111061 11011 21017 51011 $;JFK;
JFK;15.01.2023;12:51;15.01.2023 12:51;30.00;21.00;68.81;350.00;21.00;0.00;29.99;1015.40;10.00;28.00;FEW;BKN;;;3500.00;5500.00;;;;;;;32.00;350.00;2023-01-15 12:11;16.19;KJFK 151251Z 35021G28KT 10SM FEW035 BKN055 M01/M06 A2999 RMK AO2 PK WND 35032/1211 SLP154 T10111061 $;JFK;
LGA;15.01.2023;12:51;15.01.2023 12:51;30.90;19.90;63.31;360.00;19.00;0.00;30.02;1016.50;10.00;27.00;FEW;SCT;BKN;;2200.00;3500.00;6000.00;;;;;;28.00;350.00;2023-01-15 12:30;17.98;KLGA 151251Z 36019G27KT 10SM FEW022 SCT035 BKN060 M01/M07 A3002 RMK AO2 PK WND 35028/1230 SLP165 T10061067;LGA;
JFK;15.01.2023;13:51;15.01.2023 13:51;30.90;21.90;68.91;340.00;20.00;0.00;30.00;1015.90;10.00;28.00;FEW;SCT;BKN;BKN;3500.00;5500.00;9000.00;25000.00;;;;;32.00;350.00;2023-01-15 13:40;17.68;KJFK 151351Z 34020G28KT 10SM FEW035 SCT055 BKN090 BKN250 M01/M06 A3000 RMK AO2 PK WND 35032/1340 SLP159 T10061056 $;JFK;
LGA;15.01.2023;13:51;15.01.2023 13:51;30.90;19.90;63.31;350.00;18.00;0.00;30.04;1017.10;10.00;26.00;FEW;SCT;BKN;;2200.00;3500.00;5500.00;;;;;;28.00;350.00;2023-01-15 13:11;18.30;KLGA 151351Z 35018G26KT 10SM FEW022 SCT035 BKN055 M01/M07 A3004 RMK AO2 PK WND 35028/1311 SLP171 T10061067;LGA;
JFK;15.01.2023;14:51;15.01.2023 14:51;32.00;21.00;63.45;340.00;20.00;0.00;30.01;1016.10;10.00;26.00;FEW;FEW;BKN;BKN;3500.00;6000.00;9000.00;21000.00;;;;;33.00;350.00;2023-01-15 14:31;19.14;KJFK 151451Z 34020G26KT 10SM FEW035 FEW060 BKN090 BKN210 00/M06 A3001 RMK AO2 PK WND 35033/1431 SLP161 T00001061 51013 $;JFK;
LGA;15.01.2023;14:51;15.01.2023 14:51;32.00;19.90;60.55;360.00;17.00;0.00;30.03;1016.80;10.00;25.00;FEW;SCT;SCT;BKN;2700.00;3500.00;5500.00;25000.00;;;;;32.00;360.00;2023-01-15 13:58;20.08;KLGA 151451Z 36017G25KT 10SM FEW027 SCT035 SCT055 BKN250 00/M07 A3003 RMK AO2 PK WND 36032/1358 SLP168 T00001067 50007;LGA;
LGA;15.01.2023;15:51;15.01.2023 15:51;34.00;19.90;55.88;350.00;19.00;0.00;30.02;1016.60;10.00;28.00;FEW;SCT;SCT;BKN;3100.00;5500.00;9000.00;25000.00;;;;;28.00;350.00;2023-01-15 15:48;22.08;KLGA 151551Z 35019G28KT 10SM FEW031 SCT055 SCT090 BKN250 01/M07 A3002 RMK AO2 PK WND 35028/1548 SLP166 T00111067;LGA;
JFK;15.01.2023;15:51;15.01.2023 15:51;34.00;21.90;60.83;350.00;16.00;0.00;30.01;1016.30;10.00;28.00;FEW;SCT;BKN;BKN;3000.00;9000.00;21000.00;25000.00;;;;;31.00;350.00;2023-01-15 15:35;23.03;KJFK 151551Z 35016G28KT 10SM FEW030 SCT090 BKN210 BKN250 01/M06 A3001 RMK AO2 PK WND 35031/1535 SLP163 T00111056 $;JFK;
LGA;15.01.2023;16:51;15.01.2023 16:51;36.00;19.90;51.61;350.00;16.00;0.00;30.01;1016.20;10.00;23.00;FEW;SCT;SCT;BKN;3300.00;5500.00;9000.00;21000.00;;;;;30.00;10.00;2023-01-15 15:52;25.63;KLGA 151651Z 35016G23KT 10SM FEW033 SCT055 SCT090 BKN210 BKN250 02/M07 A3001 RMK AO2 PK WND 01030/1552 SLP162 T00221067;LGA;
JFK;15.01.2023;16:51;15.01.2023 16:51;36.00;21.00;54.08;340.00;20.00;0.00;30.00;1015.80;10.00;27.00;FEW;SCT;BKN;BKN;5000.00;9000.00;21000.00;25000.00;;;;;28.00;330.00;2023-01-15 16:09;24.45;KJFK 151651Z 34020G27KT 10SM FEW050 SCT090 BKN210 BKN250 02/M06 A3000 RMK AO2 PK WND 33028/1609 SLP158 T00221061 $;JFK;
LGA;15.01.2023;17:51;15.01.2023 17:51;38.00;19.00;46.08;350.00;19.00;0.00;30.00;1015.80;10.00;25.00;FEW;SCT;SCT;SCT;4000.00;8500.00;21000.00;25000.00;;;;;29.00;340.00;2023-01-15 17:36;27.24;KLGA 151751Z 35019G25KT 10SM FEW040 SCT085 SCT210 SCT250 03/M07 A3000 RMK AO2 PK WND 34029/1736 SLP158 T00331072 10033 21011 58010;LGA;
JFK;15.01.2023;17:51;15.01.2023 17:51;37.00;21.00;51.99;330.00;23.00;0.00;29.99;1015.40;10.00;31.00;FEW;SCT;BKN;BKN;5000.00;9000.00;21000.00;25000.00;;;;;32.00;330.00;2023-01-15 17:39;25.03;KJFK 151751Z 33023G31KT 10SM FEW050 SCT090 BKN210 BKN250 03/M06 A2999 RMK AO2 PK WND 33032/1739 SLP154 T00281061 10033 21011 58007 $;JFK;
JFK;15.01.2023;18:51;15.01.2023 18:51;39.00;19.90;45.87;340.00;22.00;0.00;29.98;1015.00;10.00;28.00;FEW;FEW;SCT;BKN;5000.00;9000.00;20000.00;25000.00;;;;;31.00;330.00;2023-01-15 18:41;27.95;KJFK 151851Z 34022G28KT 10SM FEW050 FEW090 SCT200 BKN250 04/M07 A2998 RMK AO2 PK WND 33031/1841 SLP150 T00391067 $;JFK;
LGA;15.01.2023;18:51;15.01.2023 18:51;38.00;17.10;42.46;330.00;22.00;0.00;29.99;1015.30;10.00;30.00;FEW;SCT;SCT;SCT;4000.00;9500.00;21000.00;25000.00;;;;;30.00;340.00;2023-01-15 18:42;26.48;KLGA 151851Z 33022G30KT 10SM FEW040 SCT095 SCT210 SCT250 03/M08 A2999 RMK AO2 PK WND 34030/1842 SLP153 T00331083;LGA;
JFK;15.01.2023;19:51;15.01.2023 19:51;39.00;18.00;42.28;340.00;23.00;0.00;29.96;1014.40;10.00;30.00;FEW;SCT;SCT;;9000.00;20000.00;25000.00;;;;;;33.00;340.00;2023-01-15 19:39;27.72;KJFK 151951Z 34023G30KT 10SM FEW090 SCT200 SCT250 04/M08 A2996 RMK AO2 PK WND 34033/1939 SLP144 T00391078 $;JFK;
LGA;15.01.2023;19:51;15.01.2023 19:51;40.00;16.00;37.44;350.00;17.00;0.00;29.97;1014.70;10.00;27.00;FEW;SCT;SCT;SCT;5000.00;9000.00;15000.00;25000.00;;;;;28.00;350.00;2023-01-15 19:01;30.42;KLGA 151951Z 35017G27KT 10SM FEW050 SCT090 SCT150 SCT250 04/M09 A2997 RMK AO2 PK WND 35028/1901 SLP147 T00441089;LGA;
JFK;15.01.2023;20:51;15.01.2023 20:51;39.00;18.00;42.28;340.00;20.00;0.00;29.96;1014.60;10.00;28.00;FEW;SCT;SCT;;9500.00;20000.00;25000.00;;;;;;31.00;340.00;2023-01-15 20:35;28.44;KJFK 152051Z 34020G28KT 10SM FEW095 SCT200 SCT250 04/M08 A2996 RMK AO2 PK WND 34031/2035 SLP146 T00391078 55008 $;JFK;
LGA;15.01.2023;20:51;15.01.2023 20:51;39.00;15.10;37.29;360.00;15.00;0.00;29.98;1015.10;10.00;28.00;FEW;SCT;SCT;;8000.00;20000.00;25000.00;;;;;;28.00;360.00;2023-01-15 20:47;29.85;KLGA 152051Z 36015G28KT 10SM FEW080 SCT200 SCT250 04/M09 A2998 RMK AO2 PK WND 36028/2047 SLP151 T00391094 55006;LGA;
LGA;15.01.2023;21:51;15.01.2023 21:51;38.00;15.10;38.93;350.00;14.00;0.00;30.00;1015.80;10.00;22.00;FEW;FEW;SCT;;8500.00;20000.00;25000.00;;;;;;29.00;360.00;2023-01-15 21:19;28.77;KLGA 152151Z 35014G22KT 10SM FEW085 FEW200 SCT250 03/M09 A3000 RMK AO2 PK WND 36029/2119 SLP158 T00331094;LGA;
JFK;15.01.2023;21:51;15.01.2023 21:51;38.00;15.10;38.93;350.00;23.00;0.00;29.98;1015.20;10.00;33.00;FEW;SCT;SCT;;9500.00;20000.00;25000.00;;;;;;33.00;350.00;2023-01-15 21:49;26.24;KJFK 152151Z 35023G33KT 10SM FEW095 SCT200 SCT250 03/M09 A2998 RMK AO2 PK WND 35033/2149 SLP152 T00331094 $;JFK;
LGA;15.01.2023;22:51;15.01.2023 22:51;37.00;15.10;40.34;360.00;17.00;0.00;30.01;1016.20;10.00;26.00;FEW;FEW;SCT;;9500.00;20000.00;25000.00;;;;;;26.00;350.00;2023-01-15 22:49;26.63;KLGA 152251Z 36017G26KT 10SM FEW095 FEW200 SCT250 03/M09 A3001 RMK AO2 PK WND 35026/2249 SLP162 T00281094;LGA;
JFK;15.01.2023;22:51;15.01.2023 22:51;36.00;15.10;41.96;350.00;23.00;0.00;30.00;1015.90;10.00;30.00;FEW;SCT;SCT;;9500.00;20000.00;25000.00;;;;;;32.00;360.00;2023-01-15 22:10;23.69;KJFK 152251Z 35023G30KT 10SM FEW095 SCT200 SCT250 02/M09 A3000 RMK AO2 PK WND 36032/2210 SLP159 T00221094 $;JFK;
LGA;15.01.2023;23:51;15.01.2023 23:51;36.00;16.00;43.64;360.00;20.00;0.00;30.01;1016.20;10.00;27.00;FEW;FEW;SCT;;8000.00;20000.00;25000.00;;;;;;28.00;360.00;2023-01-15 23:17;24.45;KLGA 152351Z 36020G27KT 10SM FEW080 FEW200 SCT250 02/M09 A3001 RMK AO2 PK WND 36028/2317 SLP162 T00221089 10044 20022 51011;LGA;
JFK;15.01.2023;23:51;15.01.2023 23:51;35.00;16.00;45.22;350.00;18.00;0.00;30.01;1016.10;10.00;;FEW;SCT;SCT;;9500.00;20000.00;25000.00;;;;;;29.00;350.00;2023-01-15 22:53;23.83;KJFK 152351Z 35018KT 10SM FEW095 SCT200 SCT250 02/M09 A3001 RMK AO2 PK WND 35029/2253 SLP161 T00171089 10039 20017 51015 $;JFK;
LGA;16.01.2023;0:51;16.01.2023 00:51;36.00;12.90;38.10;360.00;20.00;0.00;30.00;1015.90;10.00;37.00;FEW;FEW;SCT;;8500.00;20000.00;25000.00;;;;;;37.00;340.00;2023-01-16 00:44;24.45;KLGA 160051Z 36020G37KT 10SM FEW085 FEW200 SCT250 02/M11 A3000 RMK AO2 PK WND 34037/0044 SLP159 T00221106;LGA;
JFK;16.01.2023;0:51;16.01.2023 00:51;34.00;15.10;45.43;350.00;21.00;0.00;30.01;1016.00;10.00;28.00;FEW;FEW;;;20000.00;25000.00;;;;;;;29.00;350.00;2023-01-15 23:56;21.52;KJFK 160051Z 35021G28KT 10SM FEW200 FEW250 01/M09 A3001 RMK AO2 PK WND 35029/2356 SLP160 T00111094 $;JFK;
JFK;16.01.2023;1:51;16.01.2023 01:51;34.00;15.10;45.43;350.00;19.00;0.00;30.00;1015.70;10.00;27.00;FEW;FEW;;;20000.00;25000.00;;;;;;;27.00;350.00;2023-01-16 01:23;22.08;KJFK 160151Z 35019G27KT 10SM FEW200 FEW250 01/M09 A3000 RMK AO2 PK WND 35027/0123 SLP157 T00111094 $;JFK;
LGA;16.01.2023;1:51;16.01.2023 01:51;35.00;12.90;39.49;350.00;20.00;0.00;29.99;1015.60;10.00;29.00;FEW;FEW;FEW;;9000.00;20000.00;25000.00;;;;;;32.00;340.00;2023-01-16 01:15;23.26;KLGA 160151Z 35020G29KT 10SM FEW090 FEW200 FEW250 02/M11 A2999 RMK AO2 PK WND 34032/0115 SLP156 T00171106;LGA;
LGA;16.01.2023;2:51;16.01.2023 02:51;34.00;12.90;41.26;350.00;18.00;0.00;29.99;1015.60;10.00;29.00;FEW;FEW;;;20000.00;25000.00;;;;;;;32.00;350.00;2023-01-16 02:31;22.38;KLGA 160251Z 35018G29KT 10SM FEW200 FEW250 01/M11 A2999 RMK AO2 PK WND 35032/0231 SLP156 T00111106 56006;LGA;
JFK;16.01.2023;2:51;16.01.2023 02:51;33.00;14.00;44.89;360.00;21.00;0.00;29.99;1015.60;10.00;26.00;FEW;FEW;;;20000.00;25000.00;;;;;;;28.00;340.00;2023-01-16 01:58;20.32;KJFK 160251Z 36021G26KT 10SM FEW200 FEW250 01/M10 A2999 RMK AO2 PK WND 34028/0158 SLP156 T00061100 56005 $;JFK;
LGA;16.01.2023;3:51;16.01.2023 03:51;33.00;14.00;44.89;350.00;17.00;0.00;29.99;1015.60;10.00;25.00;FEW;FEW;;;3900.00;25000.00;;;;;;;31.00;350.00;2023-01-16 03:05;21.52;KLGA 160351Z COR 35017G25KT 10SM FEW039 FEW250 01/M10 A2999 RMK AO2 PK WND 35031/0305 SLP156 T00061100;LGA;
JFK;16.01.2023;3:51;16.01.2023 03:51;32.00;14.00;46.92;350.00;17.00;0.00;29.99;1015.50;10.00;25.00;FEW;FEW;;;9000.00;25000.00;;;;;;;26.00;360.00;2023-01-16 03:08;20.08;KJFK 160351Z 35017G25KT 10SM FEW090 FEW250 00/M10 A2999 RMK AO2 PK WND 36026/0308 SLP155 T00001100 $;JFK;
LGA;16.01.2023;4:51;16.01.2023 04:51;32.00;14.00;46.92;350.00;18.00;0.00;29.99;1015.60;10.00;24.00;FEW;FEW;;;8000.00;25000.00;;;;;;;29.00;340.00;2023-01-16 04:11;19.75;KLGA 160451Z 35018G24KT 10SM FEW080 FEW250 00/M10 A2999 RMK AO2 PK WND 34029/0411 SLP156 T00001100 400441011;LGA;
JFK;16.01.2023;4:51;16.01.2023 04:51;30.90;12.90;46.74;340.00;16.00;0.00;29.99;1015.40;10.00;26.00;SCT;BKN;;;8000.00;19000.00;;;;;;;26.00;350.00;2023-01-16 04:44;18.98;KJFK 160451Z 34016G26KT 10SM SCT080 BKN190 M01/M11 A2999 RMK AO2 PK WND 35026/0444 SLP154 T10061106 400391017 $;JFK;
LGA;16.01.2023;5:51;16.01.2023 05:51;30.90;14.00;49.05;350.00;16.00;0.00;29.98;1015.00;10.00;25.00;SCT;;;;8000.00;;;;;;;;27.00;350.00;2023-01-16 05:08;18.98;KLGA 160551Z 35016G25KT 10SM SCT080 M01/M10 A2998 RMK AO2 PK WND 35027/0508 SLP150 T10061100 10022 21006 58006;LGA;
JFK;16.01.2023;5:51;16.01.2023 05:51;30.90;12.00;44.92;350.00;19.00;0.00;29.96;1014.60;10.00;25.00;BKN;;;;6500.00;;;;;;;;26.00;350.00;2023-01-16 05:01;17.98;KJFK 160551Z 35019G25KT 10SM BKN065 M01/M11 A2996 RMK AO2 PK WND 35026/0501 SLP146 T10061111 10017 21006 58010 $;JFK;
LGA;16.01.2023;6:51;16.01.2023 06:51;30.00;12.90;48.48;340.00;19.00;0.00;29.98;1015.10;10.00;26.00;SCT;;;;7500.00;;;;;;;;26.00;340.00;2023-01-16 06:43;16.79;KLGA 160651Z 34019G26KT 10SM SCT075 M01/M11 A2998 RMK AO2 PK WND 34026/0643 SLP151 T10111106;LGA;
JFK;16.01.2023;6:51;16.01.2023 06:51;30.90;12.90;46.74;350.00;14.00;0.00;29.98;1015.10;10.00;;BKN;;;;6500.00;;;;;;;;26.00;360.00;2023-01-16 05:56;19.74;KJFK 160651Z 35014KT 10SM BKN065 M01/M11 A2998 RMK AO2 PK WND 36026/0556 SLP151 T10061106 $;JFK;
LGA;16.01.2023;7:51;16.01.2023 07:51;30.00;12.00;46.59;350.00;16.00;0.00;29.98;1015.20;10.00;24.00;BKN;;;;8000.00;;;;;;;;29.00;360.00;2023-01-16 07:20;17.81;KLGA 160751Z 35016G24KT 10SM BKN080 M01/M11 A2998 RMK AO2 PK WND 36029/0720 SLP152 T10111111;LGA;
JFK;16.01.2023;7:51;16.01.2023 07:51;30.00;12.90;48.48;340.00;17.00;0.00;29.98;1015.10;10.00;;BKN;;;;6500.00;;;;;;;;;;;17.46;KJFK 160751Z 34017KT 10SM BKN065 M01/M11 A2998 RMK AO2 SLP151 T10111106 $;JFK;
LGA;16.01.2023;8:51;16.01.2023 08:51;30.90;12.90;46.74;350.00;15.00;0.00;29.97;1014.90;10.00;;BKN;;;;7000.00;;;;;;;;26.00;350.00;2023-01-16 08:36;19.35;KLGA 160851Z 35015KT 10SM BKN070 M01/M11 A2997 RMK AO2 PK WND 35026/0836 SLP149 T10061106 58001;LGA;
JFK;16.01.2023;8:51;16.01.2023 08:51;30.00;12.00;46.59;350.00;12.00;0.00;29.97;1014.90;10.00;20.00;BKN;;;;7000.00;;;;;;;;;;;19.46;KJFK 160851Z 35012G20KT 10SM BKN070 M01/M11 A2997 RMK AO2 SLP149 T10111111 50003 $;JFK;
LGA;16.01.2023;9:51;16.01.2023 09:51;30.90;12.00;44.92;340.00;13.00;0.00;29.97;1014.80;10.00;;BKN;BKN;;;3400.00;4600.00;;;;;;;;;;20.16;KLGA 160951Z 34013KT 10SM BKN034 BKN046 M01/M11 A2997 RMK AO2 SLP148 T10061111;LGA;
JFK;16.01.2023;9:51;16.01.2023 09:51;28.90;12.00;48.72;340.00;15.00;0.00;29.97;1014.90;10.00;;BKN;;;;7000.00;;;;;;;;;;;16.76;KJFK 160951Z 34015KT 10SM BKN070 M02/M11 A2997 RMK AO2 SLP149 T10171111 $;JFK;
LGA;16.01.2023;10:51;16.01.2023 10:51;30.90;10.00;41.09;330.00;15.00;0.00;29.96;1014.50;10.00;25.00;SCT;BKN;;;3200.00;5000.00;;;;;;;;;;19.35;KLGA 161051Z 33015G25KT 10SM SCT032 BKN050 M01/M12 A2996 RMK AO2 SLP145 T10061122;LGA;
JFK;16.01.2023;10:51;16.01.2023 10:51;30.00;12.00;46.59;330.00;16.00;0.00;29.97;1014.70;10.00;22.00;SCT;BKN;;;3300.00;6000.00;;;;;;;;;;17.81;KJFK 161051Z 33016G22KT 10SM SCT033 BKN060 M01/M11 A2997 RMK AO2 SLP147 T10111111 $;JFK;
LGA;16.01.2023;11:51;16.01.2023 11:51;32.00;10.00;39.31;340.00;16.00;0.00;29.96;1014.40;10.00;24.00;SCT;BKN;;;3000.00;5000.00;;;;;;;27.00;350.00;2023-01-16 11:01;20.42;KLGA 161151Z 34016G24KT 10SM SCT030 BKN050 00/M12 A2996 RMK AO2 PK WND 35027/1101 SLP144 T00001122 10000 21011 56005;LGA;
JFK;16.01.2023;11:51;16.01.2023 11:51;30.00;12.90;48.48;350.00;14.00;0.00;29.97;1014.60;10.00;;SCT;BKN;BKN;;3200.00;5000.00;11000.00;;;;;;;;;18.58;KJFK 161151Z 35014KT 10SM SCT032 BKN050 BKN110 M01/M11 A2997 RMK AO2 SLP146 T10111106 11006 21017 58003 $;JFK;
LGA;16.01.2023;12:51;16.01.2023 12:51;32.00;10.90;40.92;340.00;14.00;0.00;29.96;1014.30;10.00;;BKN;;;;3800.00;;;;;;;;;;;21.16;KLGA 161251Z 34014KT 10SM BKN038 00/M12 A2996 RMK AO2 SLP143 T00001117;LGA;
JFK;16.01.2023;12:51;16.01.2023 12:51;30.90;10.00;41.09;340.00;18.00;0.00;29.96;1014.50;10.00;25.00;BKN;BKN;;;3200.00;9500.00;;;;;;;;;;18.30;KJFK 161251Z 34018G25KT 10SM BKN032 BKN095 M01/M12 A2996 RMK AO2 SLP145 T10061122 $;JFK;
JFK;16.01.2023;13:51;16.01.2023 13:51;33.00;10.00;37.61;340.00;15.00;0.00;29.95;1014.10;10.00;;SCT;BKN;BKN;;4000.00;9500.00;16000.00;;;;;;;;;22.21;KJFK 161351Z 34015KT 10SM SCT040 BKN095 BKN160 01/M12 A2995 RMK AO2 SLP141 T00061122 $;JFK;
LGA;16.01.2023;13:51;16.01.2023 13:51;30.90;12.90;46.74;310.00;11.00;0.00;29.95;1014.00;10.00;;BKN;;;;3700.00;;;;;;;;;;;21.08;KLGA 161351Z 31011KT 10SM BKN037 M01/M11 A2995 RMK AO2 SLP140 T10061106;LGA;
LGA;16.01.2023;14:51;16.01.2023 14:51;32.00;12.90;44.70;300.00;9.00;0.00;29.94;1013.90;10.00;;SCT;BKN;;;4000.00;10000.00;;;;;;;;;;23.51;KLGA 161451Z 30009KT 10SM SCT040 BKN100 00/M11 A2994 RMK AO2 SLP139 T00001106 58006;LGA;
JFK;16.01.2023;14:51;16.01.2023 14:51;34.00;10.00;36.27;350.00;19.00;0.00;29.93;1013.60;10.00;24.00;FEW;SCT;SCT;;4300.00;9500.00;16000.00;;;;;;;;;22.08;KJFK 161451Z 35019G24KT 10SM FEW043 SCT095 SCT160 01/M12 A2993 RMK AO2 SLP136 T00111122 58010 $;JFK;
LGA;16.01.2023;15:51;16.01.2023 15:51;35.00;12.90;39.49;300.00;9.00;0.00;29.92;1013.10;10.00;;SCT;BKN;;;4000.00;10000.00;;;;;;;;;;27.37;KLGA 161551Z 30009KT 10SM SCT040 BKN100 02/M11 A2992 RMK AO2 SLP131 T00171106;LGA;
JFK;16.01.2023;15:51;16.01.2023 15:51;38.00;9.00;29.72;360.00;18.00;0.00;29.91;1012.90;10.00;22.00;FEW;FEW;SCT;SCT;4800.00;9000.00;16000.00;25000.00;;;;;;;;27.52;KJFK 161551Z 36018G22KT 10SM FEW048 FEW090 SCT160 SCT250 03/M13 A2991 RMK AO2 SLP129 ACSL SE T00331128 $;JFK;
LGA;16.01.2023;16:51;16.01.2023 16:51;38.00;10.00;31.08;300.00;7.00;0.00;29.87;1011.50;10.00;;FEW;FEW;;;4000.00;10000.00;;;;;;;;;;31.97;KLGA 161651Z 30007KT 10SM FEW040 FEW100 03/M12 A2987 RMK AO2 SLP115 T00331122;LGA;
JFK;16.01.2023;16:51;16.01.2023 16:51;41.00;10.00;27.55;330.00;19.00;0.00;29.87;1011.40;10.00;27.00;FEW;FEW;SCT;;9000.00;16000.00;25000.00;;;;;;27.00;320.00;2023-01-16 16:48;31.34;KJFK 161651Z 33019G27KT 10SM FEW090 FEW160 SCT250 05/M12 A2987 RMK AO2 PK WND 32027/1648 SLP114 T00501122 $;JFK;
LGA;16.01.2023;17:51;16.01.2023 17:51;41.00;12.00;30.11;310.00;10.00;0.00;29.83;1009.90;10.00;;FEW;FEW;FEW;;4000.00;10000.00;25000.00;;;;;;;;;34.25;KLGA 161751Z 31010KT 10SM FEW040 FEW100 FEW250 05/M11 A2983 RMK AO2 SLP099 T00501111 10050 21011 58039;LGA;
JFK;16.01.2023;17:51;16.01.2023 17:51;42.00;12.00;28.86;310.00;15.00;0.00;29.83;1010.10;10.00;;FEW;FEW;FEW;;9000.00;16000.00;25000.00;;;;;;28.00;330.00;2023-01-16 16:53;33.87;KJFK 161751Z 31015KT 10SM FEW090 FEW160 FEW250 06/M11 A2983 RMK AO2 PK WND 33028/1653 SLP101 T00561111 10056 21011 58035 $;JFK;
LGA;16.01.2023;18:51;16.01.2023 18:51;45.00;10.90;24.59;310.00;10.00;0.00;29.80;1009.00;10.00;;FEW;FEW;FEW;;4000.00;10000.00;25000.00;;;;;;;;;39.27;KLGA 161851Z 31010KT 10SM FEW040 FEW100 FEW250 07/M12 A2980 RMK AO2 SLP090 T00721117;LGA;
JFK;16.01.2023;18:51;16.01.2023 18:51;46.00;12.00;24.86;320.00;15.00;0.00;29.80;1009.00;10.00;;FEW;FEW;FEW;;9000.00;16000.00;25000.00;;;;;;;;;38.93;KJFK 161851Z 32015KT 10SM FEW090 FEW160 FEW250 08/M11 A2980 RMK AO2 SLP090 T00781111 $;JFK;
LGA;16.01.2023;19:51;16.01.2023 19:51;46.00;9.00;21.75;330.00;8.00;0.00;29.79;1008.70;10.00;;FEW;FEW;SCT;;10000.00;20000.00;25000.00;;;;;;;;;41.36;KLGA 161951Z 33008KT 10SM FEW100 FEW200 SCT250 08/M13 A2979 RMK AO2 SLP087 T00781128;LGA;
JFK;16.01.2023;19:51;16.01.2023 19:51;47.00;10.90;22.89;330.00;15.00;0.00;29.80;1009.00;10.00;;FEW;FEW;;;16000.00;25000.00;;;;;;;;;;40.10;KJFK 161951Z 33015KT 10SM FEW160 FEW250 08/M12 A2980 RMK AO2 SLP090 T00831117 $;JFK;
JFK;16.01.2023;20:51;16.01.2023 20:51;48.00;10.00;21.10;310.00;12.00;0.00;29.80;1009.00;10.00;;FEW;FEW;FEW;;4800.00;16000.00;25000.00;;;;;;;;;42.37;KJFK 162051Z COR 31012KT 10SM FEW048 FEW160 FEW250 09/M12 A2980 RMK AO2 SLP090 T00891122 56011 $;JFK;
LGA;16.01.2023;20:51;16.01.2023 20:51;47.00;12.00;24.03;320.00;12.00;0.00;29.79;1008.60;10.00;;FEW;FEW;SCT;SCT;5000.00;10000.00;20000.00;25000.00;;;;;;;;40.97;KLGA 162051Z 32012KT 10SM FEW050 FEW100 SCT200 SCT250 08/M11 A2979 RMK AO2 SLP086 T00831111 56013;LGA;
LGA;16.01.2023;21:51;16.01.2023 21:51;46.00;12.90;25.87;320.00;11.00;0.00;29.78;1008.30;10.00;;FEW;FEW;SCT;SCT;5000.00;10000.00;20000.00;25000.00;;;;;;;;40.16;KLGA 162151Z 32011KT 10SM FEW050 FEW100 SCT200 SCT250 08/M11 A2978 RMK AO2 SLP083 T00781106;LGA;
JFK;16.01.2023;21:51;16.01.2023 21:51;45.00;10.90;24.59;320.00;11.00;0.00;29.79;1008.60;10.00;;FEW;FEW;FEW;;4800.00;16000.00;25000.00;;;;;;;;;38.89;KJFK 162151Z 32011KT 10SM FEW048 FEW160 FEW250 07/M12 A2979 RMK AO2 SLP086 T00721117 $;JFK;
LGA;16.01.2023;22:51;16.01.2023 22:51;44.00;15.10;30.63;310.00;14.00;0.00;29.78;1008.40;10.00;;FEW;SCT;;;10000.00;25000.00;;;;;;;;;;36.76;KLGA 162251Z 31014KT 10SM FEW100 SCT250 07/M09 A2978 RMK AO2 SLP084 T00671094;LGA;
JFK;16.01.2023;22:51;16.01.2023 22:51;45.00;10.90;24.59;310.00;14.00;0.00;29.79;1008.70;10.00;;FEW;FEW;;;15000.00;25000.00;;;;;;;;;;37.92;KJFK 162251Z 31014KT 10SM FEW150 FEW250 07/M12 A2979 RMK AO2 SLP087 T00721117 $;JFK;
JFK;16.01.2023;23:51;16.01.2023 23:51;44.00;10.90;25.45;310.00;14.00;0.00;29.80;1009.00;10.00;20.00;FEW;;;;25000.00;;;;;;;;;;;36.76;KJFK 162351Z 31014G20KT 10SM FEW250 07/M12 A2980 RMK AO2 SLP090 T00671117 10089 20056 53000 $;JFK;
LGA;16.01.2023;23:51;16.01.2023 23:51;44.00;12.90;27.81;310.00;13.00;0.00;29.79;1008.70;10.00;;FEW;FEW;;;8000.00;25000.00;;;;;;;;;;37.07;KLGA 162351Z 31013KT 10SM FEW080 FEW250 07/M11 A2979 RMK AO2 SLP087 T00671106 10089 20050 53000;LGA;
LGA;17.01.2023;0:51;17.01.2023 00:51;43.00;12.00;27.87;300.00;13.00;0.00;29.80;1008.90;10.00;;FEW;;;;25000.00;;;;;;;;;;;35.66;KLGA 170051Z 30013KT 10SM FEW250 06/M11 A2980 RMK AO2 SLP089 T00611111;LGA;
JFK;17.01.2023;0:51;17.01.2023 00:51;43.00;10.90;26.55;310.00;14.00;0.00;29.80;1009.10;10.00;;FEW;;;;25000.00;;;;;;;;;;;35.34;KJFK 170051Z 31014KT 10SM FEW250 06/M12 A2980 RMK AO2 SLP091 T00611117 $;JFK;
LGA;17.01.2023;1:51;17.01.2023 01:51;41.00;12.00;30.11;320.00;9.00;0.00;29.79;1008.90;10.00;;FEW;;;;25000.00;;;;;;;;;;;34.70;KLGA 170151Z 32009KT 10SM FEW250 05/M11 A2979 RMK AO2 SLP089 T00501111;LGA;
JFK;17.01.2023;1:51;17.01.2023 01:51;41.00;10.00;27.55;300.00;14.00;0.00;29.80;1009.10;10.00;21.00;FEW;;;;25000.00;;;;;;;;;;;32.76;KJFK 170151Z 30014G21KT 10SM FEW250 05/M12 A2980 RMK AO2 SLP091 T00501122 $;JFK;
LGA;17.01.2023;2:51;17.01.2023 02:51;40.00;12.90;32.70;300.00;12.00;0.00;29.80;1008.90;10.00;;FEW;;;;25000.00;;;;;;;;;;;32.06;KLGA 170251Z 30012KT 10SM FEW250 04/M11 A2980 RMK AO2 SLP089 T00441106 51003;LGA;
JFK;17.01.2023;2:51;17.01.2023 02:51;40.00;12.00;31.42;310.00;13.00;0.00;29.81;1009.30;10.00;18.00;FEW;;;;25000.00;;;;;;;;;;;31.69;KJFK 170251Z 31013G18KT 10SM FEW250 04/M11 A2981 RMK AO2 SLP093 T00441111 52003 $;JFK;
JFK;17.01.2023;3:51;17.01.2023 03:51;38.00;14.00;37.10;320.00;8.00;0.00;29.80;1009.00;10.00;;FEW;;;;25000.00;;;;;;;;;;;31.38;KJFK 170351Z 32008KT 10SM FEW250 03/M10 A2980 RMK AO2 SLP090 T00331100 $;JFK;
LGA;17.01.2023;3:51;17.01.2023 03:51;39.00;14.00;35.54;320.00;11.00;0.00;29.79;1008.80;10.00;;FEW;;;;25000.00;;;;;;;;;;;31.31;KLGA 170351Z 32011KT 10SM FEW250 04/M10 A2979 RMK AO2 SLP088 T00391100;LGA;
LGA;17.01.2023;4:51;17.01.2023 04:51;38.00;15.10;38.93;310.00;9.00;0.00;29.78;1008.60;10.00;;SCT;;;;25000.00;;;;;;;;;;;30.85;KLGA 170451Z 31009KT 10SM SCT250 03/M09 A2978 RMK AO2 SLP086 T00331094 400891011;LGA;
JFK;17.01.2023;4:51;17.01.2023 04:51;37.00;15.10;40.34;300.00;6.00;0.00;29.79;1008.90;10.00;;SCT;;;;25000.00;;;;;;;;;;;31.55;KJFK 170451Z 30006KT 10SM SCT250 03/M09 A2979 RMK AO2 SLP089 T00281094 400891017 $;JFK;
JFK;17.01.2023;5:51;17.01.2023 05:51;37.00;16.00;41.95;280.00;7.00;0.00;29.79;1008.80;10.00;;BKN;;;;25000.00;;;;;;;;;;;30.87;KJFK 170551Z 28007KT 10SM BKN250 03/M09 A2979 RMK SLP088 T00281089 10067 20017 56005;JFK;
LGA;17.01.2023;5:51;17.01.2023 05:51;38.00;15.10;38.93;300.00;9.00;0.00;29.78;1008.30;10.00;;BKN;;;;25000.00;;;;;;;;;;;30.85;KLGA 170551Z 30009KT 10SM BKN250 03/M09 A2978 RMK AO2 SLP083 T00331094 10067 20033 58006;LGA;
LGA;17.01.2023;6:51;17.01.2023 06:51;37.00;15.10;40.34;300.00;11.00;0.00;29.78;1008.40;10.00;;FEW;BKN;;;20000.00;25000.00;;;;;;;;;;28.79;KLGA 170651Z 30011KT 10SM FEW200 BKN250 03/M09 A2978 RMK AO2 SLP084 T00281094;LGA;
JFK;17.01.2023;6:51;17.01.2023 06:51;36.00;17.10;45.77;280.00;8.00;0.00;29.79;1008.80;10.00;;BKN;;;;25000.00;;;;;;;;;;;29.04;KJFK 170651Z 28008KT 10SM BKN250 02/M08 A2979 RMK SLP088 T00221083;JFK;
JFK;17.01.2023;7:51;17.01.2023 07:51;35.00;17.10;47.43;290.00;7.00;0.00;29.78;1008.50;10.00;;BKN;;;;25000.00;;;;;;;;;;;28.56;KJFK 170751Z 29007KT 10SM BKN250 02/M08 A2978 RMK SLP085 T00171083;JFK;
LGA;17.01.2023;7:51;17.01.2023 07:51;37.00;14.00;38.44;300.00;10.00;0.00;29.77;1008.00;10.00;;FEW;BKN;;;20000.00;25000.00;;;;;;;;;;29.24;KLGA 170751Z 30010KT 10SM FEW200 BKN250 03/M10 A2977 RMK AO2 SLP080 T00281100;LGA;
LGA;17.01.2023;8:51;17.01.2023 08:51;36.00;12.90;38.10;300.00;8.00;0.00;29.76;1007.70;10.00;;FEW;FEW;;;20000.00;25000.00;;;;;;;;;;29.04;KLGA 170851Z 30008KT 10SM FEW200 FEW250 02/M11 A2976 RMK AO2 SLP077 T00221106 58006;LGA;
JFK;17.01.2023;8:51;17.01.2023 08:51;33.80;17.60;51.04;280.00;5.00;0.00;29.77;1008.10;10.00;;SCT;;;;25000.00;;;;;;;;;;;28.53;KJFK 170851Z 28005KT 10SM SCT250 01/M08 A2977 RMK SLP081 T000610083 56006;JFK;
LGA;17.01.2023;9:51;17.01.2023 09:51;37.00;12.00;35.20;300.00;7.00;0.00;29.76;1007.60;10.00;;SCT;;;;25000.00;;;;;;;;;;;30.87;KLGA 170951Z 30007KT 10SM SCT250 03/M11 A2976 RMK AO2 SLP076 T00281111;LGA;
JFK;17.01.2023;9:51;17.01.2023 09:51;34.00;18.00;51.52;270.00;8.00;0.00;29.77;1008.10;10.00;;FEW;;;;25000.00;;;;;;;;;;;26.58;KJFK 170951Z 27008KT 10SM FEW250 01/M08 A2977 RMK SLP081 T00111078;JFK;
JFK;17.01.2023;10:51;17.01.2023 10:51;30.90;19.00;60.92;250.00;7.00;0.00;29.77;1008.20;10.00;;FEW;;;;25000.00;;;;;;;;;;;23.44;KJFK 171051Z 25007KT 10SM FEW250 M01/M07 A2977 RMK SLP082 T10061072;JFK;
LGA;17.01.2023;10:51;17.01.2023 10:51;37.00;12.00;35.20;260.00;4.00;0.00;29.76;1007.60;10.00;;SCT;;;;25000.00;;;;;;;;;;;33.26;KLGA 171051Z 26004KT 10SM SCT250 03/M11 A2976 RMK AO2 SLP076 T00281111;LGA;
JFK;17.01.2023;11:51;17.01.2023 11:51;32.00;19.00;58.27;260.00;6.00;0.00;29.77;1008.20;10.00;;FEW;SCT;;;16000.00;25000.00;;;;;;;;;;25.53;KJFK 171151Z 26006KT 10SM FEW160 SCT250 00/M07 A2977 RMK SLP082 T00001072 10028 21006 53001;JFK;
LGA;17.01.2023;11:51;17.01.2023 11:51;37.00;12.00;35.20;300.00;4.00;0.00;29.76;1007.60;10.00;;FEW;SCT;;;13000.00;25000.00;;;;;;;;;;33.26;KLGA 171151Z 30004KT 10SM FEW130 SCT250 03/M11 A2976 RMK AO2 SLP076 T00281111 10033 20022 56001;LGA;
LGA;17.01.2023;12:51;17.01.2023 12:51;37.00;12.00;35.20;0.00;0.00;0.00;29.76;1007.70;10.00;;SCT;BKN;;;12000.00;25000.00;;;;;;;;;;37.00;KLGA 171251Z 00000KT 10SM SCT120 BKN250 03/M11 A2976 RMK AO2 SLP077 T00281111;LGA;
JFK;17.01.2023;12:51;17.01.2023 12:51;36.00;18.00;47.58;270.00;8.00;0.00;29.78;1008.30;10.00;;FEW;SCT;BKN;;10000.00;14000.00;25000.00;;;;;;;;;29.04;KJFK 171251Z 27008KT 10SM FEW100 SCT140 BKN250 02/M08 A2978 RMK SLP083 T00221078;JFK;
JFK;17.01.2023;13:51;17.01.2023 13:51;38.00;18.00;44.14;260.00;7.00;0.00;29.78;1008.40;10.00;;SCT;SCT;BKN;;11000.00;14000.00;25000.00;;;;;;;;;31.97;KJFK 171351Z 26007KT 10SM SCT110 SCT140 BKN250 03/M08 A2978 RMK SLP084 T00331078;JFK;
LGA;17.01.2023;13:51;17.01.2023 13:51;40.00;12.90;32.70;0.00;0.00;0.00;29.77;1008.00;10.00;;BKN;BKN;;;11000.00;25000.00;;;;;;;;;;39.90;KLGA 171351Z 00000KT 10SM BKN110 BKN250 04/M11 A2977 RMK AO2 SLP080 T00441106;LGA;
JFK;17.01.2023;14:51;17.01.2023 14:51;41.00;17.10;37.63;260.00;3.00;0.00;29.76;1007.50;10.00;;FEW;SCT;BKN;;11000.00;17000.00;25000.00;;;;;;;;;38.98;KJFK 171451Z 26003KT 10SM FEW110 SCT170 BKN250 05/M08 A2976 RMK AO2 SLP075 T00501083 58006 $;JFK;
LGA;17.01.2023;14:51;17.01.2023 14:51;42.00;15.10;33.07;340.00;4.00;0.00;29.74;1007.20;10.00;;SCT;BKN;;;11000.00;25000.00;;;;;;;;;;39.21;KLGA 171451Z 34004KT 10SM SCT110 BKN250 06/M09 A2974 RMK AO2 SLP072 T00561094 58004;LGA;
JFK;17.01.2023;15:51;17.01.2023 15:51;42.00;17.10;36.07;270.00;4.00;0.00;29.75;1007.20;10.00;;FEW;SCT;BKN;;9500.00;17000.00;25000.00;;;;;;;;;39.21;KJFK 171551Z 27004KT 10SM FEW095 SCT170 BKN250 06/M08 A2975 RMK AO2 SLP072 T00561083;JFK;
LGA;17.01.2023;15:51;17.01.2023 15:51;43.00;10.00;25.50;0.00;0.00;0.00;29.73;1006.60;10.00;;SCT;BKN;;;11000.00;25000.00;;;;;;;;;;43.00;KLGA 171551Z 00000KT 10SM SCT110 BKN250 06/M12 A2973 RMK AO2 SLP066 T00611122;LGA;
LGA;17.01.2023;16:51;17.01.2023 16:51;45.00;10.90;24.59;0.00;0.00;0.00;29.70;1005.70;10.00;;BKN;BKN;;;11000.00;25000.00;;;;;;;;;;45.00;KLGA 171651Z 00000KT 10SM BKN110 BKN250 07/M12 A2970 RMK AO2 SLP057 T00721117;LGA;
JFK;17.01.2023;16:51;17.01.2023 16:51;43.00;19.00;37.81;0.00;0.00;0.00;29.72;1006.30;10.00;;BKN;BKN;;;11000.00;25000.00;;;;;;;;;;43.00;KJFK 171651Z 00000KT 10SM BKN110 BKN250 06/M07 A2972 RMK AO2 SLP063 T00611072;JFK;
JFK;17.01.2023;17:51;17.01.2023 17:51;43.00;25.00;48.70;220.00;6.00;0.00;29.69;1005.50;10.00;;BKN;OVC;;;9000.00;25000.00;;;;;;;;;;38.78;KJFK 171751Z 22006KT 10SM BKN090 OVC250 06/M04 A2969 RMK AO2 SLP055 T00611039 10067 20000 58021;JFK;
LGA;17.01.2023;17:51;17.01.2023 17:51;45.00;14.00;28.20;330.00;3.00;0.00;29.67;1004.80;10.00;;BKN;OVC;;;9000.00;25000.00;;;;;;;;;;43.55;KLGA 171751Z 33003KT 10SM BKN090 OVC250 07/M10 A2967 RMK AO2 SLP048 T00721100 10072 20028 58024;LGA;
LGA;17.01.2023;18:51;17.01.2023 18:51;46.00;8.10;20.89;200.00;7.00;0.00;29.65;1003.80;10.00;;BKN;BKN;;;8500.00;25000.00;;;;;;;;;;41.84;KLGA 171851Z 20007KT 10SM BKN085 BKN250 08/M13 A2965 RMK AO2 SLP038 T00781133;LGA;
JFK;17.01.2023;18:51;17.01.2023 18:51;43.00;24.10;46.91;220.00;8.00;0.00;29.68;1004.90;10.00;;BKN;BKN;OVC;;7500.00;11000.00;25000.00;;;;;;;;;37.66;KJFK 171851Z 22008KT 10SM BKN075 BKN110 OVC250 06/M04 A2968 RMK AO2 SLP049 T00611044;JFK;
JFK;17.01.2023;19:51;17.01.2023 19:51;42.00;25.00;50.42;180.00;5.00;0.00;29.66;1004.30;10.00;;SCT;SCT;OVC;;5500.00;11000.00;23000.00;;;;;;;;;38.39;KJFK 171951Z 18005KT 10SM SCT055 SCT110 OVC230 06/M04 A2966 RMK AO2 SLP043 T00561039;JFK;
LGA;17.01.2023;19:51;17.01.2023 19:51;47.00;10.90;22.89;210.00;4.00;0.00;29.64;1003.70;10.00;;SCT;SCT;BKN;BKN;3700.00;8500.00;11000.00;25000.00;;;;;;;;44.82;KLGA 171951Z 21004KT 10SM SCT037 SCT085 BKN110 BKN250 08/M12 A2964 RMK AO2 SLP037 T00831117;LGA;
JFK;17.01.2023;20:51;17.01.2023 20:51;43.00;26.10;50.98;180.00;3.00;0.00;29.67;1004.70;10.00;;BKN;BKN;OVC;;3200.00;11000.00;25000.00;;;;;;;;;41.26;KJFK 172051Z 18003KT 10SM BKN032 BKN110 OVC250 06/M03 A2967 RMK AO2 SLP047 T00611033 55007;JFK;
LGA;17.01.2023;20:51;17.01.2023 20:51;47.00;14.00;26.25;200.00;6.00;T;29.65;1004.00;10.00;;BKN;OVC;;;3000.00;10000.00;;;-RA;;;;;;;43.48;KLGA 172051Z 20006KT 10SM -RA BKN030 OVC100 08/M10 A2965 RMK AO2 RAB45 SLP040 P0000 60000 T00831100 55007;LGA;
LGA;17.01.2023;21:14;17.01.2023 21:14;47.00;16.00;28.64;200.00;7.00;T;29.65;;10.00;;BKN;OVC;;;2900.00;10000.00;;;;;;;;;;42.94;KLGA 172114Z 20007KT 10SM BKN029 OVC100 08/M09 A2965 RMK AO2 RAE06 P0000 T00831089;LGA;
JFK;17.01.2023;21:39;17.01.2023 21:39;43.00;32.00;64.88;140.00;3.00;T;29.66;;10.00;;BKN;BKN;OVC;;2900.00;11000.00;25000.00;;;;;;;;;41.26;KJFK 172139Z 14003KT 10SM BKN029 BKN110 OVC250 06/00 A2966 RMK AO2 RAB03E13 P0000 T00610000;JFK;
JFK;17.01.2023;21:51;17.01.2023 21:51;43.00;32.00;64.88;140.00;3.00;T;29.66;1004.20;10.00;;BKN;BKN;OVC;;2900.00;7500.00;25000.00;;;;;;;;;41.26;KJFK 172151Z 14003KT 10SM BKN029 BKN075 OVC250 06/00 A2966 RMK AO2 RAB03E13 SLP042 P0000 T00610000;JFK;
LGA;17.01.2023;21:51;17.01.2023 21:51;46.00;14.00;27.15;200.00;7.00;T;29.64;1003.60;10.00;;BKN;OVC;;;2500.00;10000.00;;;;;;;;;;41.84;KLGA 172151Z 20007KT 10SM BKN025 OVC100 08/M10 A2964 RMK AO2 RAE06 SLP036 P0000 T00781100;LGA;
JFK;17.01.2023;22:51;17.01.2023 22:51;43.00;33.00;67.82;190.00;5.00;0.00;29.67;1004.50;10.00;;BKN;BKN;OVC;;2300.00;3900.00;7500.00;;;;;;;;;39.46;KJFK 172251Z 19005KT 10SM BKN023 BKN039 OVC075 06/01 A2967 RMK AO2 SLP045 T00610006;JFK;
LGA;17.01.2023;22:51;17.01.2023 22:51;46.00;19.90;35.04;190.00;5.00;0.00;29.65;1004.00;10.00;;BKN;OVC;;;2400.00;3800.00;;;;;;;;;;43.02;KLGA 172251Z 19005KT 10SM BKN024 OVC038 08/M07 A2965 RMK AO2 SLP040 T00781067;LGA;
LGA;17.01.2023;23:51;17.01.2023 23:51;46.00;17.10;31.07;200.00;9.00;0.00;29.65;1003.90;10.00;;BKN;OVC;;;3000.00;4100.00;;;;;;;;;;40.92;KLGA 172351Z 20009KT 10SM BKN030 OVC041 08/M08 A2965 RMK AO2 SLP039 60000 T00781083 10083 20072 56001;LGA;
JFK;17.01.2023;23:51;17.01.2023 23:51;42.00;36.00;78.80;200.00;6.00;0.00;29.67;1004.60;10.00;;BKN;BKN;OVC;;2800.00;3900.00;7500.00;;;;;;;;;37.69;KJFK 172351Z 20006KT 10SM BKN028 BKN039 OVC075 06/02 A2967 RMK AO2 SLP046 60000 T00560022 10061 20056 55002;JFK;
JFK;18.01.2023;0:23;18.01.2023 00:23;44.00;26.10;48.88;230.00;11.00;0.00;29.68;;10.00;;FEW;OVC;;;3100.00;3900.00;;;;;;;;;;37.76;KJFK 180023Z 23011KT 10SM FEW031 OVC039 07/M03 A2968 RMK AO2 T00671033;JFK;
JFK;18.01.2023;0:51;18.01.2023 00:51;43.00;28.00;55.14;230.00;9.00;0.00;29.68;1004.90;10.00;;FEW;OVC;;;3000.00;3900.00;;;;;;;;;;37.19;KJFK 180051Z 23009KT 10SM FEW030 OVC039 06/M02 A2968 RMK AO2 SLP049 T00611022;JFK;
LGA;18.01.2023;0:51;18.01.2023 00:51;46.00;19.90;35.04;220.00;6.00;0.00;29.66;1004.20;10.00;;FEW;OVC;;;3000.00;3900.00;;;;;;;;;;42.39;KLGA 180051Z 22006KT 10SM FEW030 OVC039 08/M07 A2966 RMK AO2 SLP042 T00781067;LGA;
LGA;18.01.2023;1:51;18.01.2023 01:51;46.00;21.00;36.72;210.00;4.00;0.00;29.64;1003.70;10.00;;FEW;OVC;;;3500.00;8000.00;;;;;;;;;;43.77;KLGA 180151Z 21004KT 10SM FEW035 OVC080 08/M06 A2964 RMK AO2 SLP037 T00781061;LGA;
JFK;18.01.2023;1:51;18.01.2023 01:51;42.00;30.90;64.24;220.00;6.00;0.00;29.67;1004.50;10.00;;BKN;BKN;;;3900.00;7500.00;;;;;;;;;;37.69;KJFK 180151Z 22006KT 10SM BKN039 BKN075 06/M01 A2967 RMK AO2 SLP045 T00561006;JFK;
JFK;18.01.2023;2:51;18.01.2023 02:51;43.00;30.00;59.83;240.00;10.00;0.00;29.67;1004.80;10.00;;FEW;OVC;;;3900.00;8000.00;;;;;;;;;;36.76;KJFK 180251Z 24010KT 10SM FEW039 OVC080 06/M01 A2967 RMK AO2 SLP048 T00611011 51002;JFK;
LGA;18.01.2023;2:51;18.01.2023 02:51;46.00;24.10;41.84;230.00;6.00;0.00;29.65;1004.00;10.00;;FEW;OVC;;;3500.00;7500.00;;;;;;;;;;42.39;KLGA 180251Z 23006KT 10SM FEW035 OVC075 08/M04 A2965 RMK AO2 SLP040 T00781044 51001;LGA;
JFK;18.01.2023;3:51;18.01.2023 03:51;42.00;30.90;64.24;230.00;9.00;0.00;29.67;1004.60;10.00;;BKN;;;;7500.00;;;;;;;;;;;36.07;KJFK 180351Z 23009KT 10SM BKN075 06/M01 A2967 RMK AO2 SLP046 T00561006;JFK;
LGA;18.01.2023;3:51;18.01.2023 03:51;46.00;24.10;41.84;220.00;7.00;0.00;29.65;1003.90;10.00;;SCT;SCT;;;6500.00;8500.00;;;;;;;;;;41.84;KLGA 180351Z 22007KT 10SM SCT065 SCT085 08/M04 A2965 RMK AO2 SLP039 T00781044;LGA;
LGA;18.01.2023;4:51;18.01.2023 04:51;45.00;25.00;45.12;210.00;5.00;0.00;29.64;1003.70;10.00;;FEW;;;;8000.00;;;;;;;;;;;41.83;KLGA 180451Z 21005KT 10SM FEW080 07/M04 A2964 RMK AO2 SLP037 T00721039 400830022;LGA;
JFK;18.01.2023;4:51;18.01.2023 04:51;40.00;32.00;73.14;230.00;11.00;0.00;29.66;1004.30;10.00;;FEW;;;;8000.00;;;;;;;;;;;32.45;KJFK 180451Z 23011KT 10SM FEW080 04/00 A2966 RMK AO2 SLP043 T00440000 400721006;JFK;
JFK;18.01.2023;5:51;18.01.2023 05:51;38.00;32.00;79.08;220.00;5.00;0.00;29.66;1004.40;10.00;;FEW;SCT;;;8000.00;11000.00;;;;;;;;;;33.40;KJFK 180551Z 22005KT 10SM FEW080 SCT110 03/00 A2966 RMK AO2 SLP044 T00330000 10072 20028 55004;JFK;
LGA;18.01.2023;5:51;18.01.2023 05:51;44.00;26.10;48.88;200.00;5.00;0.00;29.63;1003.40;10.00;;BKN;;;;10000.00;;;;;;;;;;;40.77;KLGA 180551Z 20005KT 10SM BKN100 07/M03 A2963 RMK AO2 SLP034 T00671033 10083 20067 58006;LGA;
JFK;18.01.2023;6:51;18.01.2023 06:51;37.00;34.00;88.78;220.00;6.00;0.00;29.66;1004.40;10.00;;FEW;BKN;;;4000.00;12000.00;;;;;;;;;;31.55;KJFK 180651Z 22006KT 10SM FEW040 BKN120 03/01 A2966 RMK AO2 SLP044 T00280011;JFK;
LGA;18.01.2023;6:51;18.01.2023 06:51;45.00;30.00;55.43;220.00;8.00;T;29.64;1003.70;10.00;;SCT;OVC;;;7500.00;9000.00;;;-RA;;;;;;;40.13;KLGA 180651Z 22008KT 10SM -RA SCT075 OVC090 07/M01 A2964 RMK AO2 RAB45 SLP037 P0000 T00721011;LGA;
JFK;18.01.2023;7:51;18.01.2023 07:51;40.00;37.00;89.27;230.00;10.00;T;29.66;1004.20;10.00;;FEW;BKN;BKN;;3500.00;5500.00;9000.00;;;;;;;;;32.87;KJFK 180751Z 23010KT 10SM FEW035 BKN055 BKN090 04/03 A2966 RMK AO2 RAB25E43 SLP042 P0000 T00440028;JFK;
LGA;18.01.2023;7:51;18.01.2023 07:51;43.00;35.00;73.45;210.00;8.00;0.04;29.63;1003.30;10.00;;OVC;;;;7500.00;;;;;;;;;;;37.66;KLGA 180751Z 21008KT 10SM OVC075 06/02 A2963 RMK AO2 RAE40 SLP033 P0004 T00610017;LGA;
JFK;18.01.2023;8:51;18.01.2023 08:51;41.00;39.00;92.52;250.00;10.00;0.00;29.66;1004.30;10.00;;SCT;OVC;;;6500.00;11000.00;;;;;;;;;;34.25;KJFK 180851Z 25010KT 10SM SCT065 OVC110 05/04 A2966 RMK AO2 SLP043 60000 T00500039 55001;JFK;
LGA;18.01.2023;8:51;18.01.2023 08:51;45.00;36.00;70.53;230.00;8.00;0.00;29.64;1003.60;10.00;;OVC;;;;7000.00;;;;;;;;;;;40.13;KLGA 180851Z 23008KT 10SM OVC070 07/02 A2964 RMK AO2 SLP036 60004 T00720022 52001;LGA;
LGA;18.01.2023;9:51;18.01.2023 09:51;46.00;36.00;67.90;200.00;4.00;0.00;29.65;1004.10;10.00;;FEW;BKN;OVC;;4600.00;6000.00;11000.00;;;;;;;;;43.77;KLGA 180951Z 20004KT 10SM FEW046 BKN060 OVC110 08/02 A2965 RMK AO2 SLP041 T00780022;LGA;
JFK;18.01.2023;9:51;18.01.2023 09:51;41.00;39.00;92.52;250.00;10.00;0.00;29.68;1004.90;10.00;;OVC;;;;5000.00;;;;;;;;;;;34.25;KJFK 180951Z 25010KT 10SM OVC050 05/04 A2968 RMK AO2 SLP049 T00500039;JFK;
JFK;18.01.2023;10:51;18.01.2023 10:51;42.00;40.00;91.84;250.00;10.00;0.00;29.69;1005.40;8.00;;FEW;BKN;;;6000.00;11000.00;;;;;;;;;;35.63;KJFK 181051Z 25010KT 8SM FEW060 BKN110 06/04 A2969 RMK AO2 SLP054 T00560044;JFK;
LGA;18.01.2023;10:51;18.01.2023 10:51;45.00;36.00;70.53;210.00;7.00;0.00;29.67;1004.80;10.00;;FEW;BKN;;;6000.00;12000.00;;;;;;;;;;40.63;KLGA 181051Z 21007KT 10SM FEW060 BKN120 07/02 A2967 RMK AO2 SLP048 T00720022;LGA;
LGA;18.01.2023;11:51;18.01.2023 11:51;49.00;38.00;65.62;280.00;12.00;0.00;29.70;1005.70;10.00;;BKN;BKN;;;5000.00;12000.00;;;;;;;;;;43.51;KLGA 181151Z 28012KT 10SM BKN050 BKN120 09/03 A2970 RMK AO2 SLP057 60004 70004 T00940033 10094 20061 53021;LGA;
JFK;18.01.2023;11:51;18.01.2023 11:51;43.00;40.00;88.71;260.00;10.00;0.00;29.72;1006.30;9.00;;FEW;BKN;;;6000.00;11000.00;;;;;;;;;;36.76;KJFK 181151Z 26010KT 9SM FEW060 BKN110 06/04 A2972 RMK AO2 SLP063 60000 T00610044 10061 20028 53020;JFK;
JFK;18.01.2023;12:51;18.01.2023 12:51;45.00;40.00;82.19;270.00;8.00;0.00;29.74;1007.00;9.00;;FEW;FEW;BKN;;6000.00;8500.00;12000.00;;;;;;;;;40.13;KJFK 181251Z 27008KT 9SM FEW060 FEW085 BKN120 07/04 A2974 RMK AO2 SLP070 T00720044;JFK;
LGA;18.01.2023;12:51;18.01.2023 12:51;48.00;38.00;67.87;290.00;10.00;0.00;29.73;1006.60;10.00;;BKN;BKN;;;4600.00;12000.00;;;;;;;;;;43.03;KLGA 181251Z 29010KT 10SM BKN046 BKN120 09/03 A2973 RMK AO2 SLP066 T00890033;LGA;
JFK;18.01.2023;13:51;18.01.2023 13:51;48.00;40.00;73.38;280.00;10.00;0.00;29.77;1008.00;10.00;;FEW;BKN;;;6500.00;11000.00;;;;;;;;;;43.03;KJFK 181351Z 28010KT 10SM FEW065 BKN110 09/04 A2977 RMK AO2 SLP080 T00890044;JFK;
LGA;18.01.2023;13:51;18.01.2023 13:51;49.00;38.00;65.62;290.00;11.00;0.00;29.76;1007.70;10.00;;FEW;SCT;BKN;;3100.00;5500.00;11000.00;;;;;;;;;43.82;KLGA 181351Z 29011KT 10SM FEW031 SCT055 BKN110 09/03 A2976 RMK AO2 SLP077 T00940033;LGA;
LGA;18.01.2023;14:51;18.01.2023 14:51;48.00;38.00;67.87;310.00;8.00;0.00;29.78;1008.40;10.00;;FEW;SCT;BKN;;2900.00;5500.00;11000.00;;;;;;;;;43.82;KLGA 181451Z 31008KT 10SM FEW029 SCT055 BKN110 09/03 A2978 RMK AO2 SLP084 T00890033 51027;LGA;
JFK;18.01.2023;14:51;18.01.2023 14:51;51.00;41.00;68.23;290.00;15.00;0.00;29.79;1008.70;10.00;;SCT;BKN;BKN;;3200.00;11000.00;25000.00;;;;;;;;;51.10;KJFK 181451Z 29015KT 10SM SCT032 BKN110 BKN250 11/05 A2979 RMK AO2 SLP087 T01060050 51024;JFK;
JFK;18.01.2023;15:51;18.01.2023 15:51;51.00;38.00;60.46;290.00;16.00;0.00;29.80;1009.00;10.00;;BKN;BKN;;;3600.00;11000.00;;;;;;;;;;51.10;KJFK 181551Z 29016KT 10SM BKN036 BKN110 11/03 A2980 RMK AO2 SLP090 T01060033;JFK;
LGA;18.01.2023;15:51;18.01.2023 15:51;49.00;36.00;60.88;320.00;15.00;0.00;29.79;1008.90;10.00;21.00;BKN;BKN;;;3500.00;11000.00;;;;;;;;;;42.69;KLGA 181551Z 32015G21KT 10SM BKN035 BKN110 09/02 A2979 RMK AO2 SLP089 T00940022;LGA;
LGA;18.01.2023;16:51;18.01.2023 16:51;50.00;34.00;53.97;310.00;26.00;0.00;29.78;1008.40;10.00;32.00;SCT;SCT;;;4100.00;11000.00;;;;;;;32.00;300.00;2023-01-18 16:48;50.00;KLGA 181651Z 31026G32KT 10SM SCT041 SCT110 10/01 A2978 RMK AO2 PK WND 30032/1648 SLP084 T01000011;LGA;
JFK;18.01.2023;16:51;18.01.2023 16:51;54.00;36.00;50.42;310.00;17.00;0.00;29.78;1008.40;10.00;25.00;SCT;BKN;;;4100.00;7500.00;;;;;;;26.00;290.00;2023-01-18 16:40;54.00;KJFK 181651Z 31017G25KT 10SM SCT041 BKN075 12/02 A2978 RMK AO2 PK WND 29026/1640 SLP084 T01220022;JFK;
LGA;18.01.2023;17:51;18.01.2023 17:51;50.00;33.00;52.06;310.00;16.00;0.00;29.77;1007.90;10.00;22.00;SCT;SCT;;;4300.00;11000.00;;;;;;;32.00;310.00;2023-01-18 17:01;50.00;KLGA 181751Z 31016G22KT 10SM SCT043 SCT110 10/01 A2977 RMK AO2 PK WND 31032/1701 SLP079 T01000006 10106 20089 58004;LGA;
JFK;18.01.2023;17:51;18.01.2023 17:51;54.00;35.00;48.65;300.00;16.00;0.00;29.77;1008.10;10.00;;BKN;BKN;BKN;;4300.00;7500.00;25000.00;;;;;;28.00;320.00;2023-01-18 17:29;54.00;KJFK 181751Z 30016KT 10SM BKN043 BKN075 BKN250 12/02 A2977 RMK AO2 PK WND 32028/1729 SLP081 T01220017 10128 20061 58007;JFK;
LGA;18.01.2023;18:51;18.01.2023 18:51;51.00;32.00;47.81;310.00;22.00;0.00;29.77;1008.20;10.00;31.00;SCT;;;;4200.00;;;;;;;;31.00;310.00;2023-01-18 18:44;51.10;KLGA 181851Z 31022G31KT 10SM SCT042 11/00 A2977 RMK AO2 PK WND 31031/1844 SLP082 T01060000;LGA;
JFK;18.01.2023;18:51;18.01.2023 18:51;52.00;34.00;50.12;310.00;16.00;0.00;29.79;1008.70;10.00;;BKN;BKN;;;4500.00;22000.00;;;;;;;27.00;330.00;2023-01-18 18:39;52.00;KJFK 181851Z 31016KT 10SM BKN045 BKN220 11/01 A2979 RMK AO2 PK WND 33027/1839 SLP087 T01110011;JFK;
JFK;18.01.2023;19:51;18.01.2023 19:51;53.00;34.00;48.13;300.00;15.00;0.00;29.81;1009.50;10.00;24.00;SCT;;;;4800.00;;;;;;;;27.00;320.00;2023-01-18 19:16;53.10;KJFK 181951Z 30015G24KT 10SM SCT048 12/01 A2981 RMK AO2 PK WND 32027/1916 SLP095 T01170011;JFK;
LGA;18.01.2023;19:51;18.01.2023 19:51;51.00;32.00;47.81;300.00;17.00;0.00;29.80;1009.20;10.00;22.00;SCT;SCT;SCT;;4600.00;8000.00;18000.00;;;;;;27.00;310.00;2023-01-18 19:04;51.10;KLGA 181951Z 30017G22KT 10SM SCT046 SCT080 SCT180 11/00 A2980 RMK AO2 PK WND 31027/1904 SLP092 T01060000;LGA;
LGA;18.01.2023;20:51;18.01.2023 20:51;51.00;32.00;47.81;310.00;16.00;0.00;29.84;1010.40;10.00;;SCT;SCT;SCT;;4500.00;8500.00;16000.00;;;;;;;;;51.10;KLGA 182051Z 31016KT 10SM SCT045 SCT085 SCT160 11/00 A2984 RMK AO2 SLP104 T01060000 53025;LGA;
JFK;18.01.2023;20:51;18.01.2023 20:51;53.00;34.00;48.13;300.00;18.00;0.00;29.85;1010.60;10.00;25.00;SCT;SCT;;;4800.00;6500.00;;;;;;;;;;53.10;KJFK 182051Z 30018G25KT 10SM SCT048 SCT065 12/01 A2985 RMK AO2 SLP106 T01170011 53026;JFK;
LGA;18.01.2023;21:51;18.01.2023 21:51;50.00;32.00;49.81;310.00;14.00;0.00;29.87;1011.40;10.00;;SCT;SCT;SCT;;4300.00;8500.00;18000.00;;;;;;26.00;310.00;2023-01-18 21:04;50.00;KLGA 182151Z 31014KT 10SM SCT043 SCT085 SCT180 10/00 A2987 RMK AO2 PK WND 31026/2104 SLP114 T01000000;LGA;
JFK;18.01.2023;21:51;18.01.2023 21:51;51.00;34.00;51.81;300.00;16.00;0.00;29.88;1011.80;10.00;22.00;FEW;FEW;FEW;;4900.00;6500.00;25000.00;;;;;;;;;51.10;KJFK 182151Z 30016G22KT 10SM FEW049 FEW065 FEW250 11/01 A2988 RMK AO2 SLP118 T01060011;JFK;
LGA;18.01.2023;22:51;18.01.2023 22:51;49.00;32.00;51.89;310.00;16.00;0.00;29.90;1012.40;10.00;;FEW;FEW;SCT;;4300.00;8500.00;25000.00;;;;;;;;;42.45;KLGA 182251Z 31016KT 10SM FEW043 FEW085 SCT250 09/00 A2990 RMK AO2 SLP124 T00940000;LGA;
JFK;18.01.2023;22:51;18.01.2023 22:51;49.00;33.00;54.24;320.00;14.00;0.00;29.91;1012.70;10.00;;FEW;FEW;FEW;;4900.00;6500.00;25000.00;;;;;;;;;42.95;KJFK 182251Z 32014KT 10SM FEW049 FEW065 FEW250 09/01 A2991 RMK AO2 SLP127 T00940006;JFK;
LGA;18.01.2023;23:51;18.01.2023 23:51;49.00;32.00;51.89;300.00;11.00;0.00;29.93;1013.50;10.00;;FEW;SCT;SCT;;4500.00;8500.00;25000.00;;;;;;;;;43.82;KLGA 182351Z 30011KT 10SM FEW045 SCT085 SCT250 09/00 A2993 RMK AO2 SLP135 T00940000 10111 20089 53031;LGA;
JFK;18.01.2023;23:51;18.01.2023 23:51;49.00;34.00;56.23;290.00;16.00;0.00;29.94;1013.90;10.00;21.00;FEW;FEW;;;5000.00;6500.00;;;;;;;;;;42.45;KJFK 182351Z 29016G21KT 10SM FEW050 FEW065 09/01 A2994 RMK AO2 SLP139 T00940011 10133 20094 53033;JFK;
JFK;19.01.2023;0:51;19.01.2023 00:51;49.00;33.00;54.24;310.00;21.00;0.00;29.97;1014.80;10.00;26.00;FEW;FEW;SCT;;5000.00;6500.00;25000.00;;;;;;27.00;300.00;2023-01-19 00:21;41.39;KJFK 190051Z 31021G26KT 10SM FEW050 FEW065 SCT250 09/01 A2997 RMK AO2 PK WND 30027/0021 SLP148 T00940006;JFK;
LGA;19.01.2023;0:51;19.01.2023 00:51;48.00;32.00;53.67;320.00;17.00;0.00;29.95;1014.30;10.00;25.00;SCT;SCT;SCT;;4000.00;9000.00;25000.00;;;;;;;;;41.04;KLGA 190051Z 32017G25KT 10SM SCT040 SCT090 SCT250 09/00 A2995 RMK AO2 SLP143 T00890000;LGA;
LGA;19.01.2023;1:51;19.01.2023 01:51;47.00;32.00;55.94;300.00;13.00;0.00;29.96;1014.60;10.00;;FEW;SCT;SCT;;4000.00;9000.00;25000.00;;;;;;;;;40.66;KLGA 190151Z 30013KT 10SM FEW040 SCT090 SCT250 08/00 A2996 RMK AO2 SLP146 T00830000;LGA;
JFK;19.01.2023;1:51;19.01.2023 01:51;47.00;33.00;58.47;310.00;12.00;0.00;29.97;1014.90;10.00;;FEW;FEW;SCT;;5000.00;7000.00;25000.00;;;;;;;;;40.97;KJFK 190151Z 31012KT 10SM FEW050 FEW070 SCT250 08/01 A2997 RMK AO2 SLP149 T00830006;JFK;
LGA;19.01.2023;2:51;19.01.2023 02:51;46.00;32.00;57.87;330.00;8.00;0.00;29.99;1015.40;10.00;;SCT;SCT;;;4000.00;9000.00;;;;;;;;;;41.36;KLGA 190251Z 33008KT 10SM SCT040 SCT090 08/00 A2999 RMK AO2 SLP154 T00780000 53019;LGA;
JFK;19.01.2023;2:51;19.01.2023 02:51;46.00;33.00;60.49;320.00;10.00;0.00;30.00;1015.80;10.00;;FEW;SCT;;;4000.00;25000.00;;;;;;;;;;40.52;KJFK 190251Z 32010KT 10SM FEW040 SCT250 08/01 A3000 RMK AO2 SLP158 T00780006 52019;JFK;
JFK;19.01.2023;3:51;19.01.2023 03:51;44.00;33.00;65.02;320.00;8.00;0.00;30.01;1016.10;10.00;;FEW;FEW;;;4000.00;25000.00;;;;;;;;;;39.02;KJFK 190351Z 32008KT 10SM FEW040 FEW250 07/01 A3001 RMK AO2 SLP161 T00670006;JFK;
LGA;19.01.2023;3:51;19.01.2023 03:51;46.00;30.90;55.36;330.00;9.00;0.00;29.99;1015.60;10.00;;FEW;FEW;FEW;;4000.00;9000.00;25000.00;;;;;;;;;40.92;KLGA 190351Z 33009KT 10SM FEW040 FEW090 FEW250 08/M01 A2999 RMK AO2 SLP156 T00781006;LGA;
JFK;19.01.2023;4:51;19.01.2023 04:51;42.00;33.00;70.20;340.00;8.00;0.00;30.00;1016.00;10.00;;FEW;FEW;;;4000.00;25000.00;;;;;;;;;;36.55;KJFK 190451Z 34008KT 10SM FEW040 FEW250 06/01 A3000 RMK AO2 SLP160 T00560006 401330028;JFK;
LGA;19.01.2023;4:51;19.01.2023 04:51;45.00;30.90;57.50;330.00;9.00;0.00;29.99;1015.60;10.00;;FEW;FEW;;;3500.00;25000.00;;;;;;;;;;39.68;KLGA 190451Z 33009KT 10SM FEW035 FEW250 07/M01 A2999 RMK AO2 SLP156 T00721006 401110061;LGA;
LGA;19.01.2023;5:51;19.01.2023 05:51;44.00;30.90;59.50;310.00;7.00;0.00;30.00;1015.80;10.00;;FEW;BKN;;;3500.00;25000.00;;;;;;;;;;39.53;KLGA 190551Z 31007KT 10SM FEW035 BKN250 07/M01 A3000 RMK AO2 SLP158 T00671006 10094 20067 52003;LGA;
JFK;19.01.2023;5:51;19.01.2023 05:51;43.00;33.00;67.82;310.00;12.00;0.00;30.01;1016.00;10.00;;FEW;SCT;;;4000.00;25000.00;;;;;;;;;;36.00;KJFK 190551Z 31012KT 10SM FEW040 SCT250 06/01 A3001 RMK AO2 SLP160 T00610006 10094 20056 51002;JFK;
LGA;19.01.2023;6:51;19.01.2023 06:51;44.00;30.90;59.50;300.00;6.00;0.00;30.00;1015.90;10.00;;FEW;BKN;;;3500.00;25000.00;;;;;;;;;;40.10;KLGA 190651Z 30006KT 10SM FEW035 BKN250 07/M01 A3000 RMK AO2 SLP159 T00671006;LGA;
JFK;19.01.2023;6:51;19.01.2023 06:51;43.00;33.00;67.82;300.00;9.00;0.00;30.02;1016.30;10.00;;BKN;;;;25000.00;;;;;;;;;;;37.19;KJFK 190651Z 30009KT 10SM BKN250 06/01 A3002 RMK AO2 SLP163 T00610006;JFK;
LGA;19.01.2023;7:51;19.01.2023 07:51;44.00;30.90;59.50;300.00;10.00;0.00;30.03;1016.70;10.00;18.00;FEW;BKN;;;4000.00;25000.00;;;;;;;;;;38.14;KLGA 190751Z 30010G18KT 10SM FEW040 BKN250 07/M01 A3003 RMK AO2 SLP167 T00671006;LGA;
JFK;19.01.2023;7:51;19.01.2023 07:51;43.00;33.00;67.82;300.00;7.00;0.00;30.04;1017.00;10.00;;BKN;;;;25000.00;;;;;;;;;;;38.19;KJFK 190751Z 30007KT 10SM BKN250 06/01 A3004 RMK AO2 SLP170 T00610006;JFK;
JFK;19.01.2023;8:51;19.01.2023 08:51;42.00;33.00;70.20;270.00;4.00;0.00;30.02;1016.70;10.00;;BKN;;;;25000.00;;;;;;;;;;;39.21;KJFK 190851Z 27004KT 10SM BKN250 06/01 A3002 RMK AO2 SLP167 T00560006 50006;JFK;
LGA;19.01.2023;8:51;19.01.2023 08:51;43.00;30.90;62.06;300.00;6.00;0.00;30.01;1016.20;10.00;;FEW;BKN;;;4000.00;25000.00;;;;;;;;;;38.78;KLGA 190851Z 30006KT 10SM FEW040 BKN250 06/M01 A3001 RMK AO2 SLP162 T00611006 50004;LGA;
JFK;19.01.2023;9:51;19.01.2023 09:51;40.00;34.00;79.25;0.00;0.00;0.00;30.03;1016.70;10.00;;FEW;BKN;;;4000.00;25000.00;;;;;;;;;;39.90;KJFK 190951Z 00000KT 10SM FEW040 BKN250 04/01 A3003 RMK AO2 SLP167 T00440011 $;JFK;
LGA;19.01.2023;9:51;19.01.2023 09:51;42.00;30.90;64.24;300.00;8.00;0.00;30.01;1016.30;10.00;;OVC;;;;25000.00;;;;;;;;;;;36.55;KLGA 190951Z 30008KT 10SM OVC250 06/M01 A3001 RMK AO2 SLP163 T00561006;LGA;
LGA;19.01.2023;10:51;19.01.2023 10:51;43.00;30.90;62.06;320.00;7.00;0.00;30.03;1016.80;10.00;;OVC;;;;20000.00;;;;;;;;;;;38.19;KLGA 191051Z 32007KT 10SM OVC200 06/M01 A3003 RMK AO2 SLP168 T00611006;LGA;
JFK;19.01.2023;10:51;19.01.2023 10:51;41.00;33.00;73.25;320.00;4.00;0.00;30.05;1017.40;10.00;;OVC;;;;20000.00;;;;;;;;;;;37.93;KJFK 191051Z COR 32004KT 10SM OVC200 05/01 A3005 RMK AO2 SLP174 T00500006 $;JFK;
JFK;19.01.2023;11:51;19.01.2023 11:51;41.00;33.00;73.25;330.00;4.00;0.00;30.06;1017.80;10.00;;FEW;OVC;;;7000.00;16000.00;;;;;;;;;;37.93;KJFK 191151Z 33004KT 10SM FEW070 OVC160 05/01 A3006 RMK SLP178 T00500006 10061 20028 53012;JFK;
LGA;19.01.2023;11:51;19.01.2023 11:51;43.00;30.90;62.06;330.00;5.00;0.00;30.05;1017.40;10.00;;FEW;OVC;;;5000.00;15000.00;;;;;;;;;;39.46;KLGA 191151Z 33005KT 10SM FEW050 OVC150 06/M01 A3005 RMK AO2 SLP174 T00611006 10067 20056 53013;LGA;
JFK;19.01.2023;12:51;19.01.2023 12:51;42.00;34.00;72.78;60.00;3.00;0.00;30.05;1017.70;10.00;;FEW;BKN;OVC;;7000.00;11000.00;15000.00;;;;;;;;;40.23;KJFK 191251Z 06003KT 10SM FEW070 BKN110 OVC150 06/01 A3005 RMK AO2 SLP177 T00560011 $;JFK;
LGA;19.01.2023;12:51;19.01.2023 12:51;43.00;32.00;64.88;330.00;3.00;0.00;30.04;1017.20;10.00;;FEW;BKN;OVC;;5000.00;11000.00;15000.00;;;;;;;;;41.26;KLGA 191251Z 33003KT 10SM FEW050 BKN110 OVC150 06/00 A3004 RMK AO2 SLP172 T00610000;LGA;
LGA;19.01.2023;13:05;19.01.2023 13:05;42.80;32.00;65.38;0.00;0.00;0.00;30.04;;10.00;;FEW;BKN;OVC;;5000.00;11000.00;15000.00;;;;;;;;;42.80;KLGA 191305Z 00000KT 10SM FEW050 BKN110 OVC150 06/00 A3004;LGA;
LGA;19.01.2023;13:51;19.01.2023 13:51;44.00;32.00;62.21;70.00;5.00;T;30.04;1017.30;10.00;;FEW;BKN;OVC;;5000.00;8500.00;11000.00;;-RA;;;;;;;40.77;KLGA 191351Z 07005KT 10SM -RA FEW050 BKN085 OVC110 07/00 A3004 RMK AO2 RAB14 SLP173 P0000 T00670000 $;LGA;
JFK;19.01.2023;13:51;19.01.2023 13:51;42.00;37.00;81.98;60.00;3.00;T;30.06;1017.70;10.00;;FEW;BKN;OVC;;3700.00;8500.00;13000.00;;-RA;;;;;;;40.23;KJFK 191351Z 06003KT 10SM -RA FEW037 BKN085 OVC130 06/03 A3006 RMK AO2 RAB16 SLP177 P0000 T00560028 $;JFK;
LGA;19.01.2023;14:51;19.01.2023 14:51;42.00;33.00;70.20;60.00;7.00;0.03;30.02;1016.60;7.00;;FEW;BKN;OVC;;4000.00;6000.00;13000.00;;-RA;;;;;;;37.09;KLGA 191451Z 06007KT 7SM -RA FEW040 BKN060 OVC130 06/01 A3002 RMK AO2 SLP166 P0003 60003 T00560006 58008 $;LGA;
JFK;19.01.2023;14:51;19.01.2023 14:51;41.00;38.00;88.62;50.00;10.00;0.03;30.02;1016.40;7.00;;FEW;BKN;OVC;;3200.00;7000.00;12000.00;;-RA;;;;;;;34.25;KJFK 191451Z 05010KT 7SM -RA FEW032 BKN070 OVC120 05/03 A3002 RMK AO2 PRESFR SLP164 P0003 60003 T00500033 58015 $;JFK;
JFK;19.01.2023;15:51;19.01.2023 15:51;40.00;39.00;96.55;170.00;7.00;0.05;30.04;1017.00;7.00;;FEW;OVC;;;3000.00;8000.00;;;-RA;;;;;;;34.41;KJFK 191551Z 17007KT 7SM -RA FEW030 OVC080 04/04 A3004 RMK AO2 SLP170 P0005 T00440039 $;JFK;
LGA;19.01.2023;15:51;19.01.2023 15:51;41.00;34.00;75.94;140.00;6.00;0.07;30.01;1016.30;6.00;;FEW;SCT;OVC;;3500.00;5500.00;8000.00;;-RA;;;;;;;36.37;KLGA 191551Z 14006KT 6SM -RA FEW035 SCT055 OVC080 05/01 A3001 RMK AO2 SLP163 P0007 T00500011 $;LGA;
JFK;19.01.2023;16:28;19.01.2023 16:28;40.00;38.00;92.48;160.00;6.00;0.03;30.02;;8.00;;BKN;OVC;;;2800.00;9000.00;;;-RA;;;;;;;35.04;KJFK 191628Z 16006KT 8SM -RA BKN028 OVC090 04/03 A3002 RMK AO2 P0003 T00440033 $;JFK;
LGA;19.01.2023;16:32;19.01.2023 16:32;42.00;36.00;78.80;150.00;6.00;0.04;30.00;;8.00;;SCT;BKN;OVC;;2200.00;2700.00;9000.00;;-RA;;;;;;;37.69;KLGA 191632Z 15006KT 8SM -RA SCT022 BKN027 OVC090 06/02 A3000 RMK AO2 P0004 T00560022 $;LGA;
LGA;19.01.2023;16:51;19.01.2023 16:51;41.00;36.00;82.22;160.00;5.00;0.05;29.98;1015.10;9.00;;SCT;BKN;OVC;;1000.00;2200.00;2700.00;;-RA;;;;;;;37.08;KLGA 191651Z 16005KT 9SM -RA SCT010 BKN022 OVC027 05/02 A2998 RMK AO2 PRESFR SLP151 P0005 T00500022 $;LGA;
JFK;19.01.2023;16:51;19.01.2023 16:51;40.00;38.00;92.48;150.00;6.00;0.04;29.99;1015.50;8.00;;FEW;BKN;OVC;;2000.00;2900.00;6500.00;;-RA;;;;;;;35.04;KJFK 191651Z 15006KT 8SM -RA FEW020 BKN029 OVC065 04/03 A2999 RMK AO2 PRESFR SLP155 P0004 T00440033 $;JFK;
LGA;19.01.2023;16:59;19.01.2023 16:59;42.00;36.00;78.80;;5.00;T;29.97;;7.00;;BKN;OVC;;;1200.00;2900.00;;;-RA;;;;;;;38.39;KLGA 191659Z VRB05KT 7SM -RA BKN012 OVC029 06/02 A2997 RMK AO2 PRESFR P0000 T00560022 $;LGA;
LGA;19.01.2023;17:29;19.01.2023 17:29;42.00;36.00;78.80;140.00;7.00;0.03;29.94;;5.00;;SCT;BKN;OVC;;1300.00;2900.00;5500.00;;-RA;;;;;;;37.09;KLGA 191729Z 14007KT 5SM -RA SCT013 BKN029 OVC055 06/02 A2994 RMK AO2 P0003 T00560022 $;LGA;
LGA;19.01.2023;17:47;19.01.2023 17:47;41.00;35.60;80.93;110.00;8.00;0.04;29.92;;5.00;;SCT;BKN;OVC;;900.00;2900.00;5500.00;;-RA;;;;;;;35.20;KLGA 191747Z 11008KT 5SM -RA SCT009 BKN029 OVC055 05/02 A2992 RMK AO2 P0004 $;LGA;
LGA;19.01.2023;17:51;19.01.2023 17:51;41.00;36.00;82.22;100.00;8.00;0.05;29.92;1013.10;5.00;;SCT;BKN;OVC;;900.00;2900.00;5500.00;;-RA;;;;;;;35.20;KLGA 191751Z 10008KT 5SM -RA SCT009 BKN029 OVC055 05/02 A2992 RMK AO2 SLP131 P0005 60020 T00500022 10067 20050 58035 $;LGA;
JFK;19.01.2023;17:51;19.01.2023 17:51;40.00;40.00;100.00;100.00;7.00;0.06;29.93;1013.60;6.00;;FEW;BKN;OVC;;800.00;2600.00;6000.00;;-RA BR;;;;;;;34.41;KJFK 191751Z 10007KT 6SM -RA BR FEW008 BKN026 OVC060 04/04 A2993 RMK AO2 SLP136 P0006 60018 T00440044 10061 20044 58027 $;JFK;
JFK;19.01.2023;18:25;19.01.2023 18:25;40.00;40.00;100.00;110.00;6.00;0.02;29.92;;6.00;;BKN;BKN;OVC;;700.00;2800.00;4800.00;;-RA BR;;;;;;;35.04;KJFK 191825Z 11006KT 6SM -RA BR BKN007 BKN028 OVC048 04/04 A2992 RMK AO2 CIG 005V010 P0002 T00440044 $;JFK;
LGA;19.01.2023;18:42;19.01.2023 18:42;41.00;36.00;82.22;110.00;8.00;0.04;29.89;;3.00;;BKN;OVC;;;900.00;2400.00;;;-RA;;;;;;;35.20;KLGA 191842Z 11008KT 3SM -RA BKN009 OVC024 05/02 A2989 RMK AO2 P0004 T00500022 $;LGA;
LGA;19.01.2023;18:51;19.01.2023 18:51;41.00;36.00;82.22;100.00;7.00;0.04;29.88;1011.90;4.00;17.00;BKN;BKN;OVC;;900.00;1600.00;2400.00;;-RA;;;;;;;35.75;KLGA 191851Z 10007G17KT 4SM -RA BKN009 BKN016 OVC024 05/02 A2988 RMK AO2 SLP119 P0004 T00500022 $;LGA;
JFK;19.01.2023;18:51;19.01.2023 18:51;40.00;40.00;100.00;110.00;7.00;0.03;29.89;1012.30;7.00;;BKN;OVC;;;700.00;4300.00;;;-RA;;;;;;;34.41;KJFK 191851Z 11007KT 7SM -RA BKN007 OVC043 04/04 A2989 RMK AO2 SLP123 P0003 T00440044 $;JFK;
LGA;19.01.2023;19:51;19.01.2023 19:51;41.00;37.00;85.54;50.00;7.00;0.01;29.88;1011.70;2.00;;OVC;;;;700.00;;;;RA BR;;;;;;;35.75;KLGA 191951Z 05007KT 2SM RA BR OVC007 05/03 A2988 RMK AO2 SFC VIS 2 1/2 RAE1855B48 SLP117 P0001 T00500028 $;LGA;
JFK;19.01.2023;19:51;19.01.2023 19:51;41.00;41.00;100.00;90.00;9.00;0.01;29.88;1011.60;4.00;;OVC;;;;500.00;;;;-RA BR;;;;;;;34.70;KJFK 191951Z 09009KT 4SM -RA BR OVC005 05/05 A2988 RMK AO2 RAE1854B28 SLP116 P0001 T00500050 $;JFK;
LGA;19.01.2023;20:19;19.01.2023 20:19;40.00;36.00;85.81;40.00;7.00;0.09;29.88;;2.00;;OVC;;;;600.00;;;;RA BR;;;;;;;34.41;KLGA 192019Z 04007KT 2SM RA BR OVC006 04/02 A2988 RMK AO2 P0009 T00440022 $;LGA;
LGA;19.01.2023;20:30;19.01.2023 20:30;40.00;36.00;85.81;50.00;8.00;0.12;29.88;;2.00;;BKN;OVC;;;700.00;1100.00;;;RA BR;;;;;;;33.84;KLGA 192030Z 05008KT 2SM RA BR BKN007 OVC011 04/02 A2988 RMK AO2 P0012 T00440022 $;LGA;
LGA;19.01.2023;20:51;19.01.2023 20:51;41.00;37.00;85.54;50.00;11.00;0.19;29.87;1011.50;2.00;;FEW;BKN;OVC;;400.00;900.00;1700.00;;RA BR;;;;;;;33.84;KLGA 192051Z 05011KT 2SM RA BR FEW004 BKN009 OVC017 05/03 A2987 RMK AO2 SFC VIS 3 SLP115 P0019 60024 T00500028 56017 $;LGA;
JFK;19.01.2023;20:51;19.01.2023 20:51;40.00;40.00;100.00;40.00;9.00;0.17;29.88;1011.60;4.00;;BKN;OVC;;;600.00;1600.00;;;RA BR;;;;;;;33.34;KJFK 192051Z 04009KT 4SM RA BR BKN006 OVC016 04/04 A2988 RMK AO2 SLP116 P0017 60021 T00440044 55020 $;JFK;
LGA;19.01.2023;21:09;19.01.2023 21:09;40.00;37.00;89.27;60.00;12.00;0.02;29.85;;2.50;;BKN;BKN;OVC;;400.00;900.00;1900.00;;-RA BR;;;;;;;32.06;KLGA 192109Z 06012KT 2 1/2SM -RA BR BKN004 BKN009 OVC019 04/03 A2985 RMK AO2 SFC VIS 3 PRESFR P0002 T00440028 $;LGA;
LGA;19.01.2023;21:48;19.01.2023 21:48;39.20;37.40;93.19;80.00;9.00;0.04;29.82;;2.50;;BKN;OVC;;;500.00;1100.00;;;-RA BR;;;;;;;32.47;KLGA 192148Z 08009KT 2 1/2SM -RA BR BKN005 OVC011 04/03 A2982 RMK AO2 SFC VIS 5 P0004 $;LGA;
JFK;19.01.2023;21:51;19.01.2023 21:51;40.00;40.00;100.00;60.00;11.00;0.08;29.82;1009.80;5.00;;BKN;BKN;OVC;;600.00;1700.00;3500.00;;RA BR;;;;;;;32.45;KJFK 192151Z 06011KT 5SM RA BR BKN006 BKN017 OVC035 04/04 A2982 RMK AO2 SLP098 P0008 T00440044 $;JFK;
LGA;19.01.2023;21:51;19.01.2023 21:51;40.00;37.00;89.27;80.00;10.00;0.04;29.81;1009.50;2.50;;BKN;OVC;;;500.00;1100.00;;;-RA BR;;;;;;;32.87;KLGA 192151Z 08010KT 2 1/2SM -RA BR BKN005 OVC011 04/03 A2981 RMK AO2 SFC VIS 5 SLP095 P0004 T00440028 $;LGA;
LGA;19.01.2023;22:11;19.01.2023 22:11;40.00;37.00;89.27;90.00;11.00;0.01;29.79;;2.50;;OVC;;;;600.00;;;;-RA BR;;;;;;;32.45;KLGA 192211Z 09011KT 2 1/2SM -RA BR OVC006 04/03 A2979 RMK AO2 SFC VIS 5 P0001 T00440028;LGA;
JFK;19.01.2023;22:51;19.01.2023 22:51;41.00;40.00;95.82;80.00;10.00;0.08;29.77;1008.00;8.00;;BKN;OVC;;;600.00;2100.00;;;-RA;;;;;;;34.25;KJFK 192251Z 08010KT 8SM -RA BKN006 OVC021 05/04 A2977 RMK AO2 SLP080 P0008 T00500044;JFK;
LGA;19.01.2023;22:51;19.01.2023 22:51;41.00;37.00;85.54;60.00;7.00;0.03;29.76;1007.80;2.50;;OVC;;;;600.00;;;;-RA BR;;;;;;;35.75;KLGA 192251Z 06007KT 2 1/2SM -RA BR OVC006 05/03 A2976 RMK AO2 SFC VIS 4 SLP078 P0003 T00500028;LGA;
LGA;19.01.2023;23:20;19.01.2023 23:20;42.00;38.00;84.93;60.00;11.00;0.02;29.74;;2.50;;OVC;;;;500.00;;;;-RA BR;;;;;;;35.23;KLGA 192320Z 06011KT 2 1/2SM -RA BR OVC005 06/03 A2974 RMK AO2 SFC VIS 4 P0002 T00560033;LGA;
LGA;19.01.2023;23:51;19.01.2023 23:51;40.00;37.00;89.27;50.00;11.00;0.02;29.72;1006.40;2.50;;OVC;;;;400.00;;;;-RA BR;;;;;;;32.45;KLGA 192351Z 05011KT 2 1/2SM -RA BR OVC004 04/03 A2972 RMK AO2 SFC VIS 5 RAE31B48 SLP064 P0002 60033 T00440028 10056 20044 58033;LGA;
JFK;19.01.2023;23:51;19.01.2023 23:51;41.00;41.00;100.00;80.00;11.00;0.02;29.73;1006.50;10.00;;OVC;;;;600.00;;;;-RA;;;;;;;33.84;KJFK 192351Z 08011KT 10SM -RA OVC006 05/05 A2973 RMK AO2 SLP065 P0002 60039 T00500050 10050 20044 56051;JFK;
JFK;20.01.2023;0:43;20.01.2023 00:43;42.00;42.00;100.00;80.00;11.00;0.02;29.67;;3.00;;OVC;;;;400.00;;;;-RA BR;;;;;;;35.23;KJFK 200043Z 08011KT 3SM -RA BR OVC004 06/06 A2967 RMK AO2 PRESFR P0002 T00560056;JFK;
LGA;20.01.2023;0:51;20.01.2023 00:51;40.00;37.00;89.27;50.00;10.00;0.06;29.66;1004.40;2.50;;OVC;;;;400.00;;;;-RA BR;;;;;;;32.87;KLGA 200051Z 05010KT 2 1/2SM -RA BR OVC004 04/03 A2966 RMK AO2 SFC VIS 3 SLP044 P0006 T00440028;LGA;
JFK;20.01.2023;0:51;20.01.2023 00:51;43.00;43.00;100.00;80.00;12.00;0.02;29.66;1004.40;3.00;18.00;OVC;;;;400.00;;;;-RA BR;;;;;;;36.00;KJFK 200051Z 08012G18KT 3SM -RA BR OVC004 06/06 A2966 RMK AO2 SLP044 P0002 T00610061;JFK;
LGA;20.01.2023;1:20;20.01.2023 01:20;40.00;37.00;89.27;40.00;11.00;0.03;29.63;;2.00;;OVC;;;;500.00;;;;RA BR;;;;;;;32.45;KLGA 200120Z 04011KT 2SM RA BR OVC005 04/03 A2963 RMK AO2 SFC VIS 2 1/2 P0003 T00440028;LGA;
LGA;20.01.2023;1:33;20.01.2023 01:33;40.00;37.00;89.27;30.00;7.00;0.04;29.62;;2.00;;OVC;;;;400.00;;;;-RA BR;;;;;;;34.41;KLGA 200133Z 03007KT 2SM -RA BR OVC004 04/03 A2962 RMK AO2 SFC VIS 3 P0004 T00440028;LGA;
JFK;20.01.2023;1:33;20.01.2023 01:33;44.00;44.00;100.00;80.00;10.00;0.04;29.61;;5.00;;OVC;;;;500.00;;;;-RA BR;;;;;;;38.14;KJFK 200133Z 08010KT 5SM -RA BR OVC005 07/07 A2961 RMK AO2 PRESFR P0004 T00670067;JFK;
JFK;20.01.2023;1:51;20.01.2023 01:51;45.00;45.00;100.00;70.00;8.00;0.06;29.59;1002.10;5.00;;OVC;;;;500.00;;;;-RA BR;;;;;;;40.13;KJFK 200151Z 07008KT 5SM -RA BR OVC005 07/07 A2959 RMK AO2 SLP021 P0006 T00720072;JFK;
LGA;20.01.2023;1:51;20.01.2023 01:51;40.00;37.00;89.27;30.00;11.00;0.10;29.61;1002.50;2.00;;OVC;;;;400.00;;;;-RA BR;;;;;;;32.45;KLGA 200151Z 03011KT 2SM -RA BR OVC004 04/03 A2961 RMK AO2 SFC VIS 3 SLP025 P0010 T00440028;LGA;
LGA;20.01.2023;2:16;20.01.2023 02:16;41.00;38.00;88.62;20.00;11.00;0.02;29.59;;2.00;;BKN;OVC;;;400.00;800.00;;;-TSRA BR;;;;;;;33.84;KLGA 200216Z 02011KT 2SM -TSRA BR BKN004 OVC008CB 05/03 A2959 RMK AO2 SFC VIS 4 LTG DSNT SW AND W TSB16 OCNL LTGCCCG S-W TS S-W MOV NE P0002 T00500033;LGA;
JFK;20.01.2023;2:29;20.01.2023 02:29;45.00;45.00;100.00;360.00;10.00;0.02;29.59;;6.00;;BKN;OVC;;;500.00;1300.00;;;-TSRA BR;;;;;;;39.27;KJFK 200229Z 36010KT 6SM -TSRA BR BKN005 OVC013 07/07 A2959 RMK AO2 LTG DSNT SW-N TSB29 P0002 T00720072;JFK;
LGA;20.01.2023;2:29;20.01.2023 02:29;41.00;38.00;88.62;350.00;5.00;0.15;29.63;;1.50;;BKN;OVC;;;400.00;800.00;;;+TSRA BR;;;;;;;37.08;KLGA 200229Z 35005KT 1 1/2SM R04/2800VP6000FT +TSRA BR BKN004 OVC008CB 05/03 A2963 RMK AO2 TSB16 OCNL LTGCG OHD TS OHD MOV NE P0015 T00500033;LGA;
JFK;20.01.2023;2:46;20.01.2023 02:46;41.00;41.00;100.00;340.00;16.00;0.18;29.61;;5.00;28.00;BKN;OVC;;;500.00;1300.00;;;+RA BR;;;;28.00;320.00;2023-01-20 02:38;32.15;KJFK 200246Z 34016G28KT 5SM R04R/5000VP6000FT +RA BR BKN005 OVC013 05/05 A2961 RMK AO2 PK WND 32028/0238 LTG DSNT N AND NE TSB29E44 P0018;JFK;
LGA;20.01.2023;2:48;20.01.2023 02:48;41.00;37.40;86.89;330.00;8.00;0.30;29.63;;4.00;;BKN;BKN;OVC;;600.00;2600.00;4700.00;;+TSRA BR;;;;;;;35.20;KLGA 200248Z 33008KT 4SM +TSRA BR BKN006CB BKN026 OVC047 05/03 A2963 RMK AO2 LTG DSNT NE AND E TSB16 OCNL LTGCCCG NE-E TS NE-E MOV NE P0030;LGA;
LGA;20.01.2023;2:51;20.01.2023 02:51;42.00;39.00;88.67;350.00;10.00;0.31;29.63;1003.30;4.00;;BKN;BKN;OVC;;600.00;2600.00;4700.00;;TSRA BR;;;;;;;35.63;KLGA 200251Z 35010KT 4SM TSRA BR BKN006CB BKN026 OVC047 06/04 A2963 RMK AO2 LTG DSNT NE AND E TSB16 SLP033 OCNL LTGCCCG NE-E TS NE-E MOV NE P0031 60047 T00560039 55030;LGA;
JFK;20.01.2023;2:51;20.01.2023 02:51;41.00;41.00;100.00;350.00;17.00;0.24;29.60;1002.30;5.00;27.00;BKN;OVC;;;500.00;1300.00;;;+RA BR;;;;28.00;320.00;2023-01-20 02:38;31.87;KJFK 200251Z 35017G27KT 5SM R04R/5500VP6000FT +RA BR BKN005 OVC013 05/05 A2960 RMK AO2 PK WND 32028/0238 LTG DSNT N AND NE TSB29E44 SLP023 P0024 60032 T00500050 56021;JFK;
LGA;20.01.2023;2:55;20.01.2023 02:55;43.00;40.00;88.71;340.00;9.00;T;29.62;;5.00;;BKN;BKN;OVC;;600.00;2300.00;4700.00;;RA BR;;;;;;;37.19;KLGA 200255Z 34009KT 5SM RA BR BKN006 BKN023 OVC047 06/04 A2962 RMK AO2 LTG DSNT NE AND E TSE53 OCNL LTGCCCG DSNT NE-E CB DSNT NE-E P0000 T00610044;LGA;
LGA;20.01.2023;3:06;20.01.2023 03:06;41.00;38.00;88.62;340.00;8.00;0.03;29.63;;5.00;;SCT;BKN;OVC;;600.00;1300.00;8000.00;;RA BR;;;;;;;35.20;KLGA 200306Z 34008KT 5SM RA BR SCT006 BKN013 OVC080 05/03 A2963 RMK AO2 LTG DSNT E TSE0253 OCNL LTGCCCG DSNT NE-E CB DSNT NE-E P0003 T00500033;LGA;
LGA;20.01.2023;3:15;20.01.2023 03:15;41.00;38.00;88.62;360.00;9.00;0.04;29.62;;10.00;;SCT;BKN;OVC;;800.00;3600.00;8500.00;;-RA;;;;;;;34.70;KLGA 200315Z 36009KT 10SM -RA SCT008 BKN036 OVC085 05/03 A2962 RMK AO2 TSE0253 P0004 T00500033;LGA;
JFK;20.01.2023;3:39;20.01.2023 03:39;41.00;41.00;100.00;360.00;14.00;0.06;29.60;;10.00;;SCT;SCT;OVC;;500.00;4500.00;7000.00;;-RA;;;;;;;32.76;KJFK 200339Z 36014KT 10SM -RA SCT005 SCT045 OVC070 05/05 A2960 RMK AO2 P0006 T00500050;JFK;
JFK;20.01.2023;3:51;20.01.2023 03:51;41.00;41.00;100.00;40.00;14.00;0.06;29.54;1000.10;9.00;;SCT;SCT;OVC;;500.00;4900.00;7000.00;;-RA;;;;;;;32.76;KJFK 200351Z 04014KT 9SM -RA SCT005 SCT049 OVC070 05/05 A2954 RMK AO2 PRESFR SLP001 P0006 T00500050;JFK;
LGA;20.01.2023;3:51;20.01.2023 03:51;42.00;38.00;84.93;50.00;7.00;0.05;29.56;1001.10;10.00;;FEW;BKN;OVC;;800.00;7500.00;9000.00;;;;;;;;;37.09;KLGA 200351Z 05007KT 10SM FEW008 BKN075 OVC090 06/03 A2956 RMK AO2 RAE50 TSE0253 SLP011 P0005 T00560033;LGA;
LGA;20.01.2023;4:13;20.01.2023 04:13;42.00;38.00;84.93;40.00;9.00;0.00;29.57;;10.00;;BKN;OVC;;;800.00;9000.00;;;;;;;;;;36.07;KLGA 200413Z 04009KT 10SM BKN008 OVC090 06/03 A2957 RMK AO2 T00560033;LGA;
JFK;20.01.2023;4:51;20.01.2023 04:51;41.00;41.00;100.00;320.00;6.00;0.01;29.57;1001.20;10.00;;SCT;BKN;BKN;;500.00;12000.00;17000.00;;;;;;;;;36.37;KJFK 200451Z 32006KT 10SM SCT005 BKN120 BKN170 05/05 A2957 RMK AO2 RAE05 SLP012 P0001 T00500050 400720028;JFK;
LGA;20.01.2023;4:51;20.01.2023 04:51;43.00;39.00;85.66;340.00;6.00;0.00;29.57;1001.20;10.00;;OVC;;;;800.00;;;;;;;;;;;38.78;KLGA 200451Z 34006KT 10SM OVC008 06/04 A2957 RMK AO2 SLP012 T00610039 400720044;LGA;
JFK;20.01.2023;5:17;20.01.2023 05:17;42.00;41.00;95.84;320.00;8.00;0.00;29.57;;10.00;;BKN;OVC;;;600.00;12000.00;;;;;;;;;;36.55;KJFK 200517Z 32008KT 10SM BKN006 OVC120 06/05 A2957 RMK AO2 T00560050;JFK;
JFK;20.01.2023;5:51;20.01.2023 05:51;41.00;41.00;100.00;360.00;10.00;0.00;29.57;1001.40;10.00;;OVC;;;;600.00;;;;;;;;;;;34.25;KJFK 200551Z 36010KT 10SM OVC006 05/05 A2957 RMK AO2 SLP014 60039 T00500050 10072 20050 55009;JFK;
LGA;20.01.2023;5:51;20.01.2023 05:51;42.00;38.00;84.93;320.00;6.00;0.00;29.57;1001.10;10.00;;OVC;;;;800.00;;;;;;;;;;;37.69;KLGA 200551Z 32006KT 10SM OVC008 06/03 A2957 RMK AO2 SLP011 60052 T00560033 10067 20044 56022;LGA;
LGA;20.01.2023;6:40;20.01.2023 06:40;42.00;38.00;84.93;280.00;6.00;0.00;29.61;;10.00;;OVC;;;;1100.00;;;;;;;;;;;37.69;KLGA 200640Z 28006KT 10SM OVC011 06/03 A2961 RMK AO2 PRESRR T00560033;LGA;
JFK;20.01.2023;6:51;20.01.2023 06:51;42.00;41.00;95.84;290.00;9.00;0.00;29.63;1003.20;10.00;16.00;OVC;;;;600.00;;;;;;;;;;;36.07;KJFK 200651Z 29009G16KT 10SM OVC006 06/05 A2963 RMK AO2 SLP032 T00560050;JFK;
LGA;20.01.2023;6:51;20.01.2023 06:51;43.00;38.00;82.04;270.00;8.00;0.00;29.62;1002.80;10.00;;OVC;;;;1100.00;;;;;;;;;;;37.66;KLGA 200651Z 27008KT 10SM OVC011 06/03 A2962 RMK AO2 SLP028 T00610033;LGA;
JFK;20.01.2023;7:51;20.01.2023 07:51;42.00;41.00;95.84;310.00;6.00;0.00;29.61;1002.70;10.00;;OVC;;;;700.00;;;;;;;;;;;37.69;KJFK 200751Z 31006KT 10SM OVC007 06/05 A2961 RMK AO2 SLP027 T00560050;JFK;
LGA;20.01.2023;7:51;20.01.2023 07:51;42.00;38.00;84.93;290.00;3.00;0.01;29.61;1002.60;10.00;;OVC;;;;1100.00;;;;;;;;;;;40.23;KLGA 200751Z 29003KT 10SM OVC011 06/03 A2961 RMK AO2 RAB06E22 SLP026 P0001 T00560033;LGA;
LGA;20.01.2023;8:25;20.01.2023 08:25;42.00;38.00;84.93;0.00;0.00;0.00;29.59;;10.00;;BKN;;;;800.00;;;;;;;;;;;42.10;KLGA 200825Z 00000KT 10SM BKN008 06/03 A2959 RMK AO2 T00560033;LGA;
LGA;20.01.2023;8:51;20.01.2023 08:51;41.00;38.00;88.62;0.00;0.00;0.00;29.59;1002.10;10.00;;BKN;OVC;;;900.00;1500.00;;;;;;;;;;41.00;KLGA 200851Z 00000KT 10SM BKN009 OVC015 05/03 A2959 RMK AO2 SLP021 60001 T00500033 50009;LGA;
JFK;20.01.2023;8:51;20.01.2023 08:51;41.00;41.00;100.00;220.00;5.00;0.00;29.61;1002.80;9.00;;OVC;;;;800.00;;;;;;;;;;;37.08;KJFK 200851Z 22005KT 9SM OVC008 05/05 A2961 RMK AO2 SLP028 T00500050 51014;JFK;
LGA;20.01.2023;9:51;20.01.2023 09:51;41.00;37.00;85.54;290.00;5.00;0.00;29.61;1002.60;10.00;;BKN;BKN;;;900.00;1500.00;;;;;;;;;;37.08;KLGA 200951Z 29005KT 10SM BKN009 BKN015 05/03 A2961 RMK AO2 SLP026 T00500028;LGA;
JFK;20.01.2023;9:51;20.01.2023 09:51;41.00;40.00;95.82;270.00;9.00;0.00;29.62;1003.00;9.00;;OVC;;;;900.00;;;;;;;;;;;34.70;KJFK 200951Z 27009KT 9SM OVC009 05/04 A2962 RMK AO2 SLP030 T00500044;JFK;
LGA;20.01.2023;10:04;20.01.2023 10:04;41.00;37.00;85.54;300.00;5.00;0.00;29.61;;10.00;;SCT;SCT;SCT;;900.00;1100.00;1500.00;;;;;;;;;37.08;KLGA 201004Z 30005KT 10SM SCT009 SCT011 SCT015 05/03 A2961 RMK AO2 T00500028;LGA;
JFK;20.01.2023;10:35;20.01.2023 10:35;40.00;39.00;96.55;260.00;7.00;0.00;29.63;;10.00;;SCT;SCT;;;900.00;9000.00;;;;;;;;;;34.41;KJFK 201035Z 26007KT 10SM SCT009 SCT090 04/04 A2963 RMK AO2 T00440039;JFK;
LGA;20.01.2023;10:51;20.01.2023 10:51;41.00;37.00;85.54;270.00;4.00;0.00;29.61;1002.70;10.00;;FEW;SCT;SCT;;900.00;1100.00;8000.00;;;;;;;;;37.93;KLGA 201051Z 27004KT 10SM FEW009 SCT011 SCT080 05/03 A2961 RMK AO2 SLP027 T00500028;LGA;
JFK;20.01.2023;10:51;20.01.2023 10:51;40.00;39.00;96.55;260.00;9.00;0.00;29.63;1003.20;10.00;;SCT;;;;900.00;;;;;;;;;;;33.34;KJFK 201051Z 26009KT 10SM SCT009 04/04 A2963 RMK AO2 SLP032 T00440039;JFK;
JFK;20.01.2023;11:51;20.01.2023 11:51;40.00;38.00;92.48;270.00;8.00;0.00;29.63;1003.30;10.00;;FEW;FEW;FEW;;1400.00;6500.00;9000.00;;;;;;;;;33.84;KJFK 201151Z 27008KT 10SM FEW014 FEW065 FEW090 04/03 A2963 RMK AO2 SLP033 VIRGA E 70096 T00440033 10056 20039 51005;JFK;
LGA;20.01.2023;11:51;20.01.2023 11:51;41.00;37.00;85.54;270.00;7.00;0.00;29.62;1002.90;10.00;;FEW;SCT;;;900.00;8000.00;;;;;;;;;;35.75;KLGA 201151Z 27007KT 10SM FEW009 SCT080 05/03 A2962 RMK AO2 SLP029 60001 70106 T00500028 10061 20050 51009;LGA;
JFK;20.01.2023;12:51;20.01.2023 12:51;42.00;38.00;84.93;310.00;10.00;0.00;29.62;1003.10;10.00;;FEW;SCT;;;6500.00;9000.00;;;;;;;;;;35.63;KJFK 201251Z 31010KT 10SM FEW065 SCT090 06/03 A2962 RMK AO2 SLP031 T00560033;JFK;
LGA;20.01.2023;12:51;20.01.2023 12:51;42.00;36.00;78.80;290.00;8.00;0.00;29.62;1002.80;10.00;;FEW;SCT;;;900.00;8000.00;;;;;;;;;;36.55;KLGA 201251Z 29008KT 10SM FEW009 SCT080 06/02 A2962 RMK AO2 SLP028 T00560022;LGA;
JFK;20.01.2023;13:51;20.01.2023 13:51;45.00;37.00;73.37;270.00;15.00;0.00;29.64;1003.70;10.00;;FEW;SCT;;;6500.00;8500.00;;;;;;;;;;37.63;KJFK 201351Z 27015KT 10SM FEW065 SCT085 07/03 A2964 RMK AO2 SLP037 T00720028;JFK;
LGA;20.01.2023;13:51;20.01.2023 13:51;45.00;35.00;68.05;270.00;11.00;0.00;29.63;1003.20;10.00;;SCT;;;;8500.00;;;;;;;;;;;38.89;KLGA 201351Z 27011KT 10SM SCT085 07/02 A2963 RMK AO2 SLP032 T00720017;LGA;
JFK;20.01.2023;14:51;20.01.2023 14:51;46.00;37.00;70.64;270.00;19.00;0.00;29.66;1004.30;10.00;24.00;FEW;SCT;;;6000.00;9000.00;;;;;;;;;;37.95;KJFK 201451Z 27019G24KT 10SM FEW060 SCT090 08/03 A2966 RMK AO2 SLP043 T00780028 53010;JFK;
LGA;20.01.2023;14:51;20.01.2023 14:51;47.00;33.00;58.47;280.00;11.00;0.00;29.64;1003.60;10.00;18.00;BKN;;;;9000.00;;;;;;;;;;;41.30;KLGA 201451Z 28011G18KT 10SM BKN090 08/01 A2964 RMK AO2 SLP036 T00830006 53007;LGA;
JFK;20.01.2023;15:51;20.01.2023 15:51;49.00;37.00;63.34;260.00;14.00;0.00;29.66;1004.20;10.00;;SCT;BKN;;;3500.00;9000.00;;;;;;;;;;42.95;KJFK 201551Z 26014KT 10SM SCT035 BKN090 09/03 A2966 RMK AO2 SLP042 ACSL S-SW T00940028;JFK;
LGA;20.01.2023;15:51;20.01.2023 15:51;48.00;33.00;56.10;270.00;18.00;0.00;29.64;1003.60;10.00;22.00;BKN;BKN;;;4000.00;9000.00;;;;;;;27.00;270.00;2023-01-20 15:27;40.81;KLGA 201551Z 27018G22KT 10SM BKN040 BKN090 09/01 A2964 RMK AO2 PK WND 27027/1527 SLP036 T00890006;LGA;
LGA;20.01.2023;16:51;20.01.2023 16:51;48.00;30.90;51.34;280.00;16.00;0.00;29.64;1003.60;10.00;24.00;BKN;BKN;;;4500.00;9000.00;;;;;;;33.00;270.00;2023-01-20 16:17;41.27;KLGA 201651Z 28016G24KT 10SM BKN045 BKN090 09/M01 A2964 RMK AO2 PK WND 27033/1617 SLP036 T00891006;LGA;
JFK;20.01.2023;16:51;20.01.2023 16:51;48.00;33.00;56.10;280.00;17.00;0.00;29.65;1003.90;10.00;26.00;BKN;BKN;;;4300.00;9500.00;;;;;;;29.00;270.00;2023-01-20 16:29;41.04;KJFK 201651Z 28017G26KT 10SM BKN043 BKN095 09/01 A2965 RMK AO2 PK WND 27029/1629 SLP039 T00890006;JFK;
LGA;20.01.2023;17:51;20.01.2023 17:51;48.00;30.90;51.34;300.00;21.00;0.00;29.64;1003.70;10.00;29.00;BKN;BKN;;;4700.00;5500.00;;;;;;;30.00;290.00;2023-01-20 17:13;40.19;KLGA 201751Z 30021G29KT 10SM BKN047 BKN055 09/M01 A2964 RMK AO2 PK WND 29030/1713 SLP037 T00891006 10094 20050 53001;LGA;
JFK;20.01.2023;17:51;20.01.2023 17:51;48.00;32.00;53.67;280.00;18.00;0.00;29.65;1003.90;10.00;28.00;BKN;BKN;;;4700.00;9500.00;;;;;;;28.00;270.00;2023-01-20 17:42;40.81;KJFK 201751Z 28018G28KT 10SM BKN047 BKN095 09/00 A2965 RMK AO2 PK WND 27028/1742 SLP039 T00890000 10100 20044 56004;JFK;
JFK;20.01.2023;18:51;20.01.2023 18:51;47.00;35.00;63.33;290.00;16.00;0.00;29.68;1005.10;10.00;27.00;BKN;BKN;BKN;;3900.00;7500.00;11000.00;;;;;;28.00;270.00;2023-01-20 18:04;39.84;KJFK 201851Z 29016G27KT 10SM BKN039 BKN075 BKN110 08/02 A2968 RMK AO2 PK WND 27028/1804 SLP051 T00830017;JFK;
LGA;20.01.2023;18:51;20.01.2023 18:51;46.00;33.00;60.49;270.00;11.00;T;29.67;1004.70;10.00;23.00;BKN;BKN;OVC;;3800.00;4500.00;5500.00;;-RA;;;;32.00;290.00;2023-01-20 18:01;40.16;KLGA 201851Z 27011G23KT 10SM -RA BKN038 BKN045 OVC055 08/01 A2967 RMK AO2 PK WND 29032/1801 RAB1753 SLP047 P0000 T00780006;LGA;
JFK;20.01.2023;19:51;20.01.2023 19:51;48.00;34.00;58.16;300.00;17.00;0.00;29.69;1005.40;10.00;24.00;BKN;BKN;BKN;BKN;3700.00;4800.00;7500.00;25000.00;;;;;26.00;280.00;2023-01-20 19:19;41.04;KJFK 201951Z 30017G24KT 10SM BKN037 BKN048 BKN075 BKN250 09/01 A2969 RMK AO2 PK WND 28026/1919 SLP054 T00890011;JFK;
LGA;20.01.2023;19:51;20.01.2023 19:51;47.00;32.00;55.94;290.00;15.00;T;29.69;1005.20;10.00;;FEW;BKN;BKN;BKN;3600.00;4600.00;7500.00;15000.00;;;;;26.00;290.00;2023-01-20 19:28;40.10;KLGA 201951Z 29015KT 10SM FEW036 BKN046 BKN075 BKN150 08/00 A2969 RMK AO2 PK WND 29026/1928 RAE32 SLP052 P0000 T00830000;LGA;
LGA;20.01.2023;20:51;20.01.2023 20:51;48.00;30.00;49.49;280.00;17.00;0.00;29.72;1006.40;10.00;;BKN;BKN;BKN;BKN;4500.00;5500.00;7500.00;15000.00;;;;;;;;41.04;KLGA 202051Z 28017KT 10SM BKN045 BKN055 BKN075 BKN150 09/M01 A2972 RMK AO2 SLP064 VCSH NE 60000 T00891011 53027;LGA;
JFK;20.01.2023;20:51;20.01.2023 20:51;47.00;32.00;55.94;290.00;17.00;0.00;29.73;1006.60;10.00;21.00;BKN;BKN;BKN;;4300.00;5500.00;25000.00;;;;;;28.00;290.00;2023-01-20 19:58;39.59;KJFK 202051Z 29017G21KT 10SM BKN043 BKN055 BKN250 08/00 A2973 RMK AO2 PK WND 29028/1958 SLP066 VCSH N T00830000 53027;JFK;
JFK;20.01.2023;21:51;20.01.2023 21:51;47.00;32.00;55.94;290.00;18.00;0.00;29.77;1008.10;10.00;24.00;BKN;BKN;BKN;;4300.00;5500.00;25000.00;;;;;;;;;39.36;KJFK 202151Z 29018G24KT 10SM BKN043 BKN055 BKN250 08/00 A2977 RMK AO2 SLP081 VCSH NW-N T00830000;JFK;
LGA;20.01.2023;21:51;20.01.2023 21:51;47.00;30.00;51.58;300.00;20.00;0.00;29.76;1007.60;10.00;24.00;BKN;BKN;BKN;;4600.00;6000.00;13000.00;;;;;;27.00;290.00;2023-01-20 20:55;38.93;KLGA 202151Z 30020G24KT 10SM BKN046 BKN060 BKN130 08/M01 A2976 RMK AO2 PK WND 29027/2055 SLP076 T00831011;LGA;
LGA;20.01.2023;22:51;20.01.2023 22:51;46.00;30.90;55.36;290.00;15.00;0.00;29.79;1008.60;10.00;20.00;BKN;BKN;BKN;BKN;4300.00;6000.00;13000.00;25000.00;;;;;;;;38.93;KLGA 202251Z 29015G20KT 10SM BKN043 BKN060 BKN130 BKN250 08/M01 A2979 RMK AO2 SLP086 T00781006;LGA;
JFK;20.01.2023;22:51;20.01.2023 22:51;46.00;32.00;57.87;280.00;15.00;0.00;29.80;1008.90;10.00;19.00;FEW;BKN;BKN;;3900.00;4800.00;25000.00;;;;;;;;;38.93;KJFK 202251Z 28015G19KT 10SM FEW039 BKN048 BKN250 08/00 A2980 RMK AO2 SLP089 T00780000;JFK;
LGA;20.01.2023;23:51;20.01.2023 23:51;46.00;30.00;53.37;290.00;16.00;0.00;29.82;1009.90;10.00;25.00;BKN;BKN;BKN;BKN;4300.00;7500.00;14000.00;25000.00;;;;;;;;38.67;KLGA 202351Z 29016G25KT 10SM BKN043 BKN075 BKN140 BKN250 08/M01 A2982 RMK AO2 SLP099 60000 T00781011 10089 20078 53035;LGA;
JFK;20.01.2023;23:51;20.01.2023 23:51;46.00;32.00;57.87;270.00;12.00;0.00;29.83;1010.20;10.00;;BKN;BKN;BKN;BKN;4500.00;7000.00;12000.00;25000.00;;;;;;;;39.82;KJFK 202351Z 27012KT 10SM BKN045 BKN070 BKN120 BKN250 08/00 A2983 RMK AO2 SLP102 T00780000 10094 20078 51035;JFK;
JFK;21.01.2023;0:51;21.01.2023 00:51;44.00;30.90;59.50;280.00;13.00;0.00;29.85;1010.60;10.00;;SCT;BKN;BKN;;4400.00;7000.00;25000.00;;;;;;;;;37.07;KJFK 210051Z 28013KT 10SM SCT044 BKN070 BKN250 07/M01 A2985 RMK AO2 SLP106 T00671006;JFK;
LGA;21.01.2023;0:51;21.01.2023 00:51;45.00;28.90;53.00;270.00;12.00;0.00;29.84;1010.30;10.00;;BKN;BKN;BKN;BKN;4100.00;8000.00;14000.00;25000.00;;;;;;;;38.55;KLGA 210051Z 27012KT 10SM BKN041 BKN080 BKN140 BKN250 07/M02 A2984 RMK AO2 SLP103 T00721017;LGA;
JFK;21.01.2023;1:51;21.01.2023 01:51;43.00;32.00;64.88;270.00;12.00;0.00;29.87;1011.40;10.00;;BKN;;;;4200.00;;;;;;;;;;;36.00;KJFK 210151Z 27012KT 10SM BKN042 06/00 A2987 RMK AO2 SLP114 T00610000;JFK;
LGA;21.01.2023;1:51;21.01.2023 01:51;45.00;28.90;53.00;280.00;10.00;0.00;29.86;1011.00;10.00;;BKN;BKN;;;4300.00;8000.00;;;;;;;;;;39.27;KLGA 210151Z 28010KT 10SM BKN043 BKN080 07/M02 A2986 RMK AO2 SLP110 T00721017;LGA;
JFK;21.01.2023;2:51;21.01.2023 02:51;43.00;30.90;62.06;270.00;15.00;0.00;29.89;1012.20;10.00;;BKN;;;;4500.00;;;;;;;;;;;35.04;KJFK 210251Z 27015KT 10SM BKN045 06/M01 A2989 RMK AO2 SLP122 T00611006 53021;JFK;
LGA;21.01.2023;2:51;21.01.2023 02:51;44.00;28.90;54.85;300.00;9.00;0.00;29.88;1011.70;10.00;;BKN;BKN;;;3700.00;4500.00;;;;;;;;;;38.56;KLGA 210251Z 30009KT 10SM BKN037 BKN045 07/M02 A2988 RMK AO2 SLP117 T00671017 53019;LGA;
LGA;21.01.2023;3:51;21.01.2023 03:51;44.00;28.90;54.85;290.00;7.00;0.00;29.90;1012.30;10.00;;BKN;;;;4200.00;;;;;;;;;;;39.53;KLGA 210351Z 29007KT 10SM BKN042 07/M02 A2990 RMK AO2 SLP123 T00671017;LGA;
JFK;21.01.2023;3:51;21.01.2023 03:51;43.00;30.90;62.06;280.00;12.00;0.00;29.91;1012.70;10.00;;BKN;BKN;;;4300.00;5000.00;;;;;;;;;;36.00;KJFK 210351Z 28012KT 10SM BKN043 BKN050 06/M01 A2991 RMK AO2 SLP127 T00611006;JFK;
LGA;21.01.2023;4:51;21.01.2023 04:51;42.00;28.90;59.22;340.00;11.00;T;29.91;1013.00;10.00;17.00;BKN;OVC;;;3600.00;4400.00;;;-RA;;;;;;;35.23;KLGA 210451Z 34011G17KT 10SM -RA BKN036 OVC044 06/M02 A2991 RMK AO2 RAB46 SLP130 P0000 T00561017 400940050;LGA;
JFK;21.01.2023;4:51;21.01.2023 04:51;43.00;30.90;62.06;270.00;11.00;0.00;29.92;1013.30;10.00;;BKN;;;;4000.00;;;;;;;;;;;36.37;KJFK 210451Z 27011KT 10SM BKN040 06/M01 A2992 RMK AO2 SLP133 T00611006 401000039;JFK;
JFK;21.01.2023;5:23;21.01.2023 05:23;41.00;30.90;67.03;10.00;11.00;0.00;29.93;;10.00;;BKN;BKN;;;3400.00;4600.00;;;;;;;;;;33.84;KJFK 210523Z 01011KT 10SM BKN034 BKN046 05/M01 A2993 RMK AO2 WSHFT 0507 T00501006;JFK;
LGA;21.01.2023;5:51;21.01.2023 05:51;41.00;28.90;61.79;330.00;8.00;T;29.92;1013.30;10.00;;SCT;BKN;OVC;;3500.00;4500.00;5500.00;;;;;;;;;35.20;KLGA 210551Z 33008KT 10SM SCT035 BKN045 OVC055 05/M02 A2992 RMK AO2 RAE03 SLP133 P0000 60000 T00501017 10078 20050 51016;LGA;
JFK;21.01.2023;5:51;21.01.2023 05:51;40.00;32.00;73.14;330.00;11.00;T;29.93;1013.60;10.00;;BKN;BKN;;;3400.00;4300.00;;;;;;;;;;32.45;KJFK 210551Z 33011KT 10SM BKN034 BKN043 04/00 A2993 RMK AO2 WSHFT 0507 RAB24E36 SLP136 P0000 60000 T00440000 10072 20044 51013;JFK;
JFK;21.01.2023;6:51;21.01.2023 06:51;41.00;28.90;61.79;310.00;13.00;0.00;29.95;1014.00;10.00;;SCT;BKN;;;4000.00;5000.00;;;;;;;;;;33.10;KJFK 210651Z 31013KT 10SM SCT040 BKN050 05/M02 A2995 RMK AO2 SLP140 T00501017;JFK;
LGA;21.01.2023;6:51;21.01.2023 06:51;40.00;28.00;62.15;310.00;9.00;0.00;29.94;1013.70;10.00;;BKN;;;;4400.00;;;;;;;;;;;33.34;KLGA 210651Z 31009KT 10SM BKN044 04/M02 A2994 RMK AO2 SLP137 T00441022;LGA;
LGA;21.01.2023;7:51;21.01.2023 07:51;40.00;26.10;57.47;300.00;16.00;0.00;29.95;1014.30;10.00;;SCT;;;;5000.00;;;;;;;;;;;30.72;KLGA 210751Z 30016KT 10SM SCT050 04/M03 A2995 RMK AO2 SLP143 T00441033;LGA;
JFK;21.01.2023;7:51;21.01.2023 07:51;39.00;27.00;61.78;310.00;15.00;0.00;29.97;1014.70;10.00;;FEW;SCT;;;4500.00;8000.00;;;;;;;;;;29.85;KJFK 210751Z 31015KT 10SM FEW045 SCT080 04/M03 A2997 RMK AO2 SLP147 T00391028;JFK;
JFK;21.01.2023;8:51;21.01.2023 08:51;39.00;25.00;56.86;320.00;17.00;0.00;29.98;1015.10;10.00;24.00;BKN;BKN;;;4000.00;4700.00;;;;;;;;;;29.25;KJFK 210851Z 32017G24KT 10SM BKN040 BKN047 04/M04 A2998 RMK AO2 SLP151 T00391039 51016;JFK;
LGA;21.01.2023;8:51;21.01.2023 08:51;39.00;25.00;56.86;310.00;18.00;0.00;29.98;1015.10;10.00;22.00;SCT;;;;4100.00;;;;;;;;;;;28.96;KLGA 210851Z 31018G22KT 10SM SCT041 04/M04 A2998 RMK AO2 SLP151 T00391039 53018;LGA;
JFK;21.01.2023;9:51;21.01.2023 09:51;37.00;24.10;59.24;310.00;16.00;0.00;30.01;1016.00;10.00;21.00;FEW;SCT;;;4700.00;5500.00;;;;;;;;;;26.94;KJFK 210951Z 31016G21KT 10SM FEW047 SCT055 03/M04 A3001 RMK AO2 SLP160 T00281044;JFK;
LGA;21.01.2023;9:51;21.01.2023 09:51;38.00;24.10;57.18;310.00;11.00;0.00;30.00;1015.80;10.00;;SCT;;;;4800.00;;;;;;;;;;;29.92;KLGA 210951Z 31011KT 10SM SCT048 03/M04 A3000 RMK AO2 SLP158 T00331044;LGA;
LGA;21.01.2023;10:51;21.01.2023 10:51;38.00;24.10;57.18;320.00;11.00;0.00;30.02;1016.60;10.00;;OVC;;;;4600.00;;;;;;;;;;;29.92;KLGA 211051Z 32011KT 10SM OVC046 03/M04 A3002 RMK AO2 SLP166 T00331044;LGA;
JFK;21.01.2023;10:51;21.01.2023 10:51;38.00;24.10;57.18;310.00;13.00;0.00;30.03;1017.00;10.00;;BKN;;;;4700.00;;;;;;;;;;;29.13;KJFK 211051Z 31013KT 10SM BKN047 03/M04 A3003 RMK AO2 SLP170 T00331044;JFK;
JFK;21.01.2023;11:51;21.01.2023 11:51;38.00;24.10;57.18;330.00;15.00;0.00;30.07;1018.00;10.00;20.00;BKN;;;;4500.00;;;;;;;;;;;28.43;KJFK 211151Z 33015G20KT 10SM BKN045 03/M04 A3007 RMK AO2 SLP180 T00331044 10050 20028 53029;JFK;
LGA;21.01.2023;11:51;21.01.2023 11:51;38.00;24.10;57.18;340.00;12.00;0.00;30.06;1017.90;10.00;;OVC;;;;4900.00;;;;;;;;;;;29.51;KLGA 211151Z 34012KT 10SM OVC049 03/M04 A3006 RMK AO2 SLP179 T00331044 10050 20033 53027;LGA;
LGA;21.01.2023;12:51;21.01.2023 12:51;38.00;25.00;59.36;310.00;14.00;0.00;30.09;1019.00;10.00;;BKN;;;;4300.00;;;;;;;;;;;28.77;KLGA 211251Z 31014KT 10SM BKN043 03/M04 A3009 RMK AO2 SLP190 T00331039;LGA;
JFK;21.01.2023;12:51;21.01.2023 12:51;38.00;25.00;59.36;330.00;13.00;0.00;30.10;1019.20;10.00;;BKN;;;;4400.00;;;;;;;;;;;29.13;KJFK 211251Z 33013KT 10SM BKN044 03/M04 A3010 RMK AO2 SLP192 T00331039;JFK;
LGA;21.01.2023;13:51;21.01.2023 13:51;38.00;24.10;57.18;330.00;12.00;0.00;30.11;1019.70;10.00;19.00;BKN;OVC;;;3800.00;5000.00;;;;;;;;;;29.51;KLGA 211351Z 33012G19KT 10SM BKN038 OVC050 03/M04 A3011 RMK AO2 SLP197 T00331044;LGA;
JFK;21.01.2023;13:51;21.01.2023 13:51;38.00;25.00;59.36;320.00;13.00;0.00;30.12;1019.80;10.00;20.00;BKN;;;;4200.00;;;;;;;;;;;29.13;KJFK 211351Z 32013G20KT 10SM BKN042 03/M04 A3012 RMK AO2 SLP198 T00331039;JFK;
LGA;21.01.2023;14:51;21.01.2023 14:51;39.00;24.10;54.77;320.00;15.00;0.00;30.14;1020.60;10.00;;BKN;OVC;;;3800.00;4900.00;;;;;;;;;;29.85;KLGA 211451Z 32015KT 10SM BKN038 OVC049 04/M04 A3014 RMK AO2 SLP206 T00391044 51027;LGA;
JFK;21.01.2023;14:51;21.01.2023 14:51;39.00;25.00;56.86;330.00;13.00;0.00;30.15;1020.90;10.00;;BKN;BKN;BKN;;3500.00;4800.00;25000.00;;;;;;;;;30.54;KJFK 211451Z 33013KT 10SM BKN035 BKN048 BKN250 04/M04 A3015 RMK AO2 SLP209 T00391039 51029;JFK;
LGA;21.01.2023;15:51;21.01.2023 15:51;40.00;24.10;52.88;350.00;9.00;0.00;30.15;1020.90;10.00;;BKN;BKN;;;3500.00;5000.00;;;;;;;;;;33.34;KLGA 211551Z 35009KT 10SM BKN035 BKN050 04/M04 A3015 RMK AO2 SLP209 T00441044;LGA;
JFK;21.01.2023;15:51;21.01.2023 15:51;40.00;25.00;54.90;360.00;11.00;0.00;30.16;1021.30;10.00;;BKN;BKN;BKN;;3600.00;4700.00;25000.00;;;;;;;;;32.45;KJFK 211551Z 36011KT 10SM BKN036 BKN047 BKN250 04/M04 A3016 RMK AO2 SLP213 T00441039;JFK;
JFK;21.01.2023;16:51;21.01.2023 16:51;40.00;25.00;54.90;330.00;11.00;0.00;30.16;1021.10;10.00;;BKN;BKN;;;3900.00;25000.00;;;;;;;;;;32.45;KJFK 211651Z 33011KT 10SM BKN039 BKN250 04/M04 A3016 RMK AO2 SLP211 T00441039;JFK;
LGA;21.01.2023;16:51;21.01.2023 16:51;40.00;23.00;50.50;350.00;11.00;0.00;30.15;1020.90;10.00;;BKN;BKN;;;3500.00;5000.00;;;;;;;;;;32.45;KLGA 211651Z 35011KT 10SM BKN035 BKN050 04/M05 A3015 RMK AO2 SLP209 T00441050;LGA;
LGA;21.01.2023;17:51;21.01.2023 17:51;40.00;23.00;50.50;340.00;9.00;0.00;30.14;1020.60;10.00;;BKN;OVC;;;3500.00;4300.00;;;;;;;;;;33.34;KLGA 211751Z 34009KT 10SM BKN035 OVC043 04/M05 A3014 RMK AO2 SLP206 T00441050 10050 20033 50000;LGA;
JFK;21.01.2023;17:51;21.01.2023 17:51;40.00;25.00;54.90;350.00;11.00;0.00;30.15;1020.90;10.00;;BKN;BKN;;;3900.00;25000.00;;;;;;;;;;32.45;KJFK 211751Z 35011KT 10SM BKN039 BKN250 04/M04 A3015 RMK AO2 SLP209 T00441039 10050 20033 50000;JFK;
JFK;21.01.2023;18:51;21.01.2023 18:51;41.00;25.00;52.61;340.00;10.00;0.00;30.14;1020.70;10.00;;BKN;BKN;;;4100.00;25000.00;;;;;;;;;;34.25;KJFK 211851Z 34010KT 10SM BKN041 BKN250 05/M04 A3014 RMK AO2 SLP207 T00501039;JFK;
LGA;21.01.2023;18:51;21.01.2023 18:51;40.00;24.10;52.88;300.00;11.00;0.00;30.13;1020.30;10.00;;OVC;;;;3900.00;;;;;;;;;;;32.45;KLGA 211851Z 30011KT 10SM OVC039 04/M04 A3013 RMK AO2 SLP203 T00441044;LGA;
JFK;21.01.2023;19:51;21.01.2023 19:51;40.00;26.10;57.47;340.00;9.00;0.00;30.16;1021.30;10.00;;OVC;;;;3900.00;;;;;;;;;;;33.34;KJFK 211951Z 34009KT 10SM OVC039 04/M03 A3016 RMK AO2 SLP213 T00441033;JFK;
LGA;21.01.2023;19:51;21.01.2023 19:51;40.00;23.00;50.50;10.00;7.00;0.00;30.15;1020.90;10.00;;OVC;;;;4000.00;;;;;;;;;;;34.41;KLGA 211951Z 01007KT 10SM OVC040 04/M05 A3015 RMK AO2 SLP209 T00441050;LGA;
JFK;21.01.2023;20:51;21.01.2023 20:51;40.00;25.00;54.90;340.00;6.00;0.00;30.18;1022.00;10.00;;BKN;;;;3900.00;;;;;;;;;;;35.04;KJFK 212051Z 34006KT 10SM BKN039 04/M04 A3018 RMK AO2 SLP220 T00441039 53011;JFK;
LGA;21.01.2023;20:51;21.01.2023 20:51;39.00;24.10;54.77;310.00;10.00;0.00;30.17;1021.60;10.00;;OVC;;;;3900.00;;;;;;;;;;;31.75;KLGA 212051Z 31010KT 10SM OVC039 04/M04 A3017 RMK AO2 SLP216 T00391044 53010;LGA;
LGA;21.01.2023;21:51;21.01.2023 21:51;39.00;23.00;52.30;320.00;8.00;0.00;30.19;1022.20;10.00;;OVC;;;;3900.00;;;;;;;;;;;32.74;KLGA 212151Z 32008KT 10SM OVC039 04/M05 A3019 RMK AO2 SLP222 T00391050;LGA;
JFK;21.01.2023;21:51;21.01.2023 21:51;39.00;26.10;59.52;320.00;6.00;0.00;30.19;1022.40;10.00;;BKN;;;;3800.00;;;;;;;;;;;33.96;KJFK 212151Z 32006KT 10SM BKN038 04/M03 A3019 RMK AO2 SLP224 T00391033;JFK;
LGA;21.01.2023;22:51;21.01.2023 22:51;39.00;21.90;49.93;280.00;8.00;0.00;30.20;1022.70;10.00;;OVC;;;;3800.00;;;;;;;;;;;32.74;KLGA 212251Z 28008KT 10SM OVC038 04/M06 A3020 RMK AO2 SLP227 T00391056;LGA;
JFK;21.01.2023;22:51;21.01.2023 22:51;38.00;25.00;59.36;310.00;8.00;0.00;30.21;1022.90;10.00;;BKN;;;;3700.00;;;;;;;;;;;31.38;KJFK 212251Z 31008KT 10SM BKN037 03/M04 A3021 RMK AO2 SLP229 T00331039 $;JFK;
JFK;21.01.2023;23:51;21.01.2023 23:51;38.00;25.00;59.36;340.00;6.00;0.00;30.22;1023.40;10.00;;OVC;;;;3700.00;;;;;;;;;;;32.64;KJFK 212351Z 34006KT 10SM OVC037 03/M04 A3022 RMK AO2 SLP234 T00331039 10056 20033 53014 $;JFK;
LGA;21.01.2023;23:51;21.01.2023 23:51;38.00;23.00;54.60;330.00;7.00;0.00;30.21;1023.00;10.00;;OVC;;;;3800.00;;;;;;;;;;;31.97;KLGA 212351Z 33007KT 10SM OVC038 03/M05 A3021 RMK AO2 SLP230 T00331050 10050 20033 51013;LGA;
JFK;22.01.2023;0:51;22.01.2023 00:51;38.00;25.00;59.36;240.00;6.00;0.00;30.24;1023.90;10.00;;OVC;;;;3600.00;;;;;;;;;;;32.64;KJFK 220051Z 24006KT 10SM OVC036 03/M04 A3024 RMK AO2 SLP239 T00331039 $;JFK;
LGA;22.01.2023;0:51;22.01.2023 00:51;38.00;23.00;54.60;340.00;8.00;0.00;30.22;1023.40;10.00;;OVC;;;;3700.00;;;;;;;;;;;31.38;KLGA 220051Z 34008KT 10SM OVC037 03/M05 A3022 RMK AO2 SLP234 T00331050;LGA;
LGA;22.01.2023;1:51;22.01.2023 01:51;38.00;21.90;52.13;360.00;6.00;0.00;30.22;1023.40;10.00;;OVC;;;;3700.00;;;;;;;;;;;32.64;KLGA 220151Z 36006KT 10SM OVC037 03/M06 A3022 RMK AO2 SLP234 T00331056;LGA;
JFK;22.01.2023;1:51;22.01.2023 01:51;38.00;25.00;59.36;340.00;4.00;0.00;30.24;1023.80;10.00;;OVC;;;;3600.00;;;;;;;;;;;34.31;KJFK 220151Z 34004KT 10SM OVC036 03/M04 A3024 RMK AO2 SLP238 T00331039 $;JFK;
LGA;22.01.2023;2:51;22.01.2023 02:51;38.00;23.00;54.60;310.00;5.00;0.00;30.22;1023.40;10.00;;OVC;;;;3600.00;;;;;;;;;;;33.40;KLGA 220251Z 31005KT 10SM OVC036 03/M05 A3022 RMK AO2 SLP234 T00331050 51005;LGA;
JFK;22.01.2023;2:51;22.01.2023 02:51;37.00;25.00;61.50;20.00;3.00;0.00;30.24;1023.90;10.00;;OVC;;;;3500.00;;;;;;;;;;;34.40;KJFK 220251Z 02003KT 10SM OVC035 03/M04 A3024 RMK AO2 SLP239 T00281039 51005 $;JFK;
JFK;22.01.2023;3:51;22.01.2023 03:51;37.00;26.10;64.38;0.00;0.00;0.00;30.24;1023.90;10.00;;OVC;;;;3500.00;;;;;;;;;;;37.00;KJFK 220351Z 00000KT 10SM OVC035 03/M03 A3024 RMK AO2 SLP239 T00281033 $;JFK;
LGA;22.01.2023;3:51;22.01.2023 03:51;37.00;21.90;54.01;0.00;0.00;0.00;30.22;1023.40;10.00;;OVC;;;;3400.00;;;;;;;;;;;37.00;KLGA 220351Z 00000KT 10SM OVC034 03/M06 A3022 RMK AO2 SLP234 T00281056;LGA;
JFK;22.01.2023;4:51;22.01.2023 04:51;36.00;25.00;63.98;220.00;5.00;0.00;30.24;1023.80;10.00;;OVC;;;;3400.00;;;;;;;;;;;31.15;KJFK 220451Z 22005KT 10SM OVC034 02/M04 A3024 RMK AO2 SLP238 T00221039 400610022 $;JFK;
LGA;22.01.2023;4:51;22.01.2023 04:51;37.00;21.90;54.01;290.00;3.00;0.00;30.21;1023.00;10.00;;OVC;;;;3400.00;;;;;;;;;;;34.40;KLGA 220451Z 29003KT 10SM OVC034 03/M06 A3021 RMK AO2 SLP230 T00281056 400500028;LGA;
JFK;22.01.2023;5:51;22.01.2023 05:51;36.00;25.00;63.98;300.00;4.00;0.00;30.23;1023.50;10.00;;OVC;;;;3300.00;;;;;;;;;;;32.09;KJFK 220551Z 30004KT 10SM OVC033 02/M04 A3023 RMK AO2 SLP235 T00221039 10033 20022 58003 $;JFK;
LGA;22.01.2023;5:51;22.01.2023 05:51;37.00;23.00;56.57;300.00;4.00;0.00;30.21;1023.00;10.00;;OVC;;;;3300.00;;;;;;;;;;;33.26;KLGA 220551Z 30004KT 10SM OVC033 03/M05 A3021 RMK AO2 SLP230 T00281050 10033 20028 57004;LGA;
LGA;22.01.2023;6:51;22.01.2023 06:51;37.00;21.90;54.01;;5.00;0.00;30.22;1023.20;10.00;;OVC;;;;3400.00;;;;;;;;;;;32.33;KLGA 220651Z VRB05KT 10SM OVC034 03/M06 A3022 RMK AO2 SLP232 T00281056;LGA;
JFK;22.01.2023;6:51;22.01.2023 06:51;36.00;25.00;63.98;220.00;4.00;0.00;30.24;1023.80;10.00;;OVC;;;;3200.00;;;;;;;;;;;32.09;KJFK 220651Z 22004KT 10SM OVC032 02/M04 A3024 RMK AO2 SLP238 T00221039 $;JFK;
LGA;22.01.2023;7:51;22.01.2023 07:51;37.00;21.90;54.01;240.00;5.00;0.00;30.22;1023.40;10.00;;OVC;;;;3200.00;;;;;;;;;;;32.33;KLGA 220751Z 24005KT 10SM OVC032 03/M06 A3022 RMK AO2 SLP234 T00281056;LGA;
JFK;22.01.2023;7:51;22.01.2023 07:51;36.00;27.00;69.51;240.00;7.00;0.00;30.25;1024.10;10.00;;OVC;;;;3200.00;;;;;;;;;;;29.65;KJFK 220751Z 24007KT 10SM OVC032 02/M03 A3025 RMK AO2 SLP241 T00221028 $;JFK;
LGA;22.01.2023;8:51;22.01.2023 08:51;37.00;21.90;54.01;220.00;7.00;0.00;30.22;1023.20;10.00;;OVC;;;;3300.00;;;;;;;;;;;30.87;KLGA 220851Z 22007KT 10SM OVC033 03/M06 A3022 RMK AO2 SLP232 T00281056 50002;LGA;
JFK;22.01.2023;8:51;22.01.2023 08:51;36.00;25.00;63.98;240.00;5.00;0.00;30.23;1023.70;10.00;;OVC;;;;3200.00;;;;;;;;;;;31.15;KJFK 220851Z 24005KT 10SM OVC032 02/M04 A3023 RMK AO2 SLP237 T00221039 50001 $;JFK;
JFK;22.01.2023;9:51;22.01.2023 09:51;36.00;26.10;66.97;250.00;5.00;0.00;30.22;1023.10;10.00;;OVC;;;;3100.00;;;;;;;;;;;31.15;KJFK 220951Z 25005KT 10SM OVC031 02/M03 A3022 RMK AO2 SLP231 T00221033 $;JFK;
LGA;22.01.2023;9:51;22.01.2023 09:51;37.00;21.00;51.99;230.00;6.00;0.00;30.20;1022.50;10.00;;OVC;;;;3300.00;;;;;;;;;;;31.55;KLGA 220951Z 23006KT 10SM OVC033 03/M06 A3020 RMK AO2 SLP225 T00281061;LGA;
LGA;22.01.2023;10:51;22.01.2023 10:51;37.00;21.00;51.99;200.00;8.00;0.00;30.20;1022.70;10.00;;OVC;;;;3500.00;;;;;;;;;;;30.27;KLGA 221051Z 20008KT 10SM OVC035 03/M06 A3020 RMK AO2 SLP227 T00281061;LGA;
JFK;22.01.2023;10:51;22.01.2023 10:51;36.00;25.00;63.98;220.00;8.00;0.00;30.22;1023.30;10.00;;OVC;;;;3200.00;;;;;;;;;;;29.04;KJFK 221051Z 22008KT 10SM OVC032 02/M04 A3022 RMK AO2 SLP233 T00221039 $;JFK;
LGA;22.01.2023;11:51;22.01.2023 11:51;37.00;21.90;54.01;210.00;4.00;0.00;30.20;1022.60;10.00;;BKN;OVC;;;3400.00;11000.00;;;;;;;;;;33.26;KLGA 221151Z 21004KT 10SM BKN034 OVC110 03/M06 A3020 RMK AO2 SLP226 T00281056 10028 20028 56007;LGA;
JFK;22.01.2023;11:51;22.01.2023 11:51;37.00;25.00;61.50;220.00;9.00;0.00;30.21;1022.90;10.00;;OVC;;;;3500.00;;;;;;;;;;;29.73;KJFK 221151Z 22009KT 10SM OVC035 03/M04 A3021 RMK AO2 SLP229 T00281039 10028 20022 56007 $;JFK;
LGA;22.01.2023;12:51;22.01.2023 12:51;38.00;21.90;52.13;200.00;6.00;0.00;30.19;1022.10;10.00;;BKN;OVC;;;3500.00;10000.00;;;;;;;;;;32.64;KLGA 221251Z 20006KT 10SM BKN035 OVC100 03/M06 A3019 RMK AO2 SLP221 T00331056;LGA;
JFK;22.01.2023;12:51;22.01.2023 12:51;37.00;26.10;64.38;210.00;9.00;0.00;30.20;1022.70;10.00;;OVC;;;;3400.00;;;;;;;;;;;29.73;KJFK 221251Z 21009KT 10SM OVC034 03/M03 A3020 RMK AO2 SLP227 T00281033 $;JFK;
LGA;22.01.2023;13:51;22.01.2023 13:51;38.00;21.90;52.13;220.00;7.00;0.00;30.22;1023.10;10.00;;FEW;BKN;OVC;;2700.00;3500.00;10000.00;;;;;;;;;31.97;KLGA 221351Z 22007KT 10SM FEW027 BKN035 OVC100 03/M06 A3022 RMK AO2 SLP231 T00331056;LGA;
JFK;22.01.2023;13:51;22.01.2023 13:51;38.00;26.10;62.14;220.00;10.00;0.00;30.23;1023.70;10.00;;OVC;;;;3400.00;;;;;;;;;;;30.37;KJFK 221351Z 22010KT 10SM OVC034 03/M03 A3023 RMK AO2 SLP237 T00331033 $;JFK;
JFK;22.01.2023;14:51;22.01.2023 14:51;39.00;26.10;59.52;230.00;5.00;0.00;30.19;1022.10;10.00;;SCT;SCT;BKN;;3700.00;10000.00;24000.00;;;;;;;;;34.71;KJFK 221451Z 23005KT 10SM SCT037 SCT100 BKN240 04/M03 A3019 RMK AO2 SLP221 T00391033 58008 $;JFK;
LGA;22.01.2023;14:51;22.01.2023 14:51;39.00;21.90;49.93;210.00;7.00;0.00;30.17;1021.70;10.00;;FEW;BKN;BKN;OVC;2700.00;3600.00;10000.00;23000.00;;;;;;;;33.31;KLGA 221451Z 21007KT 10SM FEW027 BKN036 BKN100 OVC230 04/M06 A3017 RMK AO2 SLP217 T00391056 58008;LGA;
JFK;22.01.2023;15:51;22.01.2023 15:51;39.00;27.00;61.78;200.00;6.00;0.00;30.17;1021.50;10.00;;SCT;SCT;BKN;;3600.00;10000.00;23000.00;;;;;;;;;33.96;KJFK 221551Z 20006KT 10SM SCT036 SCT100 BKN230 04/M03 A3017 RMK AO2 SLP215 T00391028 $;JFK;
LGA;22.01.2023;15:51;22.01.2023 15:51;41.00;23.00;48.39;210.00;5.00;0.00;30.15;1020.90;10.00;;FEW;SCT;BKN;BKN;2700.00;3300.00;11000.00;22000.00;;;;;;;;37.08;KLGA 221551Z 21005KT 10SM FEW027 SCT033 BKN110 BKN220 OVC250 05/M05 A3015 RMK AO2 SLP209 T00501050;LGA;
JFK;22.01.2023;16:51;22.01.2023 16:51;40.00;28.00;62.15;210.00;7.00;0.00;30.14;1020.70;10.00;;FEW;SCT;SCT;BKN;2500.00;3500.00;10000.00;24000.00;;;;;;;;34.41;KJFK 221651Z 21007KT 10SM FEW025 SCT035 SCT100 BKN240 04/M02 A3014 RMK AO2 SLP207 T00441022 $;JFK;
LGA;22.01.2023;16:51;22.01.2023 16:51;41.00;24.10;50.67;190.00;11.00;0.00;30.12;1020.00;10.00;;FEW;SCT;SCT;BKN;2700.00;4000.00;7500.00;14000.00;;;;;;;;33.84;KLGA 221651Z 19011KT 10SM FEW027 SCT040 SCT075 BKN140 BKN190 BKN250 05/M04 A3012 RMK AO2 SLP200 T00501044;LGA;
JFK;22.01.2023;17:51;22.01.2023 17:51;40.00;28.90;64.49;190.00;7.00;0.00;30.12;1019.90;10.00;;SCT;BKN;BKN;;3200.00;15000.00;24000.00;;;;;;;;;34.41;KJFK 221751Z 19007KT 10SM SCT032 BKN150 BKN240 04/M02 A3012 RMK AO2 SLP199 T00441017 10044 20028 58022 $;JFK;
LGA;22.01.2023;17:51;22.01.2023 17:51;41.00;24.10;50.67;190.00;7.00;0.00;30.10;1019.20;10.00;;FEW;SCT;BKN;BKN;2500.00;4000.00;14000.00;17000.00;;;;;;;;35.75;KLGA 221751Z 19007KT 10SM FEW025 SCT040 BKN140 BKN170 BKN250 05/M04 A3010 RMK AO2 SLP192 T00501044 10050 20028 57025;LGA;
JFK;22.01.2023;18:51;22.01.2023 18:51;40.00;30.00;67.45;170.00;7.00;0.00;30.08;1018.40;10.00;;FEW;BKN;OVC;;3000.00;12000.00;24000.00;;;;;;;;;34.41;KJFK 221851Z 17007KT 10SM FEW030 BKN120 OVC240 04/M01 A3008 RMK AO2 SLP184 T00441011 $;JFK;
LGA;22.01.2023;18:51;22.01.2023 18:51;41.00;25.00;52.61;160.00;7.00;0.00;30.06;1017.80;10.00;;FEW;SCT;BKN;BKN;2500.00;4000.00;12000.00;16000.00;;;;;;;;35.75;KLGA 221851Z 16007KT 10SM FEW025 SCT040 BKN120 BKN160 OVC250 05/M04 A3006 RMK AO2 SLP178 T00501039;LGA;
LGA;22.01.2023;19:51;22.01.2023 19:51;41.00;26.10;55.07;170.00;6.00;0.00;30.05;1017.40;10.00;;FEW;BKN;BKN;OVC;3000.00;4200.00;12000.00;24000.00;;;;;;;;36.37;KLGA 221951Z 17006KT 10SM FEW030 BKN042 BKN120 OVC240 05/M03 A3005 RMK AO2 SLP174 T00501033;LGA;
JFK;22.01.2023;19:51;22.01.2023 19:51;40.00;30.90;69.96;130.00;6.00;0.00;30.06;1017.90;10.00;;BKN;BKN;OVC;;3200.00;4600.00;11000.00;;;;;;;;;35.04;KJFK 221951Z 13006KT 10SM BKN032 BKN046 OVC110 04/M01 A3006 RMK AO2 SLP179 T00441006 $;JFK;
LGA;22.01.2023;20:51;22.01.2023 20:51;41.00;28.00;59.55;180.00;7.00;0.00;30.03;1016.80;10.00;;BKN;BKN;OVC;;3400.00;4500.00;11000.00;;;;;;;;;35.75;KLGA 222051Z 18007KT 10SM BKN034 BKN045 OVC110 05/M02 A3003 RMK AO2 SLP168 T00501022 56024;LGA;
JFK;22.01.2023;20:51;22.01.2023 20:51;40.00;30.90;69.96;120.00;5.00;0.00;30.05;1017.40;10.00;;BKN;BKN;OVC;;2900.00;4000.00;8000.00;;;;;;;;;35.78;KJFK 222051Z 12005KT 10SM BKN029 BKN040 OVC080 04/M01 A3005 RMK AO2 SLP174 T00441006 56025 $;JFK;
LGA;22.01.2023;21:22;22.01.2023 21:22;41.00;28.00;59.55;170.00;7.00;0.00;30.02;;10.00;;OVC;;;;2800.00;;;;;;;;;;;35.75;KLGA 222122Z 17007KT 10SM OVC028 05/M02 A3002 RMK AO2 T00501022;LGA;
JFK;22.01.2023;21:42;22.01.2023 21:42;39.00;33.00;79.17;110.00;5.00;T;30.02;;10.00;;SCT;BKN;OVC;;2500.00;3800.00;7000.00;;-RA;;;;;;;34.71;KJFK 222142Z 11005KT 10SM -RA SCT025 BKN038 OVC070 04/01 A3002 RMK AO2 RAB33 P0000 T00390006 $;JFK;
JFK;22.01.2023;21:51;22.01.2023 21:51;39.00;34.00;82.08;100.00;7.00;T;30.01;1016.30;10.00;;SCT;BKN;OVC;;2500.00;3700.00;5500.00;;-RA;;;;;;;33.31;KJFK 222151Z 10007KT 10SM -RA SCT025 BKN037 OVC055 04/01 A3001 RMK AO2 RAB33 SLP163 P0000 T00390011 $;JFK;
LGA;22.01.2023;21:51;22.01.2023 21:51;41.00;28.90;61.79;130.00;8.00;T;30.00;1015.80;10.00;;BKN;BKN;OVC;;2900.00;3500.00;7000.00;;-RA;;;;;;;35.20;KLGA 222151Z 13008KT 10SM -RA BKN029 BKN035 OVC070 05/M02 A3000 RMK AO2 RAB38 SLP158 P0000 T00501017;LGA;
JFK;22.01.2023;22:40;22.01.2023 22:40;39.00;36.00;88.87;80.00;5.00;0.02;29.98;;10.00;;BKN;BKN;OVC;;2200.00;3200.00;5500.00;;-RA;;;;;;;34.71;KJFK 222240Z 08005KT 10SM -RA BKN022 BKN032 OVC055 04/02 A2998 RMK AO2 P0002 T00390022 $;JFK;
JFK;22.01.2023;22:51;22.01.2023 22:51;39.00;36.00;88.87;70.00;6.00;0.02;29.96;1014.50;8.00;;BKN;OVC;;;2000.00;3200.00;;;-RA;;;;;;;33.96;KJFK 222251Z 07006KT 8SM -RA BKN020 OVC032 04/02 A2996 RMK AO2 SLP145 P0002 T00390022 $;JFK;
LGA;22.01.2023;22:51;22.01.2023 22:51;40.00;30.90;69.96;90.00;7.00;0.01;29.95;1014.20;10.00;;BKN;BKN;OVC;;2500.00;3600.00;5000.00;;-RA;;;;;;;34.41;KLGA 222251Z 09007KT 10SM -RA BKN025 BKN036 OVC050 04/M01 A2995 RMK AO2 SLP142 P0001 T00441006;LGA;
JFK;22.01.2023;23:51;22.01.2023 23:51;38.00;37.00;96.52;40.00;7.00;0.03;29.96;1014.30;6.00;;FEW;BKN;OVC;;1200.00;1700.00;4000.00;;-RA BR;;;;;;;31.97;KJFK 222351Z 04007KT 6SM -RA BR FEW012 BKN017 OVC040 03/03 A2996 RMK AO2 SLP143 P0003 60005 T00330028 10044 20033 56031 $;JFK;
LGA;22.01.2023;23:51;22.01.2023 23:51;39.00;32.00;75.75;60.00;5.00;0.03;29.95;1014.30;6.00;;BKN;OVC;;;2000.00;3200.00;;;-RA;;;;;;;34.71;KLGA 222351Z 06005KT 6SM -RA BKN020 OVC032 04/00 A2995 RMK AO2 SLP143 P0003 60004 T00390000 10056 20039 55025;LGA;
JFK;23.01.2023;0:45;23.01.2023 00:45;37.40;37.40;100.00;360.00;9.00;0.09;29.95;;4.00;;FEW;BKN;OVC;;800.00;1500.00;3500.00;;RA BR;;;;;;;30.23;KJFK 230045Z 36009KT 4SM RA BR FEW008 BKN015 OVC035 03/03 A2995 RMK AO2 P0009 $;JFK;
JFK;23.01.2023;0:51;23.01.2023 00:51;38.00;37.00;96.52;10.00;8.00;0.11;29.93;1013.60;4.00;;FEW;BKN;OVC;;700.00;1600.00;3500.00;;RA BR;;;;;;;31.38;KJFK 230051Z 01008KT 4SM RA BR FEW007 BKN016 OVC035 03/03 A2993 RMK AO2 PRESFR SLP136 P0011 T00330028 $;JFK;
LGA;23.01.2023;0:51;23.01.2023 00:51;38.00;33.00;82.66;40.00;7.00;0.10;29.93;1013.60;5.00;;BKN;OVC;;;1800.00;2800.00;;;RA;;;;;;;31.97;KLGA 230051Z 04007KT 5SM RA BKN018 OVC028 03/01 A2993 RMK AO2 PRESFR SLP136 P0010 T00330006;LGA;
JFK;23.01.2023;1:51;23.01.2023 01:51;38.00;37.00;96.52;30.00;10.00;0.12;29.87;1011.50;6.00;;SCT;SCT;OVC;;600.00;1600.00;4000.00;;-RA BR;;;;;;;30.37;KJFK 230151Z 03010KT 6SM -RA BR SCT006 SCT016 OVC040 03/03 A2987 RMK AO2 PRESFR SLP115 P0012 T00330028 $;JFK;
LGA;23.01.2023;1:51;23.01.2023 01:51;39.00;34.00;82.08;50.00;11.00;0.10;29.88;1011.70;6.00;;BKN;OVC;;;1800.00;2600.00;;;-RA;;;;;;;31.31;KLGA 230151Z 05011KT 6SM -RA BKN018 OVC026 04/01 A2988 RMK AO2 SLP117 P0010 T00390011 $;LGA;
JFK;23.01.2023;2:19;23.01.2023 02:19;38.00;37.00;96.52;20.00;11.00;0.03;29.84;;6.00;;SCT;SCT;OVC;;600.00;1300.00;2700.00;;RA BR;;;;;;;29.92;KJFK 230219Z 02011KT 6SM RA BR SCT006 SCT013 OVC027 03/03 A2984 RMK AO2 PRESFR P0003 T00330028 $;JFK;
JFK;23.01.2023;2:51;23.01.2023 02:51;38.00;38.00;100.00;30.00;11.00;0.06;29.82;1009.60;5.00;;SCT;BKN;OVC;;500.00;1200.00;2000.00;;-RA BR;;;;;;;29.92;KJFK 230251Z 03011KT 5SM -RA BR SCT005 BKN012 OVC020 03/03 A2982 RMK AO2 SLP096 P0006 60029 T00330033 58044 $;JFK;
LGA;23.01.2023;2:51;23.01.2023 02:51;39.00;35.00;85.76;30.00;11.00;0.04;29.82;1009.90;6.00;;BKN;BKN;OVC;;600.00;1600.00;2800.00;;RA BR;;;;;;;31.31;KLGA 230251Z 03011KT 6SM RA BR BKN006 BKN016 OVC028 04/02 A2982 RMK AO2 SLP099 P0004 60024 T00390017 58044;LGA;
JFK;23.01.2023;3:28;23.01.2023 03:28;39.00;39.00;100.00;360.00;8.00;0.02;29.81;;4.00;;BKN;OVC;;;600.00;2000.00;;;-RA BR;;;;;;;32.74;KJFK 230328Z 36008KT 4SM -RA BR BKN006 OVC020 04/04 A2981 RMK AO2 P0002 T00390039 $;JFK;
LGA;23.01.2023;3:34;23.01.2023 03:34;38.00;34.00;85.69;30.00;8.00;0.08;29.81;;2.00;;OVC;;;;600.00;;;;RA BR;;;;;;;31.38;KLGA 230334Z 03008KT 2SM RA BR OVC006 03/01 A2981 RMK AO2 SFC VIS 2 1/2 P0008 T00330011;LGA;
JFK;23.01.2023;3:51;23.01.2023 03:51;39.00;39.00;100.00;20.00;10.00;0.05;29.76;1007.90;4.00;;OVC;;;;600.00;;;;RA BR;;;;;;;31.75;KJFK 230351Z 02010KT 4SM RA BR OVC006 04/04 A2976 RMK AO2 PRESFR SLP079 P0005 T00390039 $;JFK;
LGA;23.01.2023;3:51;23.01.2023 03:51;38.00;34.00;85.69;30.00;7.00;0.11;29.78;1008.30;2.00;;OVC;;;;600.00;;;;RA BR;;;;;;;31.97;KLGA 230351Z 03007KT 2SM RA BR OVC006 03/01 A2978 RMK AO2 SFC VIS 3 PRESFR SLP083 P0011 T00330011;LGA;
JFK;23.01.2023;4:51;23.01.2023 04:51;39.00;38.00;95.78;30.00;11.00;0.07;29.70;1005.60;5.00;;OVC;;;;600.00;;;;RA BR;;;;;;;31.31;KJFK 230451Z 03011KT 5SM RA BR OVC006 04/03 A2970 RMK AO2 PRESFR SLP056 P0007 T00390033 400440022 $;JFK;
LGA;23.01.2023;4:51;23.01.2023 04:51;38.00;34.00;85.69;30.00;10.00;0.12;29.71;1006.20;2.00;;OVC;;;;600.00;;;;RA BR;;;;;;;30.37;KLGA 230451Z 03010KT 2SM RA BR OVC006 03/01 A2971 RMK AO2 SFC VIS 3 PRESFR SLP062 P0012 T00330011 400560028;LGA;
JFK;23.01.2023;5:51;23.01.2023 05:51;39.00;38.00;95.78;10.00;13.00;0.04;29.65;1003.80;5.00;;OVC;;;;500.00;;;;-RA BR;;;;;;;30.54;KJFK 230551Z COR 01013KT 5SM -RA BR OVC005 04/03 A2965 RMK AO2 SLP038 P0004 60045 T00390033 10039 20028 58057 $;JFK;
LGA;23.01.2023;5:51;23.01.2023 05:51;38.00;35.00;89.53;30.00;8.00;0.13;29.66;1004.20;2.00;;OVC;;;;600.00;;;;RA BR;;;;;;;31.38;KLGA 230551Z 03008KT 2SM RA BR OVC006 03/02 A2966 RMK AO2 SFC VIS 3 SLP042 P0013 60060 T00330017 10044 20033 58057;LGA;
JFK;23.01.2023;6:51;23.01.2023 06:51;38.00;38.00;100.00;360.00;12.00;0.03;29.60;1002.30;5.00;;OVC;;;;500.00;;;;-RA BR;;;;;;;29.51;KJFK 230651Z 36012KT 5SM -RA BR OVC005 03/03 A2960 RMK AO2 SLP023 P0003 T00330033 $;JFK;
LGA;23.01.2023;6:51;23.01.2023 06:51;38.00;35.00;89.53;350.00;9.00;0.06;29.61;1002.70;2.00;;OVC;;;;600.00;;;;-RA BR;;;;;;;30.85;KLGA 230651Z 35009KT 2SM -RA BR OVC006 03/02 A2961 RMK AO2 SFC VIS 3 SLP027 P0006 T00330017;LGA;
LGA;23.01.2023;7:51;23.01.2023 07:51;38.00;35.00;89.53;10.00;9.00;0.02;29.55;1000.70;2.00;;OVC;;;;600.00;;;;-RA BR;;;;;;;30.85;KLGA 230751Z 01009KT 2SM -RA BR OVC006 03/02 A2955 RMK AO2 SFC VIS 3 SLP007 P0002 T00330017;LGA;
JFK;23.01.2023;7:51;23.01.2023 07:51;39.00;38.00;95.78;30.00;12.00;0.01;29.55;1000.60;4.00;;OVC;;;;500.00;;;;-RA BR;;;;;;;30.91;KJFK 230751Z 03012KT 4SM -RA BR OVC005 04/03 A2955 RMK AO2 SLP006 P0001 T00390033 $;JFK;
LGA;23.01.2023;8:51;23.01.2023 08:51;38.00;35.00;89.53;10.00;7.00;0.01;29.53;999.90;2.00;;OVC;;;;600.00;;;;-RA BR;;;;;;;31.97;KLGA 230851Z 01007KT 2SM -RA BR OVC006 03/02 A2953 RMK AO2 SFC VIS 3 SNB18E24 SLP999 P0001 60009 T00330017 56043;LGA;
JFK;23.01.2023;8:51;23.01.2023 08:51;39.00;38.00;95.78;10.00;10.00;0.01;29.52;999.70;4.00;;OVC;;;;500.00;;;;-RA BR;;;;;;;31.75;KJFK 230851Z 01010KT 4SM -RA BR OVC005 04/03 A2952 RMK AO2 SLP997 P0001 60005 T00390033 56042 $;JFK;
JFK;23.01.2023;9:51;23.01.2023 09:51;39.00;38.00;95.78;350.00;12.00;T;29.54;1000.30;4.00;;OVC;;;;500.00;;;;-RA BR;;;;;;;30.91;KJFK 230951Z 35012KT 4SM -RA BR OVC005 04/03 A2954 RMK AO2 SLP003 P0000 T00390033 $;JFK;
LGA;23.01.2023;9:51;23.01.2023 09:51;39.00;35.00;85.76;350.00;11.00;T;29.55;1000.50;2.00;18.00;OVC;;;;600.00;;;;-RA BR;;;;;;;31.31;KLGA 230951Z 35011G18KT 2SM -RA BR OVC006 04/02 A2955 RMK AO2 SFC VIS 3 RAE01B18 SLP005 P0000 T00390017;LGA;
JFK;23.01.2023;10:09;23.01.2023 10:09;38.00;38.00;100.00;350.00;14.00;T;29.54;;2.50;;OVC;;;;500.00;;;;-RA BR;;;;;;;28.77;KJFK 231009Z 35014KT 2 1/2SM -RA BR OVC005 03/03 A2954 RMK AO2 CIG 004V008 P0000 T00330033 $;JFK;
JFK;23.01.2023;10:18;23.01.2023 10:18;38.00;38.00;100.00;340.00;14.00;T;29.53;;4.00;;OVC;;;;500.00;;;;-RA BR;;;;;;;28.77;KJFK 231018Z 34014KT 4SM -RA BR OVC005 03/03 A2953 RMK AO2 P0000 T00330033 $;JFK;
LGA;23.01.2023;10:48;23.01.2023 10:48;37.40;35.60;93.14;360.00;11.00;0.01;29.53;;6.00;;BKN;OVC;;;800.00;1400.00;;;-RA BR;;;;;;;29.29;KLGA 231048Z COR 36011KT 6SM -RA BR BKN008 OVC014 03/02 A2953 RMK AO2 P0001;LGA;
LGA;23.01.2023;10:51;23.01.2023 10:51;38.00;35.00;89.53;360.00;9.00;0.01;29.53;999.80;6.00;;BKN;OVC;;;800.00;1400.00;;;-RA BR;;;;;;;30.85;KLGA 231051Z COR 36009KT 6SM -RA BR BKN008 OVC014 03/02 A2953 RMK AO2 SLP998 P0001 T00330017;LGA;
JFK;23.01.2023;10:51;23.01.2023 10:51;38.00;37.00;96.52;360.00;15.00;T;29.51;999.40;4.00;;OVC;;;;500.00;;;;-RA BR;;;;;;;28.43;KJFK 231051Z 36015KT 4SM -RA BR OVC005 03/03 A2951 RMK AO2 SLP994 P0000 T00330028;JFK;
LGA;23.01.2023;11:51;23.01.2023 11:51;38.00;34.00;85.69;10.00;7.00;0.02;29.50;999.00;6.00;;BKN;OVC;;;800.00;2000.00;;;-RA BR;;;;;;;31.97;KLGA 231151Z COR 01007KT 6SM -RA BR BKN008 OVC020 03/01 A2950 RMK AO2 SLP990 931000 P0002 60012 70076 T00330011 10039 20033 58014;LGA;
JFK;23.01.2023;11:51;23.01.2023 11:51;38.00;37.00;96.52;360.00;10.00;0.01;29.52;999.50;8.00;;OVC;;;;700.00;;;;-RA;;;;;;;30.37;KJFK 231151Z 36010KT 8SM -RA OVC007 03/03 A2952 RMK AO2 SLP995 CIG 005V009 P0001 60006 70056 T00330028 10039 20028 58001;JFK;
LGA;23.01.2023;12:51;23.01.2023 12:51;38.00;34.00;85.69;340.00;12.00;T;29.52;999.60;7.00;;BKN;OVC;;;1100.00;2000.00;;;-RA;;;;;;;29.51;KLGA 231251Z 34012KT 7SM -RA BKN011 OVC020 03/01 A2952 RMK AO2 SLP996 P0000 T00330011;LGA;
JFK;23.01.2023;12:51;23.01.2023 12:51;38.00;37.00;96.52;360.00;9.00;T;29.53;999.90;7.00;;OVC;;;;1000.00;;;;-RA;;;;;;;30.85;KJFK 231251Z 36009KT 7SM -RA OVC010 03/03 A2953 RMK AO2 RAE02B47 SLP999 CIG 007V013 P0000 T00330028;JFK;
LGA;23.01.2023;13:51;23.01.2023 13:51;39.00;34.00;82.08;350.00;9.00;T;29.53;1000.00;7.00;;BKN;OVC;;;1100.00;2000.00;;;-RA;;;;;;;32.22;KLGA 231351Z 35009KT 7SM -RA BKN011 OVC020 04/01 A2953 RMK AO2 SLP000 P0000 T00390011;LGA;
JFK;23.01.2023;13:51;23.01.2023 13:51;39.00;38.00;95.78;340.00;8.00;0.02;29.54;1000.30;8.00;;BKN;OVC;;;1100.00;2400.00;;;-RA;;;;;;;32.74;KJFK 231351Z 34008KT 8SM -RA BKN011 OVC024 04/03 A2954 RMK AO2 SLP003 CIG 008V014 P0002 T00390033;JFK;
JFK;23.01.2023;14:33;23.01.2023 14:33;39.00;38.00;95.78;320.00;8.00;T;29.56;;3.00;;BKN;OVC;;;800.00;1600.00;;;-RA BR;;;;;;;32.74;KJFK 231433Z 32008KT 3SM -RA BR BKN008 OVC016 04/03 A2956 RMK AO2 SFC VIS 4 P0000 T00390033;JFK;
LGA;23.01.2023;14:51;23.01.2023 14:51;39.00;34.00;82.08;330.00;8.00;T;29.55;1000.80;5.00;;BKN;OVC;;;1100.00;2000.00;;;HZ;;;;;;;32.74;KLGA 231451Z 33008KT 5SM HZ BKN011 OVC020 04/01 A2955 RMK AO2 RAE36 SLP008 P0000 60000 T00390011 53018;LGA;
JFK;23.01.2023;14:51;23.01.2023 14:51;39.00;38.00;95.78;320.00;12.00;0.01;29.56;1000.80;2.00;;BKN;OVC;;;800.00;1900.00;;;-RA BR;;;;;;;30.91;KJFK 231451Z 32012KT 2SM R04R/6000VP6000FT -RA BR BKN008 OVC019 04/03 A2956 RMK AO2 SFC VIS 2 1/2 SLP008 P0001 60003 T00390033 53013;JFK;
LGA;23.01.2023;14:56;23.01.2023 14:56;38.00;34.00;85.69;310.00;11.00;T;29.55;;2.00;;BKN;OVC;;;600.00;1400.00;;;-RA BR;;;;;;;29.92;KLGA 231456Z 31011KT 2SM -RA BR BKN006 OVC014 03/01 A2955 RMK AO2 RAB54 P0000 T00330011;LGA;
LGA;23.01.2023;15:51;23.01.2023 15:51;38.00;34.00;85.69;320.00;13.00;0.03;29.55;1000.70;4.00;;BKN;OVC;;;800.00;1400.00;;;-RA BR;;;;;;;29.13;KLGA 231551Z 32013KT 4SM -RA BR BKN008 OVC014 03/01 A2955 RMK AO2 RAB1454 SLP007 P0003 T00330011;LGA;
JFK;23.01.2023;15:51;23.01.2023 15:51;38.00;37.00;96.52;310.00;13.00;0.01;29.56;1001.00;3.00;;BKN;OVC;;;900.00;2400.00;;;-RA BR;;;;;;;29.13;KJFK 231551Z 31013KT 3SM -RA BR BKN009 OVC024 03/03 A2956 RMK AO2 SFC VIS 5 SLP010 P0001 T00330028;JFK;
LGA;23.01.2023;16:01;23.01.2023 16:01;38.00;34.00;85.69;330.00;11.00;0.01;29.55;;5.00;;FEW;BKN;OVC;;600.00;1000.00;1600.00;;-RA BR;;;;;;;29.92;KLGA 231601Z 33011KT 5SM -RA BR FEW006 BKN010 OVC016 03/01 A2955 RMK AO2 P0001 T00330011;LGA;
LGA;23.01.2023;16:51;23.01.2023 16:51;38.00;33.00;82.66;330.00;10.00;0.03;29.54;1000.40;7.00;;BKN;BKN;OVC;;1300.00;1800.00;2400.00;;-RA;;;;;;;30.37;KLGA 231651Z 33010KT 7SM -RA BKN013 BKN018 OVC024 03/01 A2954 RMK AO2 SLP004 P0003 T00330006;LGA;
JFK;23.01.2023;16:51;23.01.2023 16:51;38.00;37.00;96.52;320.00;15.00;0.03;29.54;1000.40;8.00;;BKN;BKN;OVC;;900.00;1900.00;7000.00;;-RA;;;;;;;28.43;KJFK 231651Z 32015KT 8SM -RA BKN009 BKN019 OVC070 03/03 A2954 RMK AO2 SLP004 P0003 T00330028;JFK;
JFK;23.01.2023;17:51;23.01.2023 17:51;39.00;37.00;92.45;320.00;12.00;T;29.55;1000.60;6.00;;BKN;OVC;;;1000.00;1900.00;;;-RA BR;;;;;;;30.91;KJFK 231751Z 32012KT 6SM -RA BR BKN010 OVC019 04/03 A2955 RMK AO2 SLP006 CIG 008V012 P0000 60007 T00390028 10039 20033 55001;JFK;
LGA;23.01.2023;17:51;23.01.2023 17:51;39.00;34.00;82.08;310.00;13.00;T;29.54;1000.40;6.00;;BKN;BKN;OVC;;1100.00;1800.00;3700.00;;-RA;;;;;;;30.54;KLGA 231751Z 31013KT 6SM -RA BKN011 BKN018 OVC037 04/01 A2954 RMK AO2 SLP004 P0000 60006 T00390011 10039 20033 56004;LGA;
LGA;23.01.2023;18:10;23.01.2023 18:10;39.00;34.00;82.08;310.00;17.00;T;29.55;;6.00;;BKN;BKN;OVC;;1300.00;2300.00;3700.00;;-RASN;;;;;;;29.25;KLGA 231810Z 31017KT 6SM -RASN BKN013 BKN023 OVC037 04/01 A2955 RMK AO2 SNB10 P0000 T00390011;LGA;
LGA;23.01.2023;18:35;23.01.2023 18:35;38.00;32.00;79.08;310.00;16.00;0.02;29.55;;5.00;;BKN;BKN;OVC;;1300.00;1700.00;3700.00;;-RA HZ;;;;;;;28.11;KLGA 231835Z 31016KT 5SM -RA HZ BKN013 BKN017 OVC037 03/00 A2955 RMK AO2 SNB10E35 P0002 T00330000;LGA;
JFK;23.01.2023;18:51;23.01.2023 18:51;38.00;35.00;89.53;310.00;16.00;0.02;29.57;1001.20;9.00;;BKN;BKN;OVC;;1000.00;2200.00;3100.00;;-RA;;;;;;;28.11;KJFK 231851Z 31016KT 9SM -RA BKN010 BKN022 OVC031 03/02 A2957 RMK AO2 SLP012 P0002 T00330017;JFK;
LGA;23.01.2023;18:51;23.01.2023 18:51;37.00;32.00;81.93;310.00;17.00;0.02;29.56;1001.00;5.00;;BKN;OVC;;;1300.00;2600.00;;;-RA HZ;;;;;;;26.63;KLGA 231851Z 31017KT 5SM -RA HZ BKN013 OVC026 03/00 A2956 RMK AO2 SNB10E35 SLP010 P0002 T00280000;LGA;
JFK;23.01.2023;19:51;23.01.2023 19:51;37.00;34.00;88.78;310.00;16.00;0.01;29.62;1003.00;9.00;24.00;BKN;OVC;;;1400.00;2700.00;;;-RA;;;;;;;26.94;KJFK 231951Z 31016G24KT 9SM -RA BKN014 OVC027 03/01 A2962 RMK AO2 PRESRR SLP030 P0001 T00280011;JFK;
LGA;23.01.2023;19:51;23.01.2023 19:51;37.00;32.00;81.93;310.00;12.00;0.02;29.61;1002.80;10.00;;BKN;OVC;;;1200.00;2200.00;;;-RA;;;;;;;28.37;KLGA 231951Z 31012KT 10SM -RA BKN012 OVC022 03/00 A2961 RMK AO2 SLP028 P0002 T00280000;LGA;
LGA;23.01.2023;20:51;23.01.2023 20:51;38.00;32.00;79.08;310.00;16.00;0.05;29.66;1004.20;9.00;22.00;FEW;BKN;OVC;;1300.00;1800.00;2900.00;;-RA;;;;;;;28.11;KLGA 232051Z 31016G22KT 9SM -RA FEW013 BKN018 OVC029 03/00 A2966 RMK AO2 SLP042 P0005 60009 T00330000 53038;LGA;
JFK;23.01.2023;20:51;23.01.2023 20:51;37.00;35.00;92.76;310.00;15.00;0.03;29.66;1004.30;8.00;;BKN;OVC;;;1300.00;2500.00;;;-RA;;;;;;;27.26;KJFK 232051Z 31015KT 8SM -RA BKN013 OVC025 03/02 A2966 RMK AO2 SLP043 P0003 60006 T00280017 53037;JFK;
JFK;23.01.2023;21:34;23.01.2023 21:34;38.00;34.00;85.69;310.00;15.00;0.02;29.69;;10.00;22.00;BKN;BKN;BKN;BKN;1900.00;2900.00;5000.00;25000.00;-RA;;;;;;;28.43;KJFK 232134Z 31015G22KT 10SM -RA BKN019 BKN029 BKN050 BKN250 03/01 A2969 RMK AO2 P0002 T00330011;JFK;
LGA;23.01.2023;21:51;23.01.2023 21:51;39.00;30.90;72.45;310.00;17.00;T;29.69;1005.40;10.00;26.00;FEW;SCT;BKN;BKN;2100.00;3300.00;9500.00;16000.00;;;;;26.00;310.00;2023-01-23 21:03;29.25;KLGA 232151Z 31017G26KT 10SM FEW021 SCT033 BKN095 BKN160 04/M01 A2969 RMK AO2 PK WND 31026/2103 RAE18 SLP054 P0000 T00391006;LGA;
JFK;23.01.2023;21:51;23.01.2023 21:51;38.00;33.00;82.66;310.00;16.00;0.02;29.70;1005.70;10.00;27.00;BKN;BKN;BKN;BKN;1900.00;2900.00;5000.00;25000.00;;;;;27.00;310.00;2023-01-23 21:47;28.11;KJFK 232151Z 31016G27KT 10SM BKN019 BKN029 BKN050 BKN250 03/01 A2970 RMK AO2 PK WND 31027/2147 RAE37 SLP057 P0002 T00330006;JFK;
JFK;23.01.2023;22:44;23.01.2023 22:44;39.00;30.00;69.85;310.00;20.00;0.00;29.74;;10.00;26.00;BKN;BKN;;;3200.00;5000.00;;;;;;;26.00;300.00;2023-01-23 22:19;28.44;KJFK 232244Z 31020G26KT 10SM BKN032 BKN050 04/M01 A2974 RMK AO2 PK WND 30026/2219 T00391011;JFK;
JFK;23.01.2023;22:51;23.01.2023 22:51;38.00;30.00;72.93;310.00;18.00;0.00;29.74;1007.00;10.00;27.00;BKN;BKN;;;3200.00;5000.00;;;;;;;27.00;310.00;2023-01-23 22:49;27.52;KJFK 232251Z 31018G27KT 10SM BKN032 BKN050 03/M01 A2974 RMK AO2 PK WND 31027/2249 SLP070 T00331011;JFK;
LGA;23.01.2023;22:51;23.01.2023 22:51;39.00;28.00;64.37;300.00;24.00;0.00;29.74;1007.00;10.00;30.00;FEW;BKN;BKN;;2000.00;3300.00;9500.00;;;;;;30.00;290.00;2023-01-23 22:50;27.50;KLGA 232251Z 30024G30KT 10SM FEW020 BKN033 BKN095 04/M02 A2974 RMK AO2 PK WND 29030/2250 SLP070 T00391022;LGA;
LGA;23.01.2023;23:51;23.01.2023 23:51;37.00;26.10;64.38;320.00;20.00;0.00;29.80;1009.00;10.00;31.00;BKN;OVC;;;3000.00;7000.00;;;;;;;33.00;310.00;2023-01-23 23:33;25.78;KLGA 232351Z 32020G31KT 10SM BKN030 OVC070 03/M03 A2980 RMK AO2 PK WND 31033/2333 SLP090 931000 60009 T00281033 10039 20028 53048;LGA;
JFK;23.01.2023;23:51;23.01.2023 23:51;37.00;27.00;66.82;310.00;22.00;0.00;29.80;1009.00;10.00;32.00;BKN;;;;3400.00;;;;;;;;33.00;310.00;2023-01-23 23:47;25.27;KJFK 232351Z 31022G32KT 10SM BKN034 03/M03 A2980 RMK AO2 PK WND 31033/2347 SLP090 60008 T00281028 10039 20028 53047;JFK;
JFK;24.01.2023;0:51;24.01.2023 00:51;36.00;27.00;69.51;310.00;25.00;0.00;29.84;1010.30;10.00;32.00;SCT;BKN;;;2800.00;3500.00;;;;;;;32.00;320.00;2023-01-24 00:51;23.23;KJFK 240051Z 31025G32KT 10SM SCT028 BKN035 02/M03 A2984 RMK AO2 PK WND 32032/0051 SLP103 T00221028;JFK;
LGA;24.01.2023;0:51;24.01.2023 00:51;37.00;25.00;61.50;310.00;20.00;0.00;29.83;1010.10;10.00;27.00;BKN;OVC;;;3300.00;7000.00;;;;;;;35.00;320.00;2023-01-24 00:08;25.78;KLGA 240051Z 31020G27KT 10SM BKN033 OVC070 03/M04 A2983 RMK AO2 PK WND 32035/0008 SLP101 T00281039;LGA;
JFK;24.01.2023;1:51;24.01.2023 01:51;36.00;25.00;63.98;300.00;19.00;0.00;29.87;1011.40;10.00;33.00;BKN;;;;3400.00;;;;;;;;33.00;300.00;2023-01-24 01:42;24.73;KJFK 240151Z 30019G33KT 10SM BKN034 02/M04 A2987 RMK AO2 PK WND 30033/0142 SLP114 T00221039;JFK;
LGA;24.01.2023;1:51;24.01.2023 01:51;37.00;25.00;61.50;310.00;22.00;0.00;29.87;1011.60;10.00;31.00;BKN;BKN;;;3300.00;7000.00;;;;;;;33.00;320.00;2023-01-24 00:58;25.27;KLGA 240151Z 31022G31KT 10SM BKN033 BKN070 03/M04 A2987 RMK AO2 PK WND 32033/0058 SLP116 T00281039;LGA;
LGA;24.01.2023;2:51;24.01.2023 02:51;36.00;24.10;61.62;320.00;19.00;0.00;29.91;1012.90;10.00;29.00;BKN;;;;3000.00;;;;;;;;30.00;310.00;2023-01-24 01:53;24.73;KLGA 240251Z 32019G29KT 10SM BKN030 02/M04 A2991 RMK AO2 PK WND 31030/0153 SLP129 T00221044 53039;LGA;
JFK;24.01.2023;2:51;24.01.2023 02:51;36.00;25.00;63.98;310.00;20.00;0.00;29.93;1013.30;10.00;30.00;OVC;;;;3000.00;;;;;;;;33.00;310.00;2023-01-24 02:03;24.45;KJFK 240251Z 31020G30KT 10SM OVC030 02/M04 A2993 RMK AO2 PK WND 31033/0203 SLP133 T00221039 53043;JFK;
LGA;24.01.2023;3:42;24.01.2023 03:42;36.00;25.00;63.98;300.00;23.00;0.00;29.95;;10.00;28.00;OVC;;;;2800.00;;;;;;;;28.00;310.00;2023-01-24 03:41;23.69;KLGA 240342Z 30023G28KT 10SM OVC028 02/M04 A2995 RMK AO2 PK WND 31028/0341 T00221039;LGA;
LGA;24.01.2023;3:51;24.01.2023 03:51;36.00;24.10;61.62;310.00;18.00;0.00;29.95;1014.20;10.00;30.00;BKN;OVC;;;2800.00;3700.00;;;;;;;30.00;300.00;2023-01-24 03:44;25.01;KLGA 240351Z 31018G30KT 10SM BKN028 OVC037 02/M04 A2995 RMK AO2 PK WND 30030/0344 SLP142 T00221044;LGA;
JFK;24.01.2023;3:51;24.01.2023 03:51;35.00;25.00;66.31;310.00;22.00;0.00;29.95;1014.20;10.00;29.00;OVC;;;;3100.00;;;;;;;;34.00;310.00;2023-01-24 03:32;22.73;KJFK 240351Z 31022G29KT 10SM OVC031 02/M04 A2995 RMK AO2 PK WND 31034/0332 SLP142 T00171039;JFK;
LGA;24.01.2023;4:07;24.01.2023 04:07;36.00;24.10;61.62;320.00;16.00;0.00;29.95;;10.00;22.00;FEW;OVC;;;2800.00;3700.00;;;;;;;;;;25.63;KLGA 240407Z 32016G22KT 10SM FEW028 OVC037 02/M04 A2995 RMK AO2 T00221044;LGA;
JFK;24.01.2023;4:51;24.01.2023 04:51;36.00;25.00;63.98;300.00;18.00;0.00;29.97;1014.90;10.00;23.00;OVC;;;;3200.00;;;;;;;;30.00;300.00;2023-01-24 04:07;25.01;KJFK 240451Z 30018G23KT 10SM OVC032 02/M04 A2997 RMK AO2 PK WND 30030/0407 SLP149 T00221039 400390017;JFK;
LGA;24.01.2023;4:51;24.01.2023 04:51;36.00;23.00;58.85;300.00;14.00;0.00;29.97;1014.60;10.00;25.00;OVC;;;;3300.00;;;;;;;;31.00;320.00;2023-01-24 04:11;26.32;KLGA 240451Z 30014G25KT 10SM OVC033 02/M05 A2997 RMK AO2 PK WND 32031/0411 SLP146 T00221050 400390022;LGA;
JFK;24.01.2023;5:51;24.01.2023 05:51;36.00;21.90;56.18;290.00;18.00;0.00;29.99;1015.50;10.00;22.00;BKN;;;;3800.00;;;;;;;;29.00;320.00;2023-01-24 05:31;25.01;KJFK 240551Z 29018G22KT 10SM BKN038 02/M06 A2999 RMK AO2 PK WND 32029/0531 SLP155 T00221056 10028 20017 51022;JFK;
LGA;24.01.2023;5:51;24.01.2023 05:51;36.00;21.90;56.18;290.00;15.00;0.00;29.97;1015.00;10.00;21.00;BKN;;;;3900.00;;;;;;;;32.00;310.00;2023-01-24 05:00;25.97;KLGA 240551Z 29015G21KT 10SM BKN039 02/M06 A2997 RMK AO2 PK WND 31032/0500 SLP150 T00221056 10028 20022 51021;LGA;
JFK;24.01.2023;6:51;24.01.2023 06:51;36.00;23.00;58.85;290.00;13.00;0.00;30.01;1016.20;10.00;19.00;BKN;;;;4400.00;;;;;;;;;;;26.69;KJFK 240651Z 29013G19KT 10SM BKN044 02/M05 A3001 RMK AO2 SLP162 T00221050;JFK;
LGA;24.01.2023;6:51;24.01.2023 06:51;36.00;21.90;56.18;280.00;10.00;0.00;29.99;1015.60;10.00;;OVC;;;;4300.00;;;;;;;;;;;27.98;KLGA 240651Z 28010KT 10SM OVC043 02/M06 A2999 RMK AO2 SLP156 T00221056;LGA;
LGA;24.01.2023;7:51;24.01.2023 07:51;37.00;21.00;51.99;270.00;9.00;0.00;30.01;1016.10;10.00;;OVC;;;;4200.00;;;;;;;;;;;29.73;KLGA 240751Z 27009KT 10SM OVC042 03/M06 A3001 RMK AO2 SLP161 T00281061;LGA;
JFK;24.01.2023;7:51;24.01.2023 07:51;36.00;24.10;61.62;270.00;13.00;0.00;30.03;1016.80;10.00;;OVC;;;;4400.00;;;;;;;;;;;26.69;KJFK 240751Z 27013KT 10SM OVC044 02/M04 A3003 RMK AO2 SLP168 T00221044;JFK;
LGA;24.01.2023;8:51;24.01.2023 08:51;37.00;21.90;54.01;270.00;11.00;0.00;30.02;1016.40;10.00;;BKN;;;;4000.00;;;;;;;;;;;28.79;KLGA 240851Z 27011KT 10SM BKN040 03/M06 A3002 RMK AO2 SLP164 T00281056 51015;LGA;
JFK;24.01.2023;8:51;24.01.2023 08:51;36.00;24.10;61.62;270.00;10.00;0.00;30.04;1017.00;10.00;;OVC;;;;3900.00;;;;;;;;;;;27.98;KJFK 240851Z 27010KT 10SM OVC039 02/M04 A3004 RMK AO2 SLP170 T00221044 51015;JFK;
LGA;24.01.2023;9:51;24.01.2023 09:51;37.00;21.90;54.01;250.00;8.00;0.00;30.03;1016.70;10.00;;BKN;;;;3900.00;;;;;;;;;;;30.27;KLGA 240951Z 25008KT 10SM BKN039 03/M06 A3003 RMK AO2 SLP167 T00281056;LGA;
JFK;24.01.2023;9:51;24.01.2023 09:51;36.00;25.00;63.98;260.00;10.00;0.00;30.05;1017.40;10.00;;BKN;;;;3900.00;;;;;;;;;;;27.98;KJFK 240951Z 26010KT 10SM BKN039 02/M04 A3005 RMK AO2 SLP174 T00221039;JFK;
LGA;24.01.2023;10:51;24.01.2023 10:51;37.00;21.90;54.01;260.00;11.00;0.00;30.05;1017.50;10.00;19.00;OVC;;;;3700.00;;;;;;;;;;;28.79;KLGA 241051Z 26011G19KT 10SM OVC037 03/M06 A3005 RMK AO2 SLP175 T00281056;LGA;
JFK;24.01.2023;10:51;24.01.2023 10:51;36.00;26.10;66.97;260.00;13.00;0.00;30.07;1018.10;10.00;;BKN;;;;3800.00;;;;;;;;;;;26.69;KJFK 241051Z 26013KT 10SM BKN038 02/M03 A3007 RMK AO2 SLP181 T00221033;JFK;
LGA;24.01.2023;11:51;24.01.2023 11:51;37.00;21.90;54.01;260.00;13.00;0.00;30.07;1018.10;10.00;;BKN;;;;3700.00;;;;;;;;;;;27.97;KLGA 241151Z 26013KT 10SM BKN037 03/M06 A3007 RMK AO2 SLP181 70015 T00281056 10028 20022 53016;LGA;
JFK;24.01.2023;11:51;24.01.2023 11:51;36.00;26.10;66.97;250.00;11.00;0.00;30.09;1018.80;10.00;;BKN;;;;3800.00;;;;;;;;;;;27.52;KJFK 241151Z 25011KT 10SM BKN038 02/M03 A3009 RMK AO2 SLP188 70015 T00221033 10028 20017 53017;JFK;
LGA;24.01.2023;12:51;24.01.2023 12:51;37.00;21.00;51.99;250.00;14.00;0.00;30.07;1018.20;10.00;21.00;BKN;BKN;;;3900.00;25000.00;;;;;;;;;;27.61;KLGA 241251Z 25014G21KT 10SM BKN039 BKN250 03/M06 A3007 RMK AO2 SLP182 T00281061;LGA;
JFK;24.01.2023;12:51;24.01.2023 12:51;36.00;25.00;63.98;270.00;12.00;0.00;30.10;1019.00;10.00;;SCT;BKN;;;3900.00;21000.00;;;;;;;;;;27.09;KJFK 241251Z 27012KT 10SM SCT039 BKN210 02/M04 A3010 RMK AO2 SLP190 T00221039;JFK;
JFK;24.01.2023;13:51;24.01.2023 13:51;37.00;25.00;61.50;270.00;16.00;0.00;30.12;1020.00;10.00;;FEW;BKN;;;4000.00;19000.00;;;;;;;;;;26.94;KJFK 241351Z 27016KT 10SM FEW040 BKN190 03/M04 A3012 RMK AO2 SLP200 T00281039;JFK;
LGA;24.01.2023;13:51;24.01.2023 13:51;37.00;21.00;51.99;260.00;13.00;0.00;30.11;1019.40;10.00;18.00;FEW;SCT;;;4000.00;25000.00;;;;;;;;;;27.97;KLGA 241351Z COR 26013G18KT 10SM FEW040 SCT250 03/M06 A3011 RMK AO2 SLP194 T00281061;LGA;
LGA;24.01.2023;14:51;24.01.2023 14:51;39.00;21.00;48.06;270.00;14.00;0.00;30.11;1019.70;10.00;22.00;FEW;SCT;;;4000.00;25000.00;;;;;;;;;;30.19;KLGA 241451Z 27014G22KT 10SM FEW040 SCT250 04/M06 A3011 RMK AO2 SLP197 T00391061 53016;LGA;
JFK;24.01.2023;14:51;24.01.2023 14:51;40.00;26.10;57.47;240.00;15.00;0.00;30.13;1020.30;10.00;;SCT;;;;20000.00;;;;;;;;;;;31.02;KJFK 241451Z 24015KT 10SM SCT200 04/M03 A3013 RMK AO2 SLP203 T00441033 53015;JFK;
LGA;24.01.2023;15:51;24.01.2023 15:51;42.00;21.90;44.27;240.00;7.00;0.00;30.11;1019.50;10.00;17.00;FEW;;;;20000.00;;;;;;;;;;;37.09;KLGA 241551Z 24007G17KT 10SM FEW200 06/M06 A3011 RMK AO2 SLP195 T00561056;LGA;
JFK;24.01.2023;15:51;24.01.2023 15:51;41.00;25.00;52.61;260.00;17.00;0.00;30.13;1020.20;10.00;22.00;FEW;;;;20000.00;;;;;;;;;;;31.87;KJFK 241551Z 26017G22KT 10SM FEW200 05/M04 A3013 RMK AO2 SLP202 T00501039;JFK;
JFK;24.01.2023;16:51;24.01.2023 16:51;43.00;25.00;48.70;270.00;14.00;0.00;30.11;1019.50;10.00;;FEW;FEW;;;5000.00;20000.00;;;;;;;;;;35.34;KJFK 241651Z 27014KT 10SM FEW050 FEW200 06/M04 A3011 RMK AO2 SLP195 T00611039;JFK;
LGA;24.01.2023;16:51;24.01.2023 16:51;44.00;21.90;41.00;290.00;13.00;0.00;30.10;1019.10;10.00;22.00;SCT;;;;4700.00;;;;;;;;;;;37.07;KLGA 241651Z 29013G22KT 10SM SCT047 07/M06 A3010 RMK AO2 SLP191 T00671056;LGA;
LGA;24.01.2023;17:51;24.01.2023 17:51;45.00;23.00;41.50;290.00;17.00;0.00;30.09;1018.90;10.00;23.00;BKN;;;;4900.00;;;;;;;;;;;37.11;KLGA 241751Z 29017G23KT 10SM BKN049 07/M05 A3009 RMK AO2 SLP189 T00721050 10078 20028 56007;LGA;
JFK;24.01.2023;17:51;24.01.2023 17:51;46.00;26.10;45.47;270.00;16.00;0.00;30.10;1019.20;10.00;22.00;SCT;SCT;;;5000.00;25000.00;;;;;;;;;;38.67;KJFK 241751Z 27016G22KT 10SM SCT050 SCT250 08/M03 A3010 RMK AO2 SLP192 T00781033 10078 20022 58011;JFK;
LGA;24.01.2023;18:51;24.01.2023 18:51;46.00;24.10;41.84;290.00;13.00;0.00;30.10;1019.20;10.00;19.00;SCT;;;;5000.00;;;;;;;;27.00;270.00;2023-01-24 18:41;39.50;KLGA 241851Z 29013G19KT 10SM SCT050 08/M04 A3010 RMK AO2 PK WND 27027/1841 SLP192 T00781044;LGA;
JFK;24.01.2023;18:51;24.01.2023 18:51;48.00;27.00;43.77;290.00;17.00;0.00;30.11;1019.50;10.00;23.00;BKN;BKN;;;4900.00;25000.00;;;;;;;;;;41.04;KJFK 241851Z 29017G23KT 10SM BKN049 BKN250 09/M03 A3011 RMK AO2 SLP195 T00891028;JFK;
LGA;24.01.2023;19:51;24.01.2023 19:51;45.00;24.10;43.46;310.00;19.00;0.00;30.13;1020.10;10.00;27.00;SCT;BKN;;;4800.00;25000.00;;;;;;;29.00;310.00;2023-01-24 19:06;36.63;KLGA 241951Z 31019G27KT 10SM SCT048 BKN250 07/M04 A3013 RMK AO2 PK WND 31029/1906 SLP201 T00721044;LGA;
JFK;24.01.2023;19:51;24.01.2023 19:51;45.00;26.10;47.23;300.00;17.00;0.00;30.13;1020.30;10.00;27.00;BKN;BKN;;;5000.00;25000.00;;;;;;;29.00;310.00;2023-01-24 19:12;37.11;KJFK 241951Z 30017G27KT 10SM BKN050 BKN250 07/M03 A3013 RMK AO2 PK WND 31029/1912 SLP203 T00721033;JFK;
JFK;24.01.2023;20:51;24.01.2023 20:51;43.00;25.00;48.70;300.00;18.00;0.00;30.17;1021.50;10.00;25.00;BKN;BKN;;;4900.00;25000.00;;;;;;;27.00;300.00;2023-01-24 20:00;34.23;KJFK 242051Z 30018G25KT 10SM BKN049 BKN250 06/M04 A3017 RMK AO2 PK WND 30027/2000 PRESRR SLP215 T00611039 53023;JFK;
LGA;24.01.2023;20:51;24.01.2023 20:51;43.00;24.10;46.91;300.00;20.00;0.00;30.16;1021.30;10.00;26.00;SCT;BKN;;;4700.00;25000.00;;;;;;;26.00;290.00;2023-01-24 20:51;33.75;KLGA 242051Z 30020G26KT 10SM SCT047 BKN250 06/M04 A3016 RMK AO2 PK WND 29026/2051 SLP213 T00611044 53023;LGA;
LGA;24.01.2023;21:51;24.01.2023 21:51;41.00;21.90;46.19;310.00;15.00;0.00;30.18;1022.00;10.00;26.00;BKN;BKN;;;4700.00;25000.00;;;;;;;26.00;300.00;2023-01-24 21:45;32.45;KLGA 242151Z 31015G26KT 10SM BKN047 BKN250 05/M06 A3018 RMK AO2 PK WND 30026/2145 SLP220 T00501056;LGA;
JFK;24.01.2023;21:51;24.01.2023 21:51;42.00;24.10;48.56;300.00;21.00;0.00;30.19;1022.30;10.00;25.00;BKN;BKN;;;4700.00;25000.00;;;;;;;;;;32.32;KJFK 242151Z 30021G25KT 10SM BKN047 BKN250 06/M04 A3019 RMK AO2 SLP223 T00561044;JFK;
LGA;24.01.2023;22:51;24.01.2023 22:51;41.00;23.00;48.39;290.00;13.00;0.00;30.20;1022.60;10.00;23.00;BKN;BKN;;;4600.00;25000.00;;;;;;;;;;33.10;KLGA 242251Z 29013G23KT 10SM BKN046 BKN250 05/M05 A3020 RMK AO2 SLP226 T00501050;LGA;
JFK;24.01.2023;22:51;24.01.2023 22:51;41.00;23.00;48.39;310.00;17.00;0.00;30.21;1023.00;10.00;24.00;BKN;BKN;;;4600.00;25000.00;;;;;;;28.00;290.00;2023-01-24 22:08;31.87;KJFK 242251Z 31017G24KT 10SM BKN046 BKN250 05/M05 A3021 RMK AO2 PK WND 29028/2208 SLP230 T00501050;JFK;
LGA;24.01.2023;23:51;24.01.2023 23:51;41.00;21.90;46.19;290.00;11.00;0.00;30.23;1023.60;10.00;17.00;BKN;BKN;;;4900.00;25000.00;;;;;;;;;;33.84;KLGA 242351Z 29011G17KT 10SM BKN049 BKN250 05/M06 A3023 RMK AO2 SLP236 T00501056 10083 20050 53023;LGA;
JFK;24.01.2023;23:51;24.01.2023 23:51;40.00;23.00;50.50;300.00;15.00;0.00;30.24;1024.00;10.00;;BKN;BKN;;;4700.00;25000.00;;;;;;;26.00;300.00;2023-01-24 23:02;31.02;KJFK 242351Z 30015KT 10SM BKN047 BKN250 04/M05 A3024 RMK AO2 PK WND 30026/2302 SLP240 T00441050 10089 20044 53024;JFK;
LGA;25.01.2023;0:51;25.01.2023 00:51;41.00;23.00;48.39;310.00;11.00;0.00;30.25;1024.10;10.00;19.00;BKN;BKN;;;4400.00;25000.00;;;;;;;;;;33.84;KLGA 250051Z 31011G19KT 10SM BKN044 BKN250 05/M05 A3025 RMK AO2 SLP241 T00501050;LGA;
JFK;25.01.2023;0:51;25.01.2023 00:51;40.00;23.00;50.50;290.00;13.00;0.00;30.26;1024.50;10.00;;OVC;;;;4500.00;;;;;;;;26.00;320.00;2023-01-25 00:04;31.69;KJFK 250051Z 29013KT 10SM OVC045 04/M05 A3026 RMK AO2 PK WND 32026/0004 SLP245 T00441050;JFK;
JFK;25.01.2023;1:51;25.01.2023 01:51;40.00;26.10;57.47;290.00;12.00;0.00;30.28;1025.20;10.00;;OVC;;;;4400.00;;;;;;;;;;;32.06;KJFK 250151Z 29012KT 10SM OVC044 04/M03 A3028 RMK AO2 SLP252 T00441033;JFK;
LGA;25.01.2023;1:51;25.01.2023 01:51;40.00;21.90;48.21;310.00;11.00;0.00;30.27;1024.80;10.00;;BKN;BKN;;;4400.00;25000.00;;;;;;;;;;32.45;KLGA 250151Z 31011KT 10SM BKN044 BKN250 04/M06 A3027 RMK AO2 SLP248 T00441056;LGA;
JFK;25.01.2023;2:51;25.01.2023 02:51;40.00;23.00;50.50;290.00;11.00;0.00;30.30;1026.00;10.00;;OVC;;;;4400.00;;;;;;;;;;;32.45;KJFK 250251Z 29011KT 10SM OVC044 04/M05 A3030 RMK AO2 SLP260 T00441050 53020;JFK;
LGA;25.01.2023;2:51;25.01.2023 02:51;40.00;23.00;50.50;310.00;11.00;0.00;30.29;1025.50;10.00;19.00;BKN;BKN;;;4400.00;25000.00;;;;;;;;;;32.45;KLGA 250251Z 31011G19KT 10SM BKN044 BKN250 04/M05 A3029 RMK AO2 SLP255 T00441050 53019;LGA;
JFK;25.01.2023;3:51;25.01.2023 03:51;39.00;24.10;54.77;310.00;11.00;0.00;30.30;1026.10;10.00;;BKN;BKN;;;4500.00;25000.00;;;;;;;;;;31.31;KJFK 250351Z 31011KT 10SM BKN045 BKN250 04/M04 A3030 RMK AO2 SLP261 T00391044;JFK;
LGA;25.01.2023;3:51;25.01.2023 03:51;39.00;21.90;49.93;300.00;10.00;0.00;30.29;1025.60;10.00;;SCT;SCT;;;4200.00;25000.00;;;;;;;;;;31.75;KLGA 250351Z 30010KT 10SM SCT042 SCT250 04/M06 A3029 RMK AO2 SLP256 T00391056;LGA;
JFK;25.01.2023;4:51;25.01.2023 04:51;38.00;24.10;57.18;290.00;6.00;0.00;30.29;1025.60;10.00;;SCT;BKN;;;4300.00;25000.00;;;;;;;;;;32.64;KJFK 250451Z 29006KT 10SM SCT043 BKN250 03/M04 A3029 RMK AO2 SLP256 T00331044 400890017;JFK;
LGA;25.01.2023;4:51;25.01.2023 04:51;39.00;21.00;48.06;280.00;7.00;0.00;30.28;1025.20;10.00;;FEW;SCT;;;4200.00;25000.00;;;;;;;;;;33.31;KLGA 250451Z 28007KT 10SM FEW042 SCT250 04/M06 A3028 RMK AO2 SLP252 T00391061 400830022;LGA;
JFK;25.01.2023;5:51;25.01.2023 05:51;37.00;23.00;56.57;280.00;7.00;0.00;30.29;1025.60;10.00;;FEW;BKN;;;4200.00;25000.00;;;;;;;;;;30.87;KJFK 250551Z 28007KT 10SM FEW042 BKN250 03/M05 A3029 RMK AO2 SLP256 T00281050 10050 20028 58004;JFK;
LGA;25.01.2023;5:51;25.01.2023 05:51;39.00;19.90;45.87;300.00;8.00;0.00;30.28;1025.20;10.00;;BKN;;;;25000.00;;;;;;;;;;;32.74;KLGA 250551Z 30008KT 10SM BKN250 04/M07 A3028 RMK AO2 SLP252 T00391067 10050 20039 58003;LGA;
LGA;25.01.2023;6:51;25.01.2023 06:51;38.00;19.90;47.89;300.00;10.00;0.00;30.28;1025.40;10.00;;BKN;;;;25000.00;;;;;;;;;;;30.37;KLGA 250651Z 30010KT 10SM BKN250 03/M07 A3028 RMK AO2 SLP254 T00331067;LGA;
JFK;25.01.2023;6:51;25.01.2023 06:51;35.00;21.90;58.22;310.00;5.00;0.00;30.30;1025.80;10.00;;FEW;BKN;;;4200.00;25000.00;;;;;;;;;;30.08;KJFK 250651Z 31005KT 10SM FEW042 BKN250 02/M06 A3030 RMK AO2 SLP258 T00171056;JFK;
JFK;25.01.2023;7:51;25.01.2023 07:51;34.00;21.90;60.83;330.00;7.00;0.00;30.31;1026.30;10.00;;BKN;;;;25000.00;;;;;;;;;;;27.22;KJFK 250751Z 33007KT 10SM BKN250 01/M06 A3031 RMK AO2 SLP263 T00111056;JFK;
LGA;25.01.2023;7:51;25.01.2023 07:51;38.00;21.90;52.13;320.00;6.00;0.00;30.29;1025.70;10.00;;BKN;;;;25000.00;;;;;;;;;;;32.64;KLGA 250751Z 32006KT 10SM BKN250 03/M06 A3029 RMK AO2 SLP257 T00331056;LGA;
JFK;25.01.2023;8:51;25.01.2023 08:51;35.00;21.90;58.22;350.00;4.00;0.00;30.30;1026.00;10.00;;BKN;;;;25000.00;;;;;;;;;;;31.04;KJFK 250851Z 35004KT 10SM BKN250 02/M06 A3030 RMK AO2 SLP260 T00171056 50004;JFK;
LGA;25.01.2023;8:51;25.01.2023 08:51;37.00;21.00;51.99;320.00;5.00;0.00;30.28;1025.40;10.00;;BKN;;;;25000.00;;;;;;;;;;;32.33;KLGA 250851Z 32005KT 10SM BKN250 03/M06 A3028 RMK AO2 SLP254 T00281061 50002;LGA;
JFK;25.01.2023;9:51;25.01.2023 09:51;32.00;21.90;65.92;0.00;0.00;0.00;30.33;1026.90;10.00;;BKN;;;;25000.00;;;;;;;;;;;32.00;KJFK 250951Z 00000KT 10SM BKN250 00/M06 A3033 RMK AO2 SLP269 T00001056;JFK;
LGA;25.01.2023;9:51;25.01.2023 09:51;37.00;21.00;51.99;320.00;4.00;0.00;30.32;1026.60;10.00;;OVC;;;;22000.00;;;;;;;;;;;33.26;KLGA 250951Z 32004KT 10SM OVC220 03/M06 A3032 RMK AO2 SLP266 T00281061;LGA;
JFK;25.01.2023;10:51;25.01.2023 10:51;33.00;24.10;69.17;0.00;0.00;0.00;30.34;1027.40;10.00;;OVC;;;;18000.00;;;;;;;;;;;33.10;KJFK 251051Z 00000KT 10SM OVC180 01/M04 A3034 RMK AO2 SLP274 T00061044;JFK;
LGA;25.01.2023;10:51;25.01.2023 10:51;37.00;21.00;51.99;320.00;4.00;0.00;30.33;1026.90;10.00;;OVC;;;;17000.00;;;;;;;;;;;33.26;KLGA 251051Z 32004KT 10SM OVC170 03/M06 A3033 RMK AO2 SLP269 T00281061;LGA;
JFK;25.01.2023;11:51;25.01.2023 11:51;35.00;25.00;66.31;70.00;3.00;0.00;30.33;1027.10;10.00;;FEW;BKN;;;6500.00;14000.00;;;;;;;;;;32.23;KJFK 251151Z 07003KT 10SM FEW065 BKN140 02/M04 A3033 RMK AO2 SLP271 T00171039 10028 21006 50011;JFK;
LGA;25.01.2023;11:51;25.01.2023 11:51;37.00;21.00;51.99;40.00;5.00;0.00;30.31;1026.30;10.00;;BKN;OVC;;;15000.00;25000.00;;;;;;;;;;32.33;KLGA 251151Z 04005KT 10SM BKN150 OVC250 03/M06 A3031 RMK AO2 SLP263 T00281061 10039 20028 50009;LGA;
JFK;25.01.2023;12:51;25.01.2023 12:51;35.00;25.00;66.31;60.00;6.00;0.00;30.30;1025.90;10.00;;FEW;BKN;OVC;;6000.00;14000.00;26000.00;;;;;;;;;29.26;KJFK 251251Z 06006KT 10SM FEW060 BKN140 OVC260 02/M04 A3030 RMK AO2 SLP259 T00171039;JFK;
LGA;25.01.2023;12:51;25.01.2023 12:51;37.00;21.90;54.01;100.00;4.00;0.00;30.30;1026.00;10.00;;BKN;BKN;;;8500.00;12000.00;;;;;;;;;;33.26;KLGA 251251Z 10004KT 10SM BKN085 BKN120 03/M06 A3030 RMK AO2 SLP260 T00281056;LGA;
JFK;25.01.2023;13:51;25.01.2023 13:51;36.00;25.00;63.98;80.00;3.00;0.00;30.32;1026.60;10.00;;FEW;BKN;OVC;;4800.00;12000.00;26000.00;;;;;;;;;33.26;KJFK 251351Z 08003KT 10SM FEW048 BKN120 OVC260 02/M04 A3032 RMK AO2 SLP266 T00221039;JFK;
LGA;25.01.2023;13:51;25.01.2023 13:51;37.00;24.10;59.24;;4.00;0.00;30.31;1026.40;10.00;;SCT;BKN;OVC;;10000.00;16000.00;25000.00;;;;;;;;;33.26;KLGA 251351Z VRB04KT 10SM SCT100 BKN160 OVC250 03/M04 A3031 RMK AO2 PRESRR SLP264 T00281044;LGA;
JFK;25.01.2023;14:51;25.01.2023 14:51;38.00;26.10;62.14;90.00;9.00;0.00;30.30;1026.10;10.00;;FEW;SCT;BKN;BKN;4500.00;11000.00;16000.00;26000.00;;;;;;;;30.85;KJFK 251451Z 09009KT 10SM FEW045 SCT110 BKN160 BKN260 03/M03 A3030 RMK AO2 SLP261 T00331033 56009;JFK;
LGA;25.01.2023;14:51;25.01.2023 14:51;38.00;23.00;54.60;90.00;8.00;0.00;30.29;1025.60;10.00;;SCT;BKN;OVC;;10000.00;15000.00;25000.00;;;;;;;;;31.38;KLGA 251451Z 09008KT 10SM SCT100 BKN150 OVC250 03/M05 A3029 RMK AO2 SLP256 T00331050 58007;LGA;
LGA;25.01.2023;15:51;25.01.2023 15:51;40.00;21.90;48.21;90.00;8.00;0.00;30.28;1025.20;10.00;;FEW;BKN;OVC;;9000.00;14000.00;25000.00;;;;;;;;;33.84;KLGA 251551Z 09008KT 10SM FEW090 BKN140 OVC250 04/M06 A3028 RMK AO2 SLP252 T00441056;LGA;
JFK;25.01.2023;15:51;25.01.2023 15:51;39.00;28.90;66.79;80.00;7.00;0.00;30.29;1025.60;10.00;;FEW;BKN;OVC;;6500.00;15000.00;26000.00;;;;;;;;;33.31;KJFK 251551Z 08007KT 10SM FEW065 BKN150 OVC260 04/M02 A3029 RMK AO2 SLP256 T00391017;JFK;
LGA;25.01.2023;16:51;25.01.2023 16:51;41.00;25.00;52.61;;6.00;0.00;30.26;1024.60;10.00;;FEW;OVC;;;9000.00;12000.00;;;;;;;;;;36.37;KLGA 251651Z VRB06KT 10SM FEW090 OVC120 05/M04 A3026 RMK AO2 PRESFR SLP246 T00501039;LGA;
JFK;25.01.2023;16:51;25.01.2023 16:51;40.00;28.90;64.49;120.00;9.00;0.00;30.28;1025.20;10.00;;FEW;OVC;;;6500.00;13000.00;;;;;;;;;;33.34;KJFK 251651Z 12009KT 10SM FEW065 OVC130 04/M02 A3028 RMK AO2 SLP252 T00441017;JFK;
LGA;25.01.2023;17:51;25.01.2023 17:51;41.00;26.10;55.07;110.00;8.00;0.00;30.22;1023.40;10.00;;BKN;OVC;;;6000.00;8000.00;;;;;;;;;;35.20;KLGA 251751Z 11008KT 10SM BKN060 OVC080 05/M03 A3022 RMK AO2 SLP234 T00501033 10056 20022 58022;LGA;
JFK;25.01.2023;17:51;25.01.2023 17:51;40.00;30.00;67.45;80.00;6.00;0.00;30.23;1023.60;10.00;;SCT;OVC;;;5000.00;10000.00;;;;;;;;;;35.04;KJFK 251751Z 08006KT 10SM SCT050 OVC100 04/M01 A3023 RMK AO2 SLP236 T00441011 10044 20011 58025;JFK;
LGA;25.01.2023;18:10;25.01.2023 18:10;41.00;27.00;57.15;100.00;9.00;T;30.20;;6.00;;BKN;BKN;OVC;;2900.00;4900.00;7000.00;;-RA;;;;;;;34.70;KLGA 251810Z 10009KT 6SM -RA BKN029 BKN049 OVC070 05/M03 A3020 RMK AO2 RAB09 PRESFR P0000 T00501028;LGA;
LGA;25.01.2023;18:12;25.01.2023 18:12;41.00;27.00;57.15;100.00;9.00;T;30.20;;5.00;;BKN;BKN;OVC;;2900.00;4900.00;6500.00;;-RASN;;;;;;;34.70;KLGA 251812Z 10009KT 5SM -RASN BKN029 BKN049 OVC065 05/M03 A3020 RMK AO2 RAB09SNB12 PRESFR P0000 T00501028;LGA;
JFK;25.01.2023;18:40;25.01.2023 18:40;40.00;32.00;73.14;80.00;10.00;T;30.18;;9.00;;FEW;BKN;OVC;;2100.00;2900.00;7500.00;;-RA;;;;;;;32.87;KJFK 251840Z 08010KT 9SM -RA FEW021 BKN029 OVC075 04/00 A3018 RMK AO2 RAB06 PRESFR P0000 T00440000;JFK;
LGA;25.01.2023;18:41;25.01.2023 18:41;38.00;28.90;69.73;110.00;8.00;0.02;30.17;;4.00;;OVC;;;;2200.00;;;;-RA;;;;;;;31.38;KLGA 251841Z 11008KT 4SM -RA OVC022 03/M02 A3017 RMK AO2 RAB09SNB12E41 PRESFR P0002 T00331017;LGA;
JFK;25.01.2023;18:51;25.01.2023 18:51;38.00;33.00;82.66;60.00;11.00;0.01;30.16;1021.30;7.00;;BKN;OVC;;;1700.00;3600.00;;;RA;;;;;;;29.92;KJFK 251851Z 06011KT 7SM RA BKN017 OVC036 03/01 A3016 RMK AO2 RAB06 PRESFR SLP213 P0001 T00330006 $;JFK;
LGA;25.01.2023;18:51;25.01.2023 18:51;37.00;28.90;72.24;90.00;10.00;0.03;30.16;1021.30;5.00;;BKN;OVC;;;1600.00;2800.00;;;-RASN;;;;;;;29.24;KLGA 251851Z 09010KT 5SM -RASN BKN016 OVC028 03/M02 A3016 RMK AO2 RAB09SNB12E41B49 PRESFR SLP213 P0003 T00281017;LGA;
LGA;25.01.2023;19:00;25.01.2023 19:00;36.00;28.90;75.15;100.00;11.00;0.02;30.15;;2.50;;FEW;BKN;OVC;;800.00;1300.00;2800.00;;-RASN;;;;;;;27.52;KLGA 251900Z 10011KT 2 1/2SM -RASN FEW008 BKN013 OVC028 02/M02 A3015 RMK AO2 SFC VIS 4 P0002 T00221017;LGA;
LGA;25.01.2023;19:20;25.01.2023 19:20;35.00;30.00;81.46;100.00;9.00;0.07;30.15;;2.00;;BKN;BKN;OVC;;800.00;1400.00;2200.00;;-RASN;;;;;;;27.37;KLGA 251920Z 10009KT 2SM -RASN BKN008 BKN014 OVC022 02/M01 A3015 RMK AO2 SFC VIS 4 P0007 T00171011;LGA;
LGA;25.01.2023;19:39;25.01.2023 19:39;36.00;30.90;81.53;100.00;12.00;0.08;30.12;;2.50;;BKN;BKN;OVC;;800.00;1400.00;2600.00;;-RASN;;;;;;;27.09;KLGA 251939Z 10012KT 2 1/2SM -RASN BKN008 BKN014 OVC026 02/M01 A3012 RMK AO2 SFC VIS 5 PRESFR P0008 T00221006;LGA;
JFK;25.01.2023;19:51;25.01.2023 19:51;38.00;36.00;92.78;70.00;13.00;0.10;30.11;1019.40;5.00;;FEW;BKN;OVC;;1500.00;2500.00;4200.00;;-RA BR;;;;;;;29.13;KJFK 251951Z 07013KT 5SM -RA BR FEW015 BKN025 OVC042 03/02 A3011 RMK AO2 PRESFR SLP194 P0010 T00330022 $;JFK;
LGA;25.01.2023;19:51;25.01.2023 19:51;36.00;30.90;81.53;100.00;14.00;0.09;30.10;1019.30;3.00;;BKN;BKN;OVC;;700.00;1500.00;2600.00;;-RASN;;;;;;;26.32;KLGA 251951Z 10014KT 3SM -RASN BKN007 BKN015 OVC026 02/M01 A3010 RMK AO2 SFC VIS 6 PRESFR SLP193 P0009 T00221006;LGA;
LGA;25.01.2023;20:11;25.01.2023 20:11;37.00;32.00;81.93;100.00;13.00;T;30.07;;7.00;;SCT;BKN;OVC;;800.00;2500.00;4500.00;;-RA;;;;;;;27.97;KLGA 252011Z 10013KT 7SM -RA SCT008 BKN025 OVC045 03/00 A3007 RMK AO2 SNE10 P0000 T00280000;LGA;
JFK;25.01.2023;20:20;25.01.2023 20:20;38.00;36.00;92.78;80.00;11.00;0.02;30.06;;9.00;;FEW;SCT;OVC;;1100.00;3100.00;4000.00;;-RA;;;;;;;29.92;KJFK 252020Z 08011KT 9SM -RA FEW011 SCT031 OVC040 03/02 A3006 RMK AO2 PRESFR P0002 T00330022 $;JFK;
LGA;25.01.2023;20:37;25.01.2023 20:37;38.00;33.00;82.66;90.00;10.00;T;30.06;;9.00;;BKN;BKN;OVC;;900.00;2800.00;4500.00;;-RA;;;;;;;30.37;KLGA 252037Z 09010KT 9SM -RA BKN009 BKN028 OVC045 03/01 A3006 RMK AO2 SNE10 P0000 T00330006;LGA;
JFK;25.01.2023;20:48;25.01.2023 20:48;37.40;37.40;100.00;90.00;12.00;0.06;30.06;;6.00;;FEW;SCT;OVC;;900.00;2900.00;5000.00;;RA BR;;;;;;;28.87;KJFK 252048Z 09012KT 6SM RA BR FEW009 SCT029 OVC050 03/03 A3006 RMK AO2 P0006 $;JFK;
JFK;25.01.2023;20:51;25.01.2023 20:51;38.00;37.00;96.52;100.00;9.00;0.06;30.05;1017.60;6.00;;FEW;SCT;OVC;;900.00;2900.00;5000.00;;RA BR;;;;;;;30.85;KJFK 252051Z 10009KT 6SM RA BR FEW009 SCT029 OVC050 03/03 A3005 RMK AO2 SLP176 P0006 60017 T00330028 56060 $;JFK;
LGA;25.01.2023;20:51;25.01.2023 20:51;38.00;33.00;82.66;80.00;12.00;0.01;30.05;1017.70;8.00;;BKN;BKN;OVC;;900.00;1400.00;3300.00;;-RA;;;;;;;29.51;KLGA 252051Z 08012KT 8SM -RA BKN009 BKN014 OVC033 03/01 A3005 RMK AO2 SNE10 SLP177 P0001 60013 T00330006 56058 $;LGA;
LGA;25.01.2023;21:07;25.01.2023 21:07;38.00;33.00;82.66;90.00;11.00;0.01;30.03;;8.00;;FEW;BKN;OVC;;800.00;1200.00;3500.00;;-RA;;;;;;;29.92;KLGA 252107Z 09011KT 8SM -RA FEW008 BKN012 OVC035 03/01 A3003 RMK AO2 PRESFR P0001 T00330006 $;LGA;
LGA;25.01.2023;21:51;25.01.2023 21:51;40.00;35.00;82.80;100.00;16.00;0.04;29.96;1014.30;9.00;22.00;BKN;OVC;;;1000.00;3500.00;;;-RA;;;;;;;30.72;KLGA 252151Z 10016G22KT 9SM -RA BKN010 OVC035 04/02 A2996 RMK AO2 PRESFR SLP143 P0004 T00440017 $;LGA;
JFK;25.01.2023;21:51;25.01.2023 21:51;42.00;41.00;95.84;110.00;20.00;0.10;29.96;1014.50;6.00;27.00;FEW;FEW;OVC;;900.00;2900.00;7000.00;;-RA BR;;;;27.00;110.00;2023-01-25 21:51;32.55;KJFK 252151Z 11020G27KT 6SM -RA BR FEW009 FEW029 OVC070 06/05 A2996 RMK AO2 PK WND 11027/2151 PRESFR SLP145 P0010 T00560050 $;JFK;
LGA;25.01.2023;22:10;25.01.2023 22:10;41.00;36.00;82.22;100.00;14.00;T;29.93;;9.00;;BKN;OVC;;;900.00;3000.00;;;-RA;;;;;;;32.76;KLGA 252210Z 10014KT 9SM -RA BKN009 OVC030 05/02 A2993 RMK AO2 P0000 T00500022 $;LGA;
JFK;25.01.2023;22:38;25.01.2023 22:38;43.00;42.00;96.60;110.00;20.00;T;29.92;;8.00;31.00;BKN;BKN;OVC;;900.00;2900.00;5500.00;;-RA;;;;32.00;110.00;2023-01-25 22:11;33.75;KJFK 252238Z 11020G31KT 8SM -RA BKN009 BKN029 OVC055 06/06 A2992 RMK AO2 PK WND 11032/2211 RAE18B35 P0000 T00610056 $;JFK;
LGA;25.01.2023;22:51;25.01.2023 22:51;44.00;39.00;82.12;110.00;13.00;T;29.92;1013.10;10.00;17.00;OVC;;;;900.00;;;;-RA;;;;;;;37.07;KLGA 252251Z 11013G17KT 10SM -RA OVC009 07/04 A2992 RMK AO2 RAE21B50 SLP131 P0000 T00670039 $;LGA;
JFK;25.01.2023;22:51;25.01.2023 22:51;43.00;42.00;96.60;110.00;21.00;T;29.91;1012.70;8.00;32.00;BKN;BKN;OVC;;800.00;2100.00;5000.00;;-RA;;;;32.00;110.00;2023-01-25 22:45;33.52;KJFK 252251Z 11021G32KT 8SM -RA BKN008 BKN021 OVC050 06/06 A2991 RMK AO2 PK WND 11032/2245 RAE18B35 SLP127 P0000 T00610056 $;JFK;
LGA;25.01.2023;23:14;25.01.2023 23:14;45.00;39.00;79.36;110.00;22.00;T;29.89;;10.00;28.00;OVC;;;;1100.00;;;;;;;;28.00;110.00;2023-01-25 23:13;35.99;KLGA 252314Z 11022G28KT 10SM OVC011 07/04 A2989 RMK AO2 PK WND 11028/2313 RAE03 PRESFR P0000 T00720039 $;LGA;
LGA;25.01.2023;23:43;25.01.2023 23:43;45.00;39.00;79.36;100.00;18.00;0.03;29.87;;7.00;24.00;BKN;OVC;;;800.00;1200.00;;;-RA;;;;28.00;110.00;2023-01-25 23:13;36.86;KLGA 252343Z 10018G24KT 7SM -RA BKN008 OVC012 07/04 A2987 RMK AO2 PK WND 11028/2313 RAE03B18 P0003 T00720039 $;LGA;
LGA;25.01.2023;23:51;25.01.2023 23:51;45.00;40.00;82.19;110.00;17.00;0.05;29.86;1011.20;6.00;24.00;BKN;OVC;;;800.00;1100.00;;;RA;;;;28.00;110.00;2023-01-25 23:13;37.11;KLGA 252351Z 11017G24KT 6SM RA BKN008 OVC011 07/04 A2986 RMK AO2 PK WND 11028/2313 RAE03B18 SLP112 931000 P0005 60022 T00720044 10078 20017 56065 $;LGA;
JFK;25.01.2023;23:51;25.01.2023 23:51;45.00;44.00;96.63;110.00;17.00;0.01;29.86;1011.20;6.00;29.00;OVC;;;;700.00;;;;-RA BR;;;;30.00;110.00;2023-01-25 23:24;37.11;KJFK 252351Z 11017G29KT 6SM -RA BR OVC007 07/07 A2986 RMK AO2 PK WND 11030/2324 RAE07B28 SLP112 P0001 60028 T00720067 10072 20028 56064 $;JFK;
LGA;26.01.2023;0:51;26.01.2023 00:51;47.00;43.00;86.21;120.00;20.00;0.25;29.76;1007.60;5.00;29.00;BKN;OVC;;;800.00;1400.00;;;RA BR;;;;31.00;120.00;2023-01-26 00:33;38.93;KLGA 260051Z 12020G29KT 5SM RA BR BKN008 OVC014 08/06 A2976 RMK AO2 PK WND 12031/0033 PRESFR SLP076 P0025 T00830061 $;LGA;
JFK;26.01.2023;0:51;26.01.2023 00:51;47.00;47.00;100.00;110.00;21.00;0.14;29.78;1008.40;4.00;27.00;OVC;;;;500.00;;;;+RA BR;;;;27.00;110.00;2023-01-26 00:29;38.73;KJFK 260051Z 11021G27KT 4SM +RA BR OVC005 08/08 A2978 RMK AO2 PK WND 11027/0029 PRESFR SLP084 P0014 T00830083 $;JFK;
JFK;26.01.2023;1:51;26.01.2023 01:51;49.00;49.00;100.00;130.00;19.00;0.14;29.70;1005.70;4.00;34.00;OVC;;;;500.00;;;;-RA BR;;;;34.00;120.00;2023-01-26 01:42;41.79;KJFK 260151Z 13019G34KT 4SM -RA BR OVC005 09/09 A2970 RMK AO2 PK WND 12034/0142 SLP057 P0014 T00940094 $;JFK;
LGA;26.01.2023;1:51;26.01.2023 01:51;50.00;46.00;86.06;130.00;14.00;0.21;29.68;1004.90;4.00;26.00;BKN;OVC;;;800.00;1200.00;;;+RA BR;;;;33.00;110.00;2023-01-26 01:02;50.00;KLGA 260151Z 13014G26KT 4SM +RA BR BKN008 OVC012 10/08 A2968 RMK AO2 PK WND 11033/0102 PRESFR SLP049 P0021 T01000078 $;LGA;
JFK;26.01.2023;2:16;26.01.2023 02:16;50.00;50.00;100.00;130.00;19.00;0.08;29.66;;3.00;26.00;OVC;;;;400.00;;;;+RA BR;;;;30.00;120.00;2023-01-26 01:53;50.00;KJFK 260216Z 13019G26KT 3SM +RA BR OVC004 10/10 A2966 RMK AO2 PK WND 12030/0153 PRESFR P0008 T01000100 $;JFK;
LGA;26.01.2023;2:37;26.01.2023 02:37;52.00;49.00;89.13;150.00;19.00;0.22;29.61;;5.00;28.00;BKN;OVC;;;600.00;1100.00;;;RA BR;;;;32.00;130.00;2023-01-26 02:08;52.00;KLGA 260237Z 15019G28KT 5SM RA BR BKN006 OVC011 11/09 A2961 RMK AO2 PK WND 13032/0208 P0022 T01110094 $;LGA;
JFK;26.01.2023;2:51;26.01.2023 02:51;50.00;50.00;100.00;150.00;20.00;0.16;29.63;1003.30;3.00;27.00;OVC;;;;300.00;;;;+RA BR;;;;30.00;120.00;2023-01-26 01:53;50.00;KJFK 260251Z 15020G27KT 3SM +RA BR OVC003 10/10 A2963 RMK AO2 PK WND 12030/0153 SLP033 P0016 60044 T01000100 56079 $;JFK;
LGA;26.01.2023;2:51;26.01.2023 02:51;53.00;49.00;85.59;160.00;25.00;0.26;29.61;1002.50;5.00;32.00;BKN;BKN;OVC;;700.00;1100.00;2000.00;;RA BR;;;;32.00;160.00;2023-01-26 02:47;53.10;KLGA 260251Z 16025G32KT 5SM RA BR BKN007 BKN011 OVC020 12/09 A2961 RMK AO2 PK WND 16032/0247 SLP025 P0026 60072 T01170094 56086 $;LGA;
JFK;26.01.2023;3:45;26.01.2023 03:45;50.00;50.00;100.00;170.00;18.00;0.21;29.58;;0.50;25.00;OVC;;;;400.00;;;;-RA BR;;;;32.00;160.00;2023-01-26 03:02;50.00;KJFK 260345Z 17018G25KT 1/2SM R04R/P6000FT -RA BR OVC004 10/10 A2958 RMK AO2 PK WND 16032/0302 SFC VIS 4 PRESFR P0021 $;JFK;
LGA;26.01.2023;3:48;26.01.2023 03:48;53.60;50.00;87.56;170.00;21.00;0.14;29.53;;8.00;39.00;BKN;OVC;;;800.00;2500.00;;;-RA;;;;39.00;180.00;2023-01-26 03:45;53.60;KLGA 260348Z 17021G39KT 8SM -RA BKN008 OVC025 12/10 A2953 RMK AO2 PK WND 18039/0345 PRESFR P0014 $;LGA;
JFK;26.01.2023;3:51;26.01.2023 03:51;50.00;50.00;100.00;170.00;19.00;0.21;29.57;1001.10;0.50;;OVC;;;;400.00;;;;-RA BR;;;;32.00;160.00;2023-01-26 03:02;50.00;KJFK 260351Z 17019KT 1/2SM R04R/P6000FT -RA BR OVC004 10/10 A2957 RMK AO2 PK WND 16032/0302 SFC VIS 4 PRESFR SLP011 P0021 T01000100 $;JFK;
LGA;26.01.2023;3:51;26.01.2023 03:51;53.00;49.00;85.59;170.00;22.00;0.15;29.52;999.70;9.00;39.00;BKN;OVC;;;800.00;2700.00;;;-RA;;;;39.00;180.00;2023-01-26 03:45;53.10;KLGA 260351Z 17022G39KT 9SM -RA BKN008 OVC027 12/09 A2952 RMK AO2 PK WND 18039/0345 PRESFR SLP997 P0015 T01170094 $;LGA;
LGA;26.01.2023;4:51;26.01.2023 04:51;54.00;50.00;86.29;180.00;15.00;0.04;29.50;998.90;10.00;29.00;OVC;;;;800.00;;;;-RA;;;;35.00;160.00;2023-01-26 03:58;54.00;KLGA 260451Z 18015G29KT 10SM -RA OVC008 12/10 A2950 RMK AO2 PK WND 16035/0358 SLP989 P0004 T01220100 401280017 $;LGA;
JFK;26.01.2023;4:51;26.01.2023 04:51;50.00;50.00;100.00;180.00;22.00;0.04;29.51;999.40;6.00;28.00;OVC;;;;400.00;;;;-RA BR;;;;30.00;170.00;2023-01-26 04:31;50.00;KJFK 260451Z 18022G28KT 6SM -RA BR OVC004 10/10 A2951 RMK AO2 PK WND 17030/0431 SLP994 P0004 T01000100 401111006 $;JFK;
JFK;26.01.2023;5:20;26.01.2023 05:20;50.00;50.00;100.00;190.00;20.00;0.01;29.53;;0.75;27.00;OVC;;;;300.00;;;;-RA BR;;;;28.00;190.00;2023-01-26 05:02;50.00;KJFK 260520Z 19020G27KT 3/4SM R04R/P6000FT -RA BR OVC003 10/10 A2953 RMK AO2 PK WND 19028/0502 SFC VIS 3 P0001 T01000100 $;JFK;
JFK;26.01.2023;5:51;26.01.2023 05:51;50.00;50.00;100.00;180.00;21.00;0.03;29.49;998.40;0.75;28.00;OVC;;;;300.00;;;;-RA BR;;;;28.00;190.00;2023-01-26 05:48;50.00;KJFK 260551Z 18021G28KT 3/4SM R04R/P6000FT -RA BR OVC003 10/10 A2949 RMK AO2 PK WND 19028/0548 SFC VIS 3 SLP984 P0003 60072 T01000100 10111 20072 56049 $;JFK;
LGA;26.01.2023;5:51;26.01.2023 05:51;54.00;51.00;89.88;180.00;13.00;0.07;29.45;997.40;9.00;;OVC;;;;800.00;;;;-RA;;;;26.00;180.00;2023-01-26 05:06;54.00;KLGA 260551Z 18013KT 9SM -RA OVC008 12/11 A2945 RMK AO2 PK WND 18026/0506 SLP974 P0007 60098 T01220106 10128 20072 58024 $;LGA;
LGA;26.01.2023;6:45;26.01.2023 06:45;53.60;51.80;93.60;200.00;8.00;0.02;29.43;;10.00;;BKN;OVC;;;600.00;1800.00;;;-RA;;;;;;;53.60;KLGA 260645Z 20008KT 10SM -RA BKN006 OVC018 12/11 A2943 RMK AO2 P0002 $;LGA;
LGA;26.01.2023;6:51;26.01.2023 06:51;54.00;51.00;89.88;200.00;6.00;0.03;29.42;996.20;9.00;;BKN;OVC;;;600.00;1600.00;;;-RA;;;;;;;54.00;KLGA 260651Z 20006KT 9SM -RA BKN006 OVC016 12/11 A2942 RMK AO2 SLP962 P0003 T01220106 $;LGA;
JFK;26.01.2023;6:51;26.01.2023 06:51;50.00;50.00;100.00;180.00;16.00;0.06;29.44;996.90;0.75;;OVC;;;;300.00;;;;-RA BR;;;;28.00;170.00;2023-01-26 06:16;50.00;KJFK 260651Z 18016KT 3/4SM R04R/P6000FT -RA BR OVC003 10/10 A2944 RMK AO2 PK WND 17028/0616 SFC VIS 1 3/4 SLP969 P0006 T01000100 $;JFK;
LGA;26.01.2023;7:47;26.01.2023 07:47;53.60;51.80;93.60;260.00;11.00;0.23;29.42;;3.00;17.00;SCT;BKN;OVC;;500.00;1100.00;2100.00;;RA BR;;;;;;;53.60;KLGA 260747Z 26011G17KT 3SM RA BR SCT005 BKN011 OVC021 12/11 A2942 RMK AO2 P0023 $;LGA;
LGA;26.01.2023;7:51;26.01.2023 07:51;54.00;51.00;89.88;280.00;7.00;0.23;29.41;996.00;5.00;17.00;FEW;BKN;OVC;;500.00;1100.00;2500.00;;-RA BR;;;;;;;54.00;KLGA 260751Z 28007G17KT 5SM -RA BR FEW005 BKN011 OVC025 12/11 A2941 RMK AO2 SLP960 P0023 T01220106 $;LGA;
JFK;26.01.2023;7:51;26.01.2023 07:51;50.00;50.00;100.00;250.00;14.00;0.03;29.44;996.70;0.75;;BKN;BKN;OVC;;300.00;4600.00;7000.00;;+RA BR;;;;;;;50.00;KJFK 260751Z 25014KT 3/4SM R04R/P6000FT +RA BR BKN003 BKN046 OVC070 10/10 A2944 RMK AO2 SFC VIS 2 1/2 SLP967 P0003 T01000100 $;JFK;
JFK;26.01.2023;7:58;26.01.2023 07:58;49.00;49.00;100.00;250.00;10.00;0.07;29.44;;0.75;;SCT;BKN;OVC;;600.00;2500.00;7000.00;;RA BR;;;;;;;44.16;KJFK 260758Z 25010KT 3/4SM R04R/P6000FT RA BR SCT006 BKN025 OVC070 09/09 A2944 RMK AO2 WSHFT 0740 SFC VIS 6 P0007 T00940094 $;JFK;
JFK;26.01.2023;8:00;26.01.2023 08:00;49.00;49.00;100.00;240.00;11.00;0.08;29.44;;6.00;;SCT;BKN;OVC;;600.00;2500.00;7000.00;;RA BR;;;;;;;43.82;KJFK 260800Z 24011KT 6SM RA BR SCT006 BKN025 OVC070 09/09 A2944 RMK AO2 WSHFT 0740 P0008 T00940094 $;JFK;
JFK;26.01.2023;8:12;26.01.2023 08:12;50.00;50.00;100.00;240.00;10.00;0.09;29.45;;10.00;;FEW;BKN;OVC;;500.00;1200.00;2200.00;;-RA;;;;;;;50.00;KJFK 260812Z 24010KT 10SM -RA FEW005 BKN012 OVC022 10/10 A2945 RMK AO2 WSHFT 0740 P0009 T01000100 $;JFK;
LGA;26.01.2023;8:14;26.01.2023 08:14;54.00;48.00;80.07;260.00;16.00;0.01;29.42;;10.00;21.00;FEW;BKN;OVC;;1300.00;3900.00;5500.00;;;;;;;;;54.00;KLGA 260814Z 26016G21KT 10SM FEW013 BKN039 OVC055 12/09 A2942 RMK AO2 RAE06 P0001 T01220089 $;LGA;
JFK;26.01.2023;8:44;26.01.2023 08:44;51.00;49.00;92.14;260.00;16.00;0.11;29.43;;10.00;;SCT;OVC;;;1400.00;7000.00;;;;;;;;;;51.10;KJFK 260844Z 26016KT 10SM SCT014 OVC070 11/09 A2943 RMK AO2 WSHFT 0740 RAE33 P0011 T01060094 $;JFK;
LGA;26.01.2023;8:45;26.01.2023 08:45;53.60;46.40;76.50;260.00;12.00;0.01;29.43;;10.00;;BKN;BKN;OVC;;1800.00;6000.00;8000.00;;;;;;;;;53.60;KLGA 260845Z 26012KT 10SM BKN018 BKN060 OVC080 12/08 A2943 RMK AO2 RAE06 P0001 $;LGA;
JFK;26.01.2023;8:51;26.01.2023 08:51;51.00;49.00;92.14;270.00;16.00;0.11;29.44;996.90;10.00;22.00;SCT;OVC;;;1400.00;7000.00;;;;;;;;;;51.10;KJFK 260851Z 27016G22KT 10SM SCT014 OVC070 11/09 A2944 RMK AO2 WSHFT 0740 RAE33 SLP969 P0011 60020 T01060094 55015 $;JFK;
LGA;26.01.2023;8:51;26.01.2023 08:51;53.00;47.00;79.40;260.00;11.00;0.01;29.43;996.40;10.00;;SCT;BKN;OVC;;1800.00;6000.00;8000.00;;;;;;;;;53.10;KLGA 260851Z 26011KT 10SM SCT018 BKN060 OVC080 12/08 A2943 RMK AO2 RAE06 SLP964 P0001 60027 T01170083 55010 $;LGA;
LGA;26.01.2023;9:51;26.01.2023 09:51;51.00;44.00;76.86;250.00;11.00;0.00;29.42;996.30;10.00;;FEW;FEW;;;5000.00;11000.00;;;;;;;;;;51.10;KLGA 260951Z 25011KT 10SM FEW050 FEW110 11/07 A2942 RMK AO2 SLP963 T01060067 $;LGA;
JFK;26.01.2023;9:51;26.01.2023 09:51;49.00;46.00;89.67;270.00;14.00;0.00;29.43;996.70;10.00;;FEW;OVC;;;1500.00;7000.00;;;;;;;;;;42.95;KJFK 260951Z 27014KT 10SM FEW015 OVC070 09/08 A2943 RMK AO2 SLP967 T00940078 $;JFK;
JFK;26.01.2023;10:51;26.01.2023 10:51;46.00;43.00;89.20;260.00;15.00;0.00;29.46;997.60;10.00;;FEW;SCT;BKN;;1800.00;7000.00;11000.00;;;;;;;;;38.93;KJFK 261051Z 26015KT 10SM FEW018 SCT070 BKN110 08/06 A2946 RMK AO2 SLP976 T00780061 $;JFK;
LGA;26.01.2023;10:51;26.01.2023 10:51;49.00;41.00;74.05;270.00;15.00;0.00;29.44;997.00;10.00;22.00;FEW;SCT;BKN;;1900.00;2500.00;9000.00;;;;;;;;;42.69;KLGA 261051Z 27015G22KT 10SM FEW019 SCT025 BKN090 09/05 A2944 RMK AO2 SLP970 T00940050 $;LGA;
LGA;26.01.2023;11:05;26.01.2023 11:05;49.00;40.00;70.95;270.00;17.00;0.00;29.46;;10.00;23.00;BKN;BKN;;;2400.00;9000.00;;;;;;;;;;42.22;KLGA 261105Z 27017G23KT 10SM BKN024 BKN090 09/04 A2946 RMK AO2 T00940044;LGA;
LGA;26.01.2023;11:51;26.01.2023 11:51;47.00;36.00;65.63;270.00;18.00;0.00;29.48;998.40;10.00;26.00;BKN;BKN;;;2900.00;10000.00;;;;;;;27.00;260.00;2023-01-26 11:29;39.36;KLGA 261151Z 27018G26KT 10SM BKN029 BKN100 08/02 A2948 RMK AO2 PK WND 26027/1129 SLP984 60027 70147 T00830022 10122 20083 53020;LGA;
JFK;26.01.2023;11:51;26.01.2023 11:51;45.00;40.00;82.19;260.00;20.00;0.00;29.51;999.10;10.00;25.00;FEW;BKN;BKN;;2200.00;2900.00;9500.00;;;;;;;;;36.41;KJFK 261151Z 26020G25KT 10SM FEW022 BKN029 BKN095 07/04 A2951 RMK AO2 SLP991 60020 70120 T00720044 10111 20072 53022;JFK;
LGA;26.01.2023;12:27;26.01.2023 12:27;46.00;32.00;57.87;260.00;18.00;0.00;29.50;;10.00;30.00;FEW;SCT;SCT;;2400.00;3500.00;10000.00;;;;;;30.00;260.00;2023-01-26 12:23;38.18;KLGA 261227Z 26018G30KT 10SM FEW024 SCT035 SCT100 08/00 A2950 RMK AO2 PK WND 26030/1223 T00780000;LGA;
JFK;26.01.2023;12:34;26.01.2023 12:34;44.00;37.00;75.93;260.00;18.00;0.00;29.53;;10.00;;SCT;SCT;;;3300.00;9500.00;;;;;;;26.00;260.00;2023-01-26 12:09;35.68;KJFK 261234Z 26018KT 10SM SCT033 SCT095 07/03 A2953 RMK AO2 PK WND 26026/1209 T00670028;JFK;
JFK;26.01.2023;12:51;26.01.2023 12:51;44.00;34.00;67.41;270.00;20.00;0.00;29.54;1000.20;10.00;28.00;SCT;SCT;;;3300.00;9500.00;;;;;;;28.00;270.00;2023-01-26 12:49;35.21;KJFK 261251Z 27020G28KT 10SM SCT033 SCT095 07/01 A2954 RMK AO2 PK WND 27028/1249 SLP002 T00670011;JFK;
LGA;26.01.2023;12:51;26.01.2023 12:51;45.00;32.00;60.11;260.00;19.00;0.00;29.52;999.50;10.00;26.00;FEW;SCT;SCT;;2400.00;3500.00;10000.00;;;;;;30.00;260.00;2023-01-26 12:23;36.63;KLGA 261251Z 26019G26KT 10SM FEW024 SCT035 SCT100 07/00 A2952 RMK AO2 PK WND 26030/1223 SLP995 T00720000;LGA;
JFK;26.01.2023;13:51;26.01.2023 13:51;44.00;32.00;62.21;260.00;24.00;0.00;29.57;1001.30;10.00;32.00;BKN;BKN;;;4200.00;9000.00;;;;;;;32.00;270.00;2023-01-26 13:49;34.38;KJFK 261351Z 26024G32KT 10SM BKN042 BKN090 07/00 A2957 RMK AO2 PK WND 27032/1349 SLP013 T00670000;JFK;
LGA;26.01.2023;13:51;26.01.2023 13:51;45.00;30.00;55.43;260.00;10.00;0.00;29.55;1000.70;10.00;21.00;FEW;BKN;BKN;;2400.00;3500.00;10000.00;;;;;;29.00;260.00;2023-01-26 13:13;39.27;KLGA 261351Z 26010G21KT 10SM FEW024 BKN035 BKN100 07/M01 A2955 RMK AO2 PK WND 26029/1313 SLP007 T00721011;LGA;
JFK;26.01.2023;14:51;26.01.2023 14:51;44.00;33.00;65.02;260.00;19.00;0.00;29.61;1002.50;10.00;29.00;BKN;;;;3900.00;;;;;;;;33.00;250.00;2023-01-26 14:22;35.44;KJFK 261451Z 26019G29KT 10SM BKN039 07/01 A2961 RMK AO2 PK WND 25033/1422 SLP025 T00670006 53034;JFK;
LGA;26.01.2023;14:51;26.01.2023 14:51;44.00;28.90;54.85;260.00;18.00;0.00;29.58;1001.80;10.00;29.00;FEW;BKN;BKN;;2500.00;4000.00;10000.00;;;;;;33.00;260.00;2023-01-26 14:26;35.68;KLGA 261451Z 26018G29KT 10SM FEW025 BKN040 BKN100 07/M02 A2958 RMK AO2 PK WND 26033/1426 SLP018 T00671017 52034;LGA;
LGA;26.01.2023;15:51;26.01.2023 15:51;44.00;28.00;52.86;260.00;19.00;0.00;29.60;1002.30;10.00;28.00;OVC;;;;4100.00;;;;;;;;34.00;250.00;2023-01-26 15:29;35.44;KLGA 261551Z 26019G28KT 10SM OVC041 07/M02 A2960 RMK AO2 PK WND 25034/1529 SLP023 T00671022;LGA;
JFK;26.01.2023;15:51;26.01.2023 15:51;44.00;30.90;59.50;260.00;17.00;0.00;29.62;1003.00;10.00;28.00;BKN;;;;4200.00;;;;;;;;34.00;270.00;2023-01-26 15:16;35.93;KJFK 261551Z 26017G28KT 10SM BKN042 07/M01 A2962 RMK AO2 PK WND 27034/1516 SLP030 T00671006;JFK;
JFK;26.01.2023;16:51;26.01.2023 16:51;44.00;28.90;54.85;270.00;23.00;0.00;29.63;1003.20;10.00;32.00;BKN;;;;4400.00;;;;;;;;35.00;280.00;2023-01-26 16:27;34.58;KJFK 261651Z 27023G32KT 10SM BKN044 07/M02 A2963 RMK AO2 PK WND 28035/1627 SLP032 T00671017;JFK;
LGA;26.01.2023;16:51;26.01.2023 16:51;44.00;27.00;50.73;260.00;17.00;0.00;29.61;1002.60;10.00;30.00;OVC;;;;4400.00;;;;;;;;33.00;260.00;2023-01-26 16:34;35.93;KLGA 261651Z 26017G30KT 10SM OVC044 07/M03 A2961 RMK AO2 PK WND 26033/1634 SLP026 T00671028;LGA;
JFK;26.01.2023;17:51;26.01.2023 17:51;44.00;28.90;54.85;270.00;24.00;0.00;29.64;1003.50;10.00;31.00;BKN;;;;4400.00;;;;;;;;37.00;260.00;2023-01-26 17:01;34.38;KJFK 261751Z 27024G31KT 10SM BKN044 07/M02 A2964 RMK AO2 PK WND 26037/1701 SLP035 T00671017 10072 20061 51010;JFK;
LGA;26.01.2023;17:51;26.01.2023 17:51;44.00;24.10;44.98;260.00;20.00;0.00;29.61;1002.70;10.00;32.00;OVC;;;;4600.00;;;;;;;;32.00;240.00;2023-01-26 17:47;35.21;KLGA 261751Z 26020G32KT 10SM OVC046 07/M04 A2961 RMK AO2 PK WND 24032/1747 SLP027 T00671044 10083 20067 51009;LGA;
JFK;26.01.2023;18:51;26.01.2023 18:51;44.00;27.00;50.73;270.00;20.00;0.00;29.65;1004.00;10.00;36.00;BKN;;;;4600.00;;;;;;;;36.00;270.00;2023-01-26 18:42;35.21;KJFK 261851Z 27020G36KT 10SM BKN046 07/M03 A2965 RMK AO2 PK WND 27036/1842 SLP040 T00671028;JFK;
LGA;26.01.2023;18:51;26.01.2023 18:51;45.00;23.00;41.50;270.00;18.00;0.00;29.63;1003.30;10.00;27.00;BKN;;;;4800.00;;;;;;;;36.00;270.00;2023-01-26 18:30;36.86;KLGA 261851Z 27018G27KT 10SM BKN048 07/M05 A2963 RMK AO2 PK WND 27036/1830 SLP033 T00721050;LGA;
JFK;26.01.2023;19:51;26.01.2023 19:51;44.00;27.00;50.73;270.00;22.00;0.00;29.68;1004.80;10.00;32.00;BKN;BKN;;;5000.00;25000.00;;;;;;;33.00;270.00;2023-01-26 19:30;34.78;KJFK 261951Z 27022G32KT 10SM BKN050 BKN250 07/M03 A2968 RMK AO2 PK WND 27033/1930 SLP048 T00671028;JFK;
LGA;26.01.2023;19:51;26.01.2023 19:51;44.00;24.10;44.98;250.00;23.00;0.00;29.65;1004.00;10.00;29.00;BKN;;;;5000.00;;;;;;;;30.00;260.00;2023-01-26 19:32;34.58;KLGA 261951Z 25023G29KT 10SM BKN050 07/M04 A2965 RMK AO2 PK WND 26030/1932 SLP040 T00671044;LGA;
LGA;26.01.2023;20:51;26.01.2023 20:51;44.00;24.10;44.98;270.00;18.00;0.00;29.69;1005.40;10.00;29.00;BKN;;;;5000.00;;;;;;;;33.00;270.00;2023-01-26 20:20;35.68;KLGA 262051Z 27018G29KT 10SM BKN050 07/M04 A2969 RMK AO2 PK WND 27033/2020 SLP054 T00671044 53027;LGA;
JFK;26.01.2023;20:51;26.01.2023 20:51;44.00;27.00;50.73;270.00;23.00;0.00;29.71;1006.10;10.00;30.00;BKN;;;;5000.00;;;;;;;;35.00;270.00;2023-01-26 19:52;34.58;KJFK 262051Z 27023G30KT 10SM BKN050 07/M03 A2971 RMK AO2 PK WND 27035/1952 SLP061 T00671028 53026;JFK;
LGA;26.01.2023;21:51;26.01.2023 21:51;44.00;23.00;42.95;260.00;15.00;0.00;29.73;1006.70;10.00;28.00;BKN;;;;5000.00;;;;;;;;33.00;280.00;2023-01-26 21:41;36.47;KLGA 262151Z 26015G28KT 10SM BKN050 07/M05 A2973 RMK AO2 PK WND 28033/2141 SLP067 T00671050;LGA;
JFK;26.01.2023;21:51;26.01.2023 21:51;43.00;25.00;48.70;270.00;23.00;0.00;29.75;1007.40;10.00;31.00;BKN;;;;5000.00;;;;;;;;34.00;270.00;2023-01-26 21:41;33.10;KJFK 262151Z 27023G31KT 10SM BKN050 06/M04 A2975 RMK AO2 PK WND 27034/2141 SLP074 T00611039;JFK;
LGA;26.01.2023;22:51;26.01.2023 22:51;44.00;23.00;42.95;260.00;17.00;0.00;29.77;1007.90;10.00;27.00;BKN;;;;6000.00;;;;;;;;29.00;270.00;2023-01-26 22:23;35.93;KLGA 262251Z 26017G27KT 10SM BKN060 07/M05 A2977 RMK AO2 PK WND 27029/2223 SLP079 T00671050;LGA;
JFK;26.01.2023;22:51;26.01.2023 22:51;43.00;25.00;48.70;270.00;21.00;0.00;29.78;1008.50;10.00;28.00;BKN;;;;5500.00;;;;;;;;29.00;260.00;2023-01-26 22:21;33.52;KJFK 262251Z 27021G28KT 10SM BKN055 06/M04 A2978 RMK AO2 PK WND 26029/2221 SLP085 T00611039;JFK;
JFK;26.01.2023;23:51;26.01.2023 23:51;42.00;26.10;52.78;260.00;19.00;0.00;29.82;1009.70;10.00;25.00;BKN;;;;6000.00;;;;;;;;30.00;260.00;2023-01-26 22:52;32.79;KJFK 262351Z 26019G25KT 10SM BKN060 06/M03 A2982 RMK AO2 PK WND 26030/2252 SLP097 T00561033 10067 20056 51037;JFK;
LGA;26.01.2023;23:51;26.01.2023 23:51;43.00;21.90;42.77;260.00;16.00;0.00;29.80;1009.00;10.00;21.00;BKN;;;;6000.00;;;;;;;;27.00;270.00;2023-01-26 23:41;34.76;KLGA 262351Z 26016G21KT 10SM BKN060 06/M06 A2980 RMK AO2 PK WND 27027/2341 SLP090 T00611056 10072 20061 51035;LGA;
JFK;27.01.2023;0:51;27.01.2023 00:51;42.00;26.10;52.78;270.00;21.00;0.00;29.85;1010.70;10.00;28.00;SCT;;;;5500.00;;;;;;;;31.00;270.00;2023-01-26 23:57;32.32;KJFK 270051Z 27021G28KT 10SM SCT055 06/M03 A2985 RMK AO2 PK WND 27031/2357 SLP107 T00561033;JFK;
LGA;27.01.2023;0:51;27.01.2023 00:51;43.00;23.00;44.80;270.00;17.00;0.00;29.82;1009.90;10.00;27.00;BKN;;;;6000.00;;;;;;;;27.00;260.00;2023-01-27 00:45;34.49;KLGA 270051Z 27017G27KT 10SM BKN060 06/M05 A2982 RMK AO2 PK WND 26027/0045 SLP099 T00611050;LGA;
LGA;27.01.2023;1:51;27.01.2023 01:51;42.00;23.00;46.37;250.00;14.00;0.00;29.85;1010.60;10.00;21.00;BKN;;;;6000.00;;;;;;;;28.00;260.00;2023-01-27 01:14;34.18;KLGA 270151Z 25014G21KT 10SM BKN060 06/M05 A2985 RMK AO2 PK WND 26028/0114 SLP106 T00561050;LGA;
JFK;27.01.2023;1:51;27.01.2023 01:51;40.00;27.00;59.65;250.00;13.00;0.00;29.87;1011.40;10.00;;SCT;;;;5500.00;;;;;;;;29.00;260.00;2023-01-27 01:12;31.69;KJFK 270151Z 25013KT 10SM SCT055 04/M03 A2987 RMK AO2 PK WND 26029/0112 SLP114 T00441028;JFK;
LGA;27.01.2023;2:51;27.01.2023 02:51;41.00;24.10;50.67;260.00;13.00;0.00;29.87;1011.30;10.00;19.00;SCT;;;;6000.00;;;;;;;;;;;33.10;KLGA 270251Z 26013G19KT 10SM SCT060 05/M04 A2987 RMK AO2 SLP113 T00501044 51024;LGA;
JFK;27.01.2023;2:51;27.01.2023 02:51;40.00;27.00;59.65;260.00;14.00;0.00;29.89;1012.10;10.00;;FEW;;;;5500.00;;;;;;;;;;;31.35;KJFK 270251Z 26014KT 10SM FEW055 04/M03 A2989 RMK AO2 SLP121 T00441028 51023;JFK;
LGA;27.01.2023;3:51;27.01.2023 03:51;41.00;24.10;50.67;250.00;14.00;0.00;29.88;1011.80;10.00;21.00;OVC;;;;6500.00;;;;;;;;;;;32.76;KLGA 270351Z 25014G21KT 10SM OVC065 05/M04 A2988 RMK AO2 SLP118 T00501044;LGA;
JFK;27.01.2023;3:51;27.01.2023 03:51;40.00;27.00;59.65;260.00;14.00;0.00;29.90;1012.40;10.00;;BKN;;;;6000.00;;;;;;;;;;;31.35;KJFK 270351Z 26014KT 10SM BKN060 04/M03 A2990 RMK AO2 SLP124 T00441028;JFK;
JFK;27.01.2023;4:51;27.01.2023 04:51;40.00;27.00;59.65;260.00;15.00;0.00;29.91;1012.90;10.00;;BKN;;;;6500.00;;;;;;;;;;;31.02;KJFK 270451Z 26015KT 10SM BKN065 04/M03 A2991 RMK AO2 SLP129 T00441028 401110044;JFK;
LGA;27.01.2023;4:51;27.01.2023 04:51;41.00;24.10;50.67;260.00;12.00;0.00;29.90;1012.30;10.00;;OVC;;;;6000.00;;;;;;;;;;;33.46;KLGA 270451Z 26012KT 10SM OVC060 05/M04 A2990 RMK AO2 SLP123 T00501044 401220050;LGA;
LGA;27.01.2023;5:51;27.01.2023 05:51;41.00;24.10;50.67;260.00;13.00;0.00;29.92;1013.00;10.00;20.00;BKN;;;;5500.00;;;;;;;;;;;33.10;KLGA 270551Z 26013G20KT 10SM BKN055 05/M04 A2992 RMK AO2 SLP130 T00501044 10067 20050 53017;LGA;
JFK;27.01.2023;5:51;27.01.2023 05:51;39.00;28.00;64.37;250.00;15.00;0.00;29.94;1013.70;10.00;;BKN;;;;6500.00;;;;;;;;;;;29.85;KJFK 270551Z 25015KT 10SM BKN065 04/M02 A2994 RMK AO2 SLP137 T00391022 10056 20039 53016;JFK;
JFK;27.01.2023;6:51;27.01.2023 06:51;38.00;28.00;67.20;260.00;14.00;0.00;29.97;1014.70;10.00;;FEW;;;;6500.00;;;;;;;;;;;28.77;KJFK 270651Z 26014KT 10SM FEW065 03/M02 A2997 RMK AO2 SLP147 T00331022;JFK;
LGA;27.01.2023;6:51;27.01.2023 06:51;40.00;24.10;52.88;250.00;12.00;0.00;29.95;1014.00;10.00;18.00;SCT;;;;6500.00;;;;;;;;;;;32.06;KLGA 270651Z 25012G18KT 10SM SCT065 04/M04 A2995 RMK AO2 SLP140 T00441044;LGA;
LGA;27.01.2023;7:51;27.01.2023 07:51;39.00;24.10;54.77;260.00;14.00;0.00;29.97;1014.90;10.00;;FEW;;;;6500.00;;;;;;;;;;;30.19;KLGA 270751Z 26014KT 10SM FEW065 04/M04 A2997 RMK AO2 SLP149 T00391044;LGA;
JFK;27.01.2023;7:51;27.01.2023 07:51;37.00;28.00;69.63;260.00;14.00;0.00;29.99;1015.50;10.00;;FEW;;;;6500.00;;;;;;;;;;;27.61;KJFK 270751Z 26014KT 10SM FEW065 03/M02 A2999 RMK AO2 SLP155 T00281022;JFK;
JFK;27.01.2023;8:51;27.01.2023 08:51;36.00;28.00;72.43;270.00;12.00;0.00;30.00;1015.90;10.00;;FEW;;;;6500.00;;;;;;;;;;;27.09;KJFK 270851Z 27012KT 10SM FEW065 02/M02 A3000 RMK AO2 SLP159 T00221022 51022;JFK;
LGA;27.01.2023;8:51;27.01.2023 08:51;38.00;24.10;57.18;260.00;10.00;0.00;29.98;1015.30;10.00;19.00;CLR;;;;;;;;;;;;;;;30.37;KLGA 270851Z 26010G19KT 10SM CLR 03/M04 A2998 RMK AO2 SLP153 T00331044 51023;LGA;
JFK;27.01.2023;9:51;27.01.2023 09:51;36.00;27.00;69.51;270.00;9.00;0.00;30.01;1016.00;10.00;;FEW;;;;6500.00;;;;;;;;;;;28.49;KJFK 270951Z 27009KT 10SM FEW065 02/M03 A3001 RMK AO2 SLP160 T00221028;JFK;
LGA;27.01.2023;9:51;27.01.2023 09:51;38.00;24.10;57.18;270.00;10.00;0.00;29.99;1015.50;10.00;;FEW;;;;5500.00;;;;;;;;;;;30.37;KLGA 270951Z 27010KT 10SM FEW055 03/M04 A2999 RMK AO2 SLP155 T00331044;LGA;
LGA;27.01.2023;10:51;27.01.2023 10:51;37.00;24.10;59.24;280.00;7.00;0.00;30.02;1016.40;10.00;;FEW;;;;5500.00;;;;;;;;;;;30.87;KLGA 271051Z 28007KT 10SM FEW055 03/M04 A3002 RMK AO2 SLP164 T00281044;LGA;
JFK;27.01.2023;10:51;27.01.2023 10:51;35.00;28.00;75.06;260.00;7.00;0.00;30.03;1016.90;10.00;;FEW;;;;6500.00;;;;;;;;;;;28.56;KJFK 271051Z 26007KT 10SM FEW065 02/M02 A3003 RMK AO2 SLP169 T00171022;JFK;
JFK;27.01.2023;11:51;27.01.2023 11:51;36.00;28.00;72.43;280.00;9.00;0.00;30.06;1017.90;10.00;;FEW;FEW;;;4000.00;6500.00;;;;;;;;;;28.49;KJFK 271151Z 28009KT 10SM FEW040 FEW065 02/M02 A3006 RMK AO2 SLP179 T00221022 10039 20006 53020;JFK;
LGA;27.01.2023;11:51;27.01.2023 11:51;38.00;25.00;59.36;290.00;8.00;0.00;30.05;1017.50;10.00;;FEW;;;;6000.00;;;;;;;;;;;31.38;KLGA 271151Z 29008KT 10SM FEW060 03/M04 A3005 RMK AO2 SLP175 T00331039 10050 20028 53022;LGA;
LGA;27.01.2023;12:51;27.01.2023 12:51;38.00;25.00;59.36;270.00;7.00;0.00;30.08;1018.40;10.00;;FEW;FEW;;;3500.00;6000.00;;;;;;;;;;31.97;KLGA 271251Z 27007KT 10SM FEW035 FEW060 03/M04 A3008 RMK AO2 SLP184 T00331039;LGA;
JFK;27.01.2023;12:51;27.01.2023 12:51;37.00;30.00;75.56;270.00;7.00;0.00;30.09;1018.90;10.00;;FEW;FEW;;;4000.00;6500.00;;;;;;;;;;30.87;KJFK 271251Z 27007KT 10SM FEW040 FEW065 03/M01 A3009 RMK AO2 SLP189 T00281011;JFK;
JFK;27.01.2023;13:51;27.01.2023 13:51;39.00;28.00;64.37;270.00;8.00;0.00;30.11;1019.60;10.00;;FEW;FEW;;;4000.00;6500.00;;;;;;;;;;32.74;KJFK 271351Z 27008KT 10SM FEW040 FEW065 04/M02 A3011 RMK AO2 SLP196 T00391022;JFK;
LGA;27.01.2023;13:51;27.01.2023 13:51;39.00;25.00;56.86;300.00;7.00;0.00;30.10;1019.20;10.00;;FEW;;;;5500.00;;;;;;;;;;;33.31;KLGA 271351Z 30007KT 10SM FEW055 04/M04 A3010 RMK AO2 SLP192 T00391039;LGA;
JFK;27.01.2023;14:51;27.01.2023 14:51;41.00;26.10;55.07;250.00;8.00;0.00;30.13;1020.20;10.00;;FEW;FEW;;;4200.00;6500.00;;;;;;;;;;35.20;KJFK 271451Z 25008KT 10SM FEW042 FEW065 05/M03 A3013 RMK AO2 SLP202 T00501033 51023;JFK;
LGA;27.01.2023;14:51;27.01.2023 14:51;41.00;21.00;44.47;;4.00;0.00;30.12;1019.70;10.00;;FEW;;;;5000.00;;;;;;;;;;;37.93;KLGA 271451Z VRB04KT 10SM FEW050 05/M06 A3012 RMK AO2 SLP197 T00501061 51023 $;LGA;
LGA;27.01.2023;15:51;27.01.2023 15:51;41.00;21.90;46.19;260.00;7.00;0.00;30.12;1019.90;10.00;14.00;SCT;BKN;;;4100.00;15000.00;;;;;;;;;;35.75;KLGA 271551Z COR 26007G14KT 10SM SCT041 BKN150 05/M06 A3012 RMK AO2 SLP199 T00501056 $;LGA;
JFK;27.01.2023;15:51;27.01.2023 15:51;42.00;24.10;48.56;250.00;9.00;0.00;30.13;1020.40;10.00;;SCT;SCT;;;4800.00;6500.00;;;;;;;;;;36.07;KJFK 271551Z 25009KT 10SM SCT048 SCT065 06/M04 A3013 RMK AO2 SLP204 T00561044;JFK;
JFK;27.01.2023;16:51;27.01.2023 16:51;42.00;28.00;57.08;230.00;9.00;0.00;30.11;1019.50;10.00;;SCT;BKN;;;4700.00;7000.00;;;;;;;;;;36.07;KJFK 271651Z 23009KT 10SM SCT047 BKN070 06/M02 A3011 RMK AO2 SLP195 T00561022;JFK;
LGA;27.01.2023;16:51;27.01.2023 16:51;43.00;23.00;44.80;260.00;7.00;0.00;30.09;1018.80;10.00;;BKN;BKN;;;4100.00;4900.00;;;;;;;;;;38.19;KLGA 271651Z 26007KT 10SM BKN041 BKN049 06/M05 A3009 RMK AO2 SLP188 T00611050 $;LGA;
LGA;27.01.2023;17:51;27.01.2023 17:51;43.00;23.00;44.80;220.00;5.00;0.00;30.07;1018.10;10.00;;SCT;BKN;;;4000.00;6500.00;;;;;;;;;;39.46;KLGA 271751Z 22005KT 10SM SCT040 BKN065 06/M05 A3007 RMK AO2 SLP181 T00611050 10067 20028 58017 $;LGA;
JFK;27.01.2023;17:51;27.01.2023 17:51;42.00;28.90;59.22;230.00;10.00;0.00;30.09;1018.90;10.00;;FEW;BKN;;;4700.00;6500.00;;;;;;;;;;35.63;KJFK 271751Z 23010KT 10SM FEW047 BKN065 06/M02 A3009 RMK AO2 SLP189 VCSH N-NE T00561017 10061 20017 58013;JFK;
JFK;27.01.2023;18:51;27.01.2023 18:51;43.00;21.90;42.77;230.00;13.00;0.00;30.09;1018.90;10.00;;FEW;BKN;;;5000.00;8000.00;;;;;;;;;;35.66;KJFK 271851Z 23013KT 10SM FEW050 BKN080 06/M06 A3009 RMK AO2 SLP189 T00611056;JFK;
LGA;27.01.2023;18:51;27.01.2023 18:51;42.00;21.00;42.62;250.00;10.00;0.00;30.07;1018.20;10.00;;SCT;BKN;;;4200.00;6500.00;;;;;;;;;;35.63;KLGA 271851Z 25010KT 10SM SCT042 BKN065 06/M06 A3007 RMK AO2 SLP182 T00561061 $;LGA;
LGA;27.01.2023;19:51;27.01.2023 19:51;42.00;17.10;36.07;250.00;9.00;0.00;30.08;1018.70;10.00;;BKN;BKN;;;5500.00;7500.00;;;;;;;;;;36.07;KLGA 271951Z 25009KT 10SM BKN055 BKN075 06/M08 A3008 RMK AO2 SLP187 T00561083 $;LGA;
JFK;27.01.2023;19:51;27.01.2023 19:51;42.00;23.00;46.37;230.00;13.00;0.00;30.10;1019.30;10.00;;FEW;BKN;;;5000.00;7500.00;;;;;;;;;;34.51;KJFK 271951Z COR 23013KT 10SM FEW050 BKN075 06/M05 A3010 RMK AO2 SLP193 VCSH NW-NE T00561050;JFK;
JFK;27.01.2023;20:51;27.01.2023 20:51;40.00;21.90;48.21;230.00;13.00;0.00;30.12;1019.90;10.00;;FEW;BKN;;;5000.00;7500.00;;;;;;;;;;31.69;KJFK 272051Z 23013KT 10SM FEW050 BKN075 04/M06 A3012 RMK AO2 SLP199 T00441056 53010;JFK;
LGA;27.01.2023;20:51;27.01.2023 20:51;42.00;18.00;37.49;270.00;10.00;0.00;30.10;1019.30;10.00;;FEW;BKN;;;5500.00;7000.00;;;;;;;;;;35.63;KLGA 272051Z 27010KT 10SM FEW055 BKN070 06/M08 A3010 RMK AO2 SLP193 T00561078 53013 $;LGA;
LGA;27.01.2023;21:51;27.01.2023 21:51;41.00;18.00;39.12;280.00;7.00;0.00;30.12;1019.80;10.00;;BKN;BKN;;;5500.00;7000.00;;;;;;;;;;35.75;KLGA 272151Z 28007KT 10SM BKN055 BKN070 05/M08 A3012 RMK AO2 SLP198 VIRGA OHD T00501078 $;LGA;
JFK;27.01.2023;21:51;27.01.2023 21:51;39.00;23.00;52.30;240.00;12.00;0.00;30.14;1020.50;10.00;;FEW;SCT;;;5000.00;7500.00;;;;;;;;;;30.91;KJFK 272151Z 24012KT 10SM FEW050 SCT075 04/M05 A3014 RMK AO2 SLP205 T00391050;JFK;
JFK;27.01.2023;22:51;27.01.2023 22:51;38.00;24.10;57.18;230.00;11.00;0.00;30.16;1021.20;10.00;;FEW;SCT;;;5000.00;7000.00;;;;;;;;;;29.92;KJFK 272251Z 23011KT 10SM FEW050 SCT070 03/M04 A3016 RMK AO2 SLP212 T00331044;JFK;
LGA;27.01.2023;22:51;27.01.2023 22:51;40.00;18.00;40.82;250.00;8.00;0.00;30.14;1020.50;10.00;;SCT;BKN;BKN;;5500.00;7000.00;25000.00;;;;;;;;;33.84;KLGA 272251Z 25008KT 10SM SCT055 BKN070 BKN250 04/M08 A3014 RMK AO2 SLP205 VIRGA W T00441078;LGA;
JFK;27.01.2023;23:51;27.01.2023 23:51;36.00;24.10;61.62;230.00;9.00;0.00;30.17;1021.50;10.00;;FEW;FEW;;;5000.00;7000.00;;;;;;;;;;28.49;KJFK 272351Z 23009KT 10SM FEW050 FEW070 02/M04 A3017 RMK AO2 SLP215 T00221044 10061 20022 51016;JFK;
LGA;27.01.2023;23:51;27.01.2023 23:51;39.00;19.00;44.14;280.00;4.00;0.00;30.15;1020.90;10.00;;FEW;BKN;;;5500.00;7000.00;;;;;;;;;;35.59;KLGA 272351Z 28004KT 10SM FEW055 BKN070 04/M07 A3015 RMK AO2 SLP209 T00391072 10067 20039 51016;LGA;
LGA;28.01.2023;0:51;28.01.2023 00:51;39.00;19.00;44.14;240.00;7.00;0.00;30.16;1021.40;10.00;;FEW;;;;5000.00;;;;;;;;;;;33.31;KLGA 280051Z 24007KT 10SM FEW050 04/M07 A3016 RMK AO2 SLP214 T00391072;LGA;
JFK;28.01.2023;0:51;28.01.2023 00:51;34.00;25.00;69.28;230.00;7.00;0.00;30.18;1021.90;10.00;;FEW;FEW;;;5000.00;7000.00;;;;;;;;;;27.22;KJFK 280051Z 23007KT 10SM FEW050 FEW070 01/M04 A3018 RMK AO2 SLP219 T00111039 $;JFK;
LGA;28.01.2023;1:51;28.01.2023 01:51;39.00;19.00;44.14;240.00;7.00;0.00;30.20;1022.60;10.00;;FEW;SCT;;;4700.00;10000.00;;;;;;;;;;33.31;KLGA 280151Z 24007KT 10SM FEW047 SCT100 04/M07 A3020 RMK AO2 SLP226 T00391072;LGA;
JFK;28.01.2023;1:51;28.01.2023 01:51;37.00;24.10;59.24;250.00;10.00;0.00;30.22;1023.20;10.00;;FEW;SCT;;;5500.00;7000.00;;;;;;;;;;29.24;KJFK 280151Z 25010KT 10SM FEW055 SCT070 03/M04 A3022 RMK AO2 SLP232 T00281044 $;JFK;
JFK;28.01.2023;2:51;28.01.2023 02:51;35.00;26.10;69.41;230.00;9.00;0.00;30.22;1023.10;10.00;;FEW;;;;7000.00;;;;;;;;;;;27.37;KJFK 280251Z 23009KT 10SM FEW070 02/M03 A3022 RMK AO2 SLP231 T00171033 50017 $;JFK;
LGA;28.01.2023;2:51;28.01.2023 02:51;38.00;19.00;46.08;220.00;6.00;0.00;30.20;1022.50;10.00;;FEW;FEW;;;5000.00;20000.00;;;;;;;;;;32.64;KLGA 280251Z 22006KT 10SM FEW050 FEW200 03/M07 A3020 RMK AO2 SLP225 T00331072 50017;LGA;
LGA;28.01.2023;3:51;28.01.2023 03:51;38.00;17.10;42.46;220.00;7.00;0.00;30.18;1022.00;10.00;;FEW;FEW;;;6000.00;20000.00;;;;;;;;;;31.97;KLGA 280351Z 22007KT 10SM FEW060 FEW200 03/M08 A3018 RMK AO2 SLP220 T00331083;LGA;
JFK;28.01.2023;3:51;28.01.2023 03:51;34.00;24.10;66.72;220.00;10.00;0.00;30.20;1022.70;10.00;;FEW;;;;6500.00;;;;;;;;;;;25.48;KJFK 280351Z 22010KT 10SM FEW065 01/M04 A3020 RMK AO2 SLP227 T00111044 $;JFK;
JFK;28.01.2023;4:51;28.01.2023 04:51;32.00;24.10;72.30;220.00;8.00;0.00;30.19;1022.20;10.00;;FEW;;;;7000.00;;;;;;;;;;;24.11;KJFK 280451Z 22008KT 10SM FEW070 00/M04 A3019 RMK AO2 SLP222 T00001044 400610000 $;JFK;
LGA;28.01.2023;4:51;28.01.2023 04:51;37.00;16.00;41.95;210.00;7.00;0.00;30.17;1021.50;10.00;;SCT;;;;15000.00;;;;;;;;;;;30.87;KLGA 280451Z 21007KT 10SM SCT150 03/M09 A3017 RMK AO2 SLP215 T00281089 400670028;LGA;
LGA;28.01.2023;5:51;28.01.2023 05:51;37.00;19.00;47.74;210.00;7.00;0.00;30.17;1021.60;10.00;;FEW;;;;15000.00;;;;;;;;;;;30.87;KLGA 280551Z 21007KT 10SM FEW150 03/M07 A3017 RMK AO2 SLP216 T00281072 10044 20022 55009;LGA;
JFK;28.01.2023;5:51;28.01.2023 05:51;34.00;23.00;63.72;210.00;9.00;0.00;30.19;1022.20;10.00;;FEW;;;;9000.00;;;;;;;;;;;26.00;KJFK 280551Z 21009KT 10SM FEW090 01/M05 A3019 RMK AO2 SLP222 T00111050 10028 20000 56010 $;JFK;
LGA;28.01.2023;6:51;28.01.2023 06:51;37.00;18.00;45.73;200.00;9.00;0.00;30.18;1022.00;10.00;;FEW;;;;13000.00;;;;;;;;;;;29.73;KLGA 280651Z 20009KT 10SM FEW130 03/M08 A3018 RMK AO2 SLP220 T00281078;LGA;
JFK;28.01.2023;6:51;28.01.2023 06:51;36.00;24.10;61.62;210.00;12.00;0.00;30.20;1022.70;10.00;;FEW;;;;9500.00;;;;;;;;;;;27.09;KJFK 280651Z 21012KT 10SM FEW095 02/M04 A3020 RMK AO2 SLP227 T00221044 $;JFK;
JFK;28.01.2023;7:51;28.01.2023 07:51;38.00;25.00;59.36;210.00;18.00;0.00;30.20;1022.60;10.00;21.00;SCT;;;;11000.00;;;;;;;;;;;27.52;KJFK 280751Z 21018G21KT 10SM SCT110 03/M04 A3020 RMK AO2 SLP226 T00331039 $;JFK;
LGA;28.01.2023;7:51;28.01.2023 07:51;37.00;19.00;47.74;200.00;7.00;0.00;30.18;1021.80;10.00;;BKN;OVC;;;8500.00;11000.00;;;;;;;;;;30.87;KLGA 280751Z 20007KT 10SM BKN085 OVC110 03/M07 A3018 RMK AO2 SLP218 T00281072;LGA;
JFK;28.01.2023;8:51;28.01.2023 08:51;39.00;25.00;56.86;210.00;20.00;0.00;30.21;1022.80;10.00;;OVC;;;;9000.00;;;;;;;;;;;28.44;KJFK 280851Z 21020KT 10SM OVC090 04/M04 A3021 RMK AO2 SLP228 T00391039 51006 $;JFK;
LGA;28.01.2023;8:51;28.01.2023 08:51;38.00;19.00;46.08;210.00;11.00;0.00;30.18;1021.90;10.00;19.00;OVC;;;;7000.00;;;;;;;;;;;29.92;KLGA 280851Z 21011G19KT 10SM OVC070 03/M07 A3018 RMK AO2 SLP219 T00331072 51003;LGA;
LGA;28.01.2023;9:51;28.01.2023 09:51;39.00;19.90;45.87;200.00;11.00;0.00;30.18;1021.80;10.00;;SCT;BKN;;;6500.00;11000.00;;;;;;;;;;31.31;KLGA 280951Z COR 20011KT 10SM SCT065 BKN110 04/M07 A3018 RMK AO2 SLP218 T00391067;LGA;
JFK;28.01.2023;9:51;28.01.2023 09:51;39.00;27.00;61.78;210.00;15.00;0.00;30.20;1022.70;10.00;;BKN;OVC;;;8000.00;9500.00;;;;;;;;;;29.85;KJFK 280951Z 21015KT 10SM BKN080 OVC095 04/M03 A3020 RMK AO2 SLP227 T00391028 $;JFK;
LGA;28.01.2023;10:51;28.01.2023 10:51;38.00;19.90;47.89;200.00;9.00;0.00;30.18;1021.90;10.00;;SCT;BKN;;;6500.00;9500.00;;;;;;;;;;30.85;KLGA 281051Z 20009KT 10SM SCT065 BKN095 03/M07 A3018 RMK AO2 SLP219 T00331067;LGA;
JFK;28.01.2023;10:51;28.01.2023 10:51;39.00;27.00;61.78;210.00;12.00;0.00;30.20;1022.60;10.00;;SCT;BKN;;;7500.00;10000.00;;;;;;;;;;30.91;KJFK 281051Z 21012KT 10SM SCT075 BKN100 04/M03 A3020 RMK AO2 SLP226 T00391028 $;JFK;
LGA;28.01.2023;11:51;28.01.2023 11:51;39.00;21.00;48.06;210.00;10.00;0.00;30.18;1022.10;10.00;17.00;SCT;BKN;;;6500.00;9000.00;;;;;;;;;;31.75;KLGA 281151Z 21010G17KT 10SM SCT065 BKN090 04/M06 A3018 RMK AO2 SLP221 T00391061 10039 20022 53002;LGA;
JFK;28.01.2023;11:51;28.01.2023 11:51;39.00;27.00;61.78;220.00;10.00;0.00;30.21;1023.00;10.00;;SCT;BKN;;;7500.00;8500.00;;;;;;;;;;31.75;KJFK 281151Z 22010KT 10SM SCT075 BKN085 04/M03 A3021 RMK AO2 SLP230 T00391028 10039 20006 53002 $;JFK;
LGA;28.01.2023;12:51;28.01.2023 12:51;39.00;21.90;49.93;220.00;10.00;0.00;30.20;1022.60;10.00;;BKN;;;;8500.00;;;;;;;;;;;31.75;KLGA 281251Z 22010KT 10SM BKN085 04/M06 A3020 RMK AO2 SLP226 T00391056;LGA;
JFK;28.01.2023;12:51;28.01.2023 12:51;38.00;27.00;64.49;220.00;12.00;0.00;30.22;1023.30;10.00;;SCT;BKN;;;7500.00;9000.00;;;;;;;;;;29.51;KJFK 281251Z 22012KT 10SM SCT075 BKN090 03/M03 A3022 RMK AO2 SLP233 T00331028 $;JFK;
JFK;28.01.2023;13:51;28.01.2023 13:51;40.00;28.00;62.15;240.00;12.00;0.00;30.24;1024.00;10.00;;FEW;;;;7000.00;;;;;;;;;;;32.06;KJFK 281351Z 24012KT 10SM FEW070 04/M02 A3024 RMK AO2 SLP240 T00441022 $;JFK;
LGA;28.01.2023;13:51;28.01.2023 13:51;40.00;23.00;50.50;220.00;10.00;0.00;30.22;1023.20;10.00;;SCT;;;;7000.00;;;;;;;;;;;32.87;KLGA 281351Z 22010KT 10SM SCT070 04/M05 A3022 RMK AO2 SLP232 T00441050;LGA;
JFK;28.01.2023;14:51;28.01.2023 14:51;42.00;28.90;59.22;240.00;12.00;0.00;30.27;1024.90;10.00;;FEW;;;;7000.00;;;;;;;;;;;34.86;KJFK 281451Z 24012KT 10SM FEW070 06/M02 A3027 RMK AO2 SLP249 T00561017 53019 $;JFK;
LGA;28.01.2023;14:51;28.01.2023 14:51;43.00;23.00;44.80;220.00;11.00;0.00;30.25;1024.10;10.00;17.00;FEW;;;;7000.00;;;;;;;;;;;36.37;KLGA 281451Z 22011G17KT 10SM FEW070 06/M05 A3025 RMK AO2 SLP241 T00611050 53021;LGA;
JFK;28.01.2023;15:51;28.01.2023 15:51;45.00;28.90;53.00;230.00;11.00;0.00;30.27;1025.00;10.00;;FEW;;;;7000.00;;;;;;;;;;;38.89;KJFK 281551Z 23011KT 10SM FEW070 07/M02 A3027 RMK AO2 SLP250 T00721017 $;JFK;
LGA;28.01.2023;15:51;28.01.2023 15:51;46.00;24.10;41.84;210.00;10.00;0.00;30.25;1024.30;10.00;16.00;FEW;FEW;;;7000.00;25000.00;;;;;;;;;;40.52;KLGA 281551Z 21010G16KT 10SM FEW070 FEW250 08/M04 A3025 RMK AO2 SLP243 T00781044;LGA;
LGA;28.01.2023;16:51;28.01.2023 16:51;50.00;24.10;36.01;240.00;12.00;0.00;30.23;1023.60;10.00;21.00;FEW;BKN;;;7000.00;25000.00;;;;;;;;;;50.00;KLGA 281651Z 24012G21KT 10SM FEW070 BKN250 10/M04 A3023 RMK AO2 SLP236 T01001044;LGA;
JFK;28.01.2023;16:51;28.01.2023 16:51;49.00;30.00;47.85;230.00;12.00;0.00;30.25;1024.30;10.00;;SCT;SCT;;;7000.00;25000.00;;;;;;;;;;43.51;KJFK 281651Z 23012KT 10SM SCT070 SCT250 09/M01 A3025 RMK AO2 SLP243 T00941011 $;JFK;
JFK;28.01.2023;17:51;28.01.2023 17:51;51.00;30.00;44.09;240.00;16.00;0.00;30.24;1023.80;10.00;;SCT;BKN;;;7000.00;25000.00;;;;;;;;;;51.10;KJFK 281751Z 24016KT 10SM SCT070 BKN250 11/M01 A3024 RMK AO2 SLP238 T01061011 10106 20022 58011 $;JFK;
LGA;28.01.2023;17:51;28.01.2023 17:51;51.00;21.00;30.34;280.00;17.00;0.00;30.22;1023.30;10.00;;FEW;BKN;;;7000.00;25000.00;;;;;;;;;;51.10;KLGA 281751Z 28017KT 10SM FEW070 BKN250 11/M06 A3022 RMK AO2 SLP233 T01061061 10106 20039 58009;LGA;
JFK;28.01.2023;18:51;28.01.2023 18:51;51.00;26.10;37.57;260.00;16.00;0.00;30.22;1023.30;10.00;22.00;SCT;BKN;;;7000.00;25000.00;;;;;;;;;;51.10;KJFK 281851Z 26016G22KT 10SM SCT070 BKN250 11/M03 A3022 RMK AO2 SLP233 T01061033 $;JFK;
LGA;28.01.2023;18:51;28.01.2023 18:51;52.00;21.90;30.49;250.00;13.00;0.00;30.21;1022.80;10.00;;FEW;BKN;;;7000.00;25000.00;;;;;;;;;;52.00;KLGA 281851Z 25013KT 10SM FEW070 BKN250 11/M06 A3021 RMK AO2 SLP228 T01111056;LGA;
JFK;28.01.2023;19:51;28.01.2023 19:51;51.00;27.00;38.99;260.00;12.00;0.00;30.24;1023.90;10.00;;FEW;BKN;;;7000.00;25000.00;;;;;;;;;;51.10;KJFK 281951Z 26012KT 10SM FEW070 BKN250 11/M03 A3024 RMK AO2 SLP239 T01061028 $;JFK;
LGA;28.01.2023;19:51;28.01.2023 19:51;52.00;21.90;30.49;260.00;9.00;0.00;30.22;1023.30;10.00;17.00;FEW;BKN;;;7500.00;25000.00;;;;;;;;;;52.00;KLGA 281951Z 26009G17KT 10SM FEW075 BKN250 11/M06 A3022 RMK AO2 SLP233 T01111056;LGA;
LGA;28.01.2023;20:51;28.01.2023 20:51;52.00;19.90;28.01;270.00;13.00;0.00;30.24;1023.90;10.00;;FEW;BKN;BKN;;7500.00;17000.00;25000.00;;;;;;;;;52.00;KLGA 282051Z 27013KT 10SM FEW075 BKN170 BKN250 11/M07 A3024 RMK AO2 SLP239 T01111067 53006;LGA;
JFK;28.01.2023;20:51;28.01.2023 20:51;49.00;30.90;49.63;240.00;7.00;0.00;30.25;1024.30;10.00;;FEW;BKN;BKN;;7000.00;20000.00;25000.00;;;;;;;;;45.38;KJFK 282051Z 24007KT 10SM FEW070 BKN200 BKN250 09/M01 A3025 RMK AO2 SLP243 T00941006 53005 $;JFK;
JFK;28.01.2023;21:51;28.01.2023 21:51;47.00;32.00;55.94;230.00;11.00;0.00;30.27;1025.00;10.00;;FEW;BKN;BKN;;7000.00;20000.00;25000.00;;;;;;;;;41.30;KJFK 282151Z 23011KT 10SM FEW070 BKN200 BKN250 08/00 A3027 RMK AO2 SLP250 T00830000 $;JFK;
LGA;28.01.2023;21:51;28.01.2023 21:51;51.00;21.00;30.34;260.00;7.00;0.00;30.25;1024.40;10.00;;FEW;BKN;;;7500.00;16000.00;;;;;;;;;;51.10;KLGA 282151Z 26007KT 10SM FEW075 BKN160 11/M06 A3025 RMK AO2 SLP244 T01061061;LGA;
LGA;28.01.2023;22:51;28.01.2023 22:51;50.00;21.90;32.83;240.00;6.00;0.00;30.27;1025.10;10.00;;FEW;BKN;;;7000.00;16000.00;;;;;;;;;;50.00;KLGA 282251Z 24006KT 10SM FEW070 BKN160 10/M06 A3027 RMK AO2 SLP251 T01001056;LGA;
JFK;28.01.2023;22:51;28.01.2023 22:51;45.00;33.00;62.83;220.00;8.00;0.00;30.29;1025.80;10.00;;BKN;BKN;;;18000.00;25000.00;;;;;;;;;;40.13;KJFK 282251Z 22008KT 10SM BKN180 BKN250 07/01 A3029 RMK AO2 SLP258 T00720006 $;JFK;
LGA;28.01.2023;23:51;28.01.2023 23:51;50.00;24.10;36.01;230.00;6.00;0.00;30.30;1025.90;10.00;;FEW;BKN;;;7000.00;17000.00;;;;;;;;;;50.00;KLGA 282351Z 23006KT 10SM FEW070 BKN170 10/M04 A3030 RMK AO2 SLP259 T01001044 10111 20100 53020;LGA;
JFK;28.01.2023;23:51;28.01.2023 23:51;46.00;32.00;57.87;220.00;10.00;0.00;30.32;1026.50;10.00;;BKN;;;;17000.00;;;;;;;;;;;40.52;KJFK 282351Z 22010KT 10SM BKN170 08/00 A3032 RMK AO2 SLP265 T00780000 10117 20072 52022 $;JFK;
LGA;29.01.2023;0:51;29.01.2023 00:51;50.00;25.00;37.39;220.00;9.00;0.00;30.30;1026.00;10.00;;BKN;;;;17000.00;;;;;;;;;;;50.00;KLGA 290051Z 22009KT 10SM BKN170 10/M04 A3030 RMK AO2 SLP260 T01001039;LGA;
JFK;29.01.2023;0:51;29.01.2023 00:51;44.00;32.00;62.21;220.00;8.00;0.00;30.32;1026.80;10.00;;BKN;;;;17000.00;;;;;;;;;;;39.02;KJFK 290051Z 22008KT 10SM BKN170 07/00 A3032 RMK AO2 SLP268 T00670000 $;JFK;
LGA;29.01.2023;1:51;29.01.2023 01:51;49.00;26.10;40.77;230.00;8.00;0.00;30.31;1026.30;10.00;;BKN;;;;17000.00;;;;;;;;;;;44.93;KLGA 290151Z 23008KT 10SM BKN170 09/M03 A3031 RMK AO2 SLP263 T00941033;LGA;
JFK;29.01.2023;1:51;29.01.2023 01:51;45.00;32.00;60.11;220.00;10.00;0.00;30.33;1026.90;10.00;;BKN;;;;17000.00;;;;;;;;;;;39.27;KJFK 290151Z 22010KT 10SM BKN170 07/00 A3033 RMK AO2 SLP269 T00720000 $;JFK;
JFK;29.01.2023;2:51;29.01.2023 02:51;42.00;30.90;64.24;220.00;8.00;0.00;30.34;1027.30;10.00;;BKN;;;;17000.00;;;;;;;;;;;36.55;KJFK 290251Z 22008KT 10SM BKN170 06/M01 A3034 RMK AO2 SLP273 T00561006 53007 $;JFK;
LGA;29.01.2023;2:51;29.01.2023 02:51;49.00;26.10;40.77;220.00;7.00;0.00;30.32;1026.60;10.00;;BKN;;;;17000.00;;;;;;;;;;;45.38;KLGA 290251Z 22007KT 10SM BKN170 09/M03 A3032 RMK AO2 SLP266 T00941033 53007;LGA;
LGA;29.01.2023;3:51;29.01.2023 03:51;48.00;26.10;42.17;230.00;7.00;0.00;30.32;1026.60;10.00;;BKN;;;;17000.00;;;;;;;;;;;44.28;KLGA 290351Z 23007KT 10SM BKN170 09/M03 A3032 RMK AO2 SLP266 T00891033;LGA;
JFK;29.01.2023;3:51;29.01.2023 03:51;41.00;33.00;73.25;190.00;4.00;0.00;30.34;1027.30;10.00;;BKN;;;;18000.00;;;;;;;;;;;37.93;KJFK 290351Z 19004KT 10SM BKN180 05/01 A3034 RMK AO2 SLP273 T00500006 $;JFK;
LGA;29.01.2023;4:51;29.01.2023 04:51;48.00;26.10;42.17;210.00;6.00;0.00;30.31;1026.40;10.00;;BKN;;;;18000.00;;;;;;;;;;;44.80;KLGA 290451Z 21006KT 10SM BKN180 09/M03 A3031 RMK AO2 SLP264 T00891033 401110022;LGA;
JFK;29.01.2023;4:51;29.01.2023 04:51;40.00;35.00;82.80;210.00;7.00;0.00;30.34;1027.20;10.00;;BKN;;;;17000.00;;;;;;;;;;;34.41;KJFK 290451Z 21007KT 10SM BKN170 04/02 A3034 RMK AO2 SLP272 T00440017 401170006 $;JFK;
JFK;29.01.2023;5:51;29.01.2023 05:51;39.00;33.00;79.17;200.00;6.00;0.00;30.33;1026.90;10.00;;BKN;;;;17000.00;;;;;;;;;;;33.96;KJFK 290551Z 20006KT 10SM BKN170 04/01 A3033 RMK AO2 SLP269 T00390006 10083 20033 58004 $;JFK;
LGA;29.01.2023;5:51;29.01.2023 05:51;47.00;26.10;43.95;210.00;7.00;0.00;30.30;1026.10;10.00;;BKN;;;;18000.00;;;;;;;;;;;42.94;KLGA 290551Z 21007KT 10SM BKN180 08/M03 A3030 RMK AO2 SLP261 T00831033 10100 20083 58005;LGA;
LGA;29.01.2023;6:51;29.01.2023 06:51;46.00;26.10;45.47;200.00;6.00;0.00;30.31;1026.30;10.00;;SCT;;;;17000.00;;;;;;;;;;;42.39;KLGA 290651Z 20006KT 10SM SCT170 08/M03 A3031 RMK AO2 SLP263 T00781033;LGA;
JFK;29.01.2023;6:51;29.01.2023 06:51;40.00;34.00;79.25;190.00;5.00;0.00;30.33;1027.00;10.00;;BKN;;;;17000.00;;;;;;;;;;;35.78;KJFK 290651Z 19005KT 10SM BKN170 04/01 A3033 RMK AO2 SLP270 T00440011 $;JFK;
JFK;29.01.2023;7:51;29.01.2023 07:51;38.00;33.00;82.66;170.00;4.00;0.00;30.33;1026.90;10.00;;SCT;;;;18000.00;;;;;;;;;;;34.31;KJFK 290751Z 17004KT 10SM SCT180 03/01 A3033 RMK AO2 SLP269 T00330006 $;JFK;
LGA;29.01.2023;7:51;29.01.2023 07:51;42.00;28.00;57.08;170.00;4.00;0.00;30.31;1026.30;10.00;;SCT;;;;17000.00;;;;;;;;;;;39.21;KLGA 290751Z 17004KT 10SM SCT170 06/M02 A3031 RMK AO2 SLP263 T00561022;LGA;
LGA;29.01.2023;8:51;29.01.2023 08:51;42.00;28.90;59.22;170.00;5.00;0.00;30.31;1026.20;10.00;;SCT;;;;17000.00;;;;;;;;;;;38.39;KLGA 290851Z 17005KT 10SM SCT170 06/M02 A3031 RMK AO2 SLP262 T00561017 50001;LGA;
JFK;29.01.2023;8:51;29.01.2023 08:51;38.00;34.00;85.69;160.00;3.00;0.00;30.32;1026.70;10.00;;FEW;;;;20000.00;;;;;;;;;;;35.43;KJFK 290851Z 16003KT 10SM FEW200 03/01 A3032 RMK AO2 SLP267 T00330011 58002 $;JFK;
LGA;29.01.2023;9:51;29.01.2023 09:51;42.00;28.90;59.22;170.00;4.00;0.00;30.30;1025.90;10.00;;SCT;;;;20000.00;;;;;;;;;;;39.21;KLGA 290951Z 17004KT 10SM SCT200 06/M02 A3030 RMK AO2 SLP259 T00561017;LGA;
JFK;29.01.2023;9:51;29.01.2023 09:51;39.00;37.00;92.45;0.00;0.00;0.00;30.31;1026.40;10.00;;SCT;;;;19000.00;;;;;;;;;;;39.00;KJFK 290951Z 00000KT 10SM SCT190 04/03 A3031 RMK AO2 SLP264 T00390028 $;JFK;
LGA;29.01.2023;10:51;29.01.2023 10:51;42.00;30.90;64.24;150.00;4.00;0.00;30.29;1025.60;10.00;;SCT;;;;20000.00;;;;;;;;;;;39.21;KLGA 291051Z 15004KT 10SM SCT200 06/M01 A3029 RMK AO2 SLP256 T00561006;LGA;
JFK;29.01.2023;10:51;29.01.2023 10:51;36.00;36.00;100.00;100.00;3.00;0.00;30.31;1026.30;10.00;;SCT;;;;20000.00;;;;;;;;;;;33.26;KJFK 291051Z 10003KT 10SM SCT200 02/02 A3031 RMK AO2 SLP263 T00220022 $;JFK;
JFK;29.01.2023;11:51;29.01.2023 11:51;39.00;38.00;95.78;130.00;6.00;0.00;30.30;1026.00;10.00;;FEW;BKN;;;20000.00;25000.00;;;;;;;;;;33.96;KJFK 291151Z 13006KT 10SM FEW200 BKN250 04/03 A3030 RMK AO2 SLP260 T00390033 10044 20017 56007 $;JFK;
LGA;29.01.2023;11:51;29.01.2023 11:51;42.00;32.00;67.17;160.00;5.00;0.00;30.28;1025.40;10.00;;BKN;;;;20000.00;;;;;;;;;;;38.39;KLGA 291151Z 16005KT 10SM BKN200 06/00 A3028 RMK AO2 SLP254 T00560000 10083 20039 56008;LGA;
JFK;29.01.2023;12:51;29.01.2023 12:51;42.00;41.00;95.84;180.00;5.00;0.00;30.29;1025.70;10.00;;FEW;BKN;;;20000.00;25000.00;;;;;;;;;;38.39;KJFK 291251Z 18005KT 10SM FEW200 BKN250 06/05 A3029 RMK AO2 SLP257 T00560050 $;JFK;
LGA;29.01.2023;12:51;29.01.2023 12:51;43.00;38.00;82.04;170.00;7.00;0.00;30.28;1025.20;10.00;;FEW;BKN;BKN;;9000.00;20000.00;25000.00;;;;;;;;;38.19;KLGA 291251Z 17007KT 10SM FEW090 BKN200 BKN250 06/03 A3028 RMK AO2 SLP252 T00610033;LGA;
JFK;29.01.2023;13:51;29.01.2023 13:51;45.00;42.00;89.49;200.00;9.00;0.00;30.30;1026.10;10.00;;FEW;FEW;SCT;BKN;10000.00;15000.00;21000.00;25000.00;;;;;;;;39.68;KJFK 291351Z 20009KT 10SM FEW100 FEW150 SCT210 BKN250 07/06 A3030 RMK AO2 SLP261 T00720056 $;JFK;
LGA;29.01.2023;13:51;29.01.2023 13:51;45.00;39.00;79.36;180.00;8.00;0.00;30.28;1025.20;10.00;;FEW;BKN;BKN;;9000.00;17000.00;25000.00;;;;;;;;;40.13;KLGA 291351Z 18008KT 10SM FEW090 BKN170 BKN250 07/04 A3028 RMK AO2 SLP252 T00720039;LGA;
LGA;29.01.2023;14:51;29.01.2023 14:51;46.00;36.00;67.90;190.00;8.00;0.00;30.26;1024.70;10.00;;FEW;BKN;BKN;;8000.00;15000.00;25000.00;;;;;;;;;41.36;KLGA 291451Z 19008KT 10SM FEW080 BKN150 BKN250 08/02 A3026 RMK AO2 SLP247 T00780022 58007;LGA;
JFK;29.01.2023;14:51;29.01.2023 14:51;45.00;41.00;85.77;190.00;11.00;0.00;30.29;1025.50;10.00;;FEW;FEW;BKN;BKN;10000.00;14000.00;19000.00;25000.00;;;;;;;;38.89;KJFK 291451Z 19011KT 10SM FEW100 FEW140 BKN190 BKN250 07/05 A3029 RMK AO2 SLP255 T00720050 58004 $;JFK;
JFK;29.01.2023;15:51;29.01.2023 15:51;46.00;40.00;79.13;190.00;11.00;0.00;30.25;1024.40;10.00;;FEW;FEW;BKN;BKN;10000.00;14000.00;21000.00;25000.00;;;;;;;;40.16;KJFK 291551Z 19011KT 10SM FEW100 FEW140 BKN210 BKN250 08/04 A3025 RMK AO2 SLP244 T00780044 $;JFK;
LGA;29.01.2023;15:51;29.01.2023 15:51;49.00;33.00;54.24;200.00;8.00;0.00;30.23;1023.60;10.00;;FEW;BKN;BKN;;9000.00;15000.00;25000.00;;;;;;;;;44.93;KLGA 291551Z 20008KT 10SM FEW090 BKN150 BKN250 09/01 A3023 RMK AO2 SLP236 T00940006;LGA;
JFK;29.01.2023;16:51;29.01.2023 16:51;46.00;39.00;76.40;180.00;11.00;0.00;30.20;1022.60;10.00;;FEW;SCT;BKN;BKN;7000.00;12000.00;20000.00;25000.00;;;;;;;;40.16;KJFK 291651Z 18011KT 10SM FEW070 SCT120 BKN200 BKN250 08/04 A3020 RMK AO2 PRESFR SLP226 T00780039 $;JFK;
LGA;29.01.2023;16:51;29.01.2023 16:51;51.00;28.90;42.16;180.00;8.00;0.00;30.18;1022.00;10.00;;FEW;BKN;BKN;;8500.00;13000.00;25000.00;;;;;;;;;51.10;KLGA 291651Z 18008KT 10SM FEW085 BKN130 BKN250 11/M02 A3018 RMK AO2 SLP220 T01061017;LGA;
JFK;29.01.2023;17:51;29.01.2023 17:51;46.00;40.00;79.13;180.00;13.00;0.00;30.16;1021.40;10.00;;FEW;SCT;BKN;BKN;5000.00;12000.00;20000.00;25000.00;;;;;;;;39.50;KJFK 291751Z 18013KT 10SM FEW050 SCT120 BKN200 BKN250 08/04 A3016 RMK AO2 SLP214 T00780044 10083 20039 58042 $;JFK;
LGA;29.01.2023;17:51;29.01.2023 17:51;50.00;33.00;52.06;170.00;10.00;0.00;30.14;1020.60;10.00;;FEW;BKN;OVC;;8000.00;11000.00;13000.00;;;;;;;;;50.00;KLGA 291751Z 17010KT 10SM FEW080 BKN110 OVC130 10/01 A3014 RMK AO2 SLP206 T01000006 10106 20056 58041;LGA;
JFK;29.01.2023;18:51;29.01.2023 18:51;46.00;39.00;76.40;190.00;15.00;0.00;30.14;1020.50;10.00;;FEW;BKN;BKN;OVC;4500.00;10000.00;20000.00;25000.00;;;;;;;;38.93;KJFK 291851Z 19015KT 10SM FEW045 BKN100 BKN200 OVC250 08/04 A3014 RMK AO2 SLP205 T00780039 $;JFK;
LGA;29.01.2023;18:51;29.01.2023 18:51;49.00;36.00;60.88;170.00;8.00;0.00;30.12;1019.70;10.00;;FEW;BKN;OVC;;8000.00;10000.00;12000.00;;;;;;;;;44.93;KLGA 291851Z 17008KT 10SM FEW080 BKN100 OVC120 09/02 A3012 RMK AO2 SLP197 T00940022;LGA;
JFK;29.01.2023;19:51;29.01.2023 19:51;46.00;39.00;76.40;190.00;16.00;0.00;30.13;1020.10;10.00;;FEW;BKN;OVC;;5000.00;9000.00;20000.00;;;;;;;;;38.67;KJFK 291951Z 19016KT 10SM FEW050 BKN090 OVC200 08/04 A3013 RMK AO2 SLP201 T00780039 $;JFK;
LGA;29.01.2023;19:51;29.01.2023 19:51;51.00;33.00;49.98;170.00;9.00;0.00;30.10;1019.20;10.00;;FEW;BKN;OVC;;8000.00;10000.00;12000.00;;;;;;;;;51.10;KLGA 291951Z 17009KT 10SM FEW080 BKN100 OVC120 11/01 A3010 RMK AO2 SLP192 T01060006;LGA;
JFK;29.01.2023;20:51;29.01.2023 20:51;46.00;39.00;76.40;180.00;14.00;T;30.12;1019.90;10.00;;FEW;BKN;BKN;OVC;5000.00;8000.00;15000.00;20000.00;;;;;;;;39.21;KJFK 292051Z 18014KT 10SM FEW050 BKN080 BKN150 OVC200 08/04 A3012 RMK AO2 RAB30E39 SLP199 P0000 60000 T00780039 56015 $;JFK;
LGA;29.01.2023;20:51;29.01.2023 20:51;50.00;34.00;53.97;190.00;7.00;0.00;30.11;1019.40;10.00;;FEW;BKN;OVC;;6000.00;9000.00;13000.00;;;;;;;;;50.00;KLGA 292051Z 19007KT 10SM FEW060 BKN090 OVC130 10/01 A3011 RMK AO2 SLP194 T01000011 55011;LGA;
LGA;29.01.2023;21:51;29.01.2023 21:51;52.00;28.00;39.30;210.00;13.00;0.00;30.10;1019.20;10.00;19.00;FEW;BKN;BKN;OVC;5500.00;7500.00;9000.00;15000.00;;;;;;;;52.00;KLGA 292151Z 21013G19KT 10SM FEW055 BKN075 BKN090 OVC150 11/M02 A3010 RMK AO2 SLP192 T01111022;LGA;
JFK;29.01.2023;21:51;29.01.2023 21:51;46.00;40.00;79.13;190.00;12.00;0.00;30.14;1020.60;10.00;;BKN;BKN;OVC;;7000.00;15000.00;20000.00;;;;;;;;;39.82;KJFK 292151Z 19012KT 10SM BKN070 BKN150 OVC200 08/04 A3014 RMK AO2 SLP206 T00780044 $;JFK;
JFK;29.01.2023;22:51;29.01.2023 22:51;45.00;40.00;82.19;190.00;11.00;0.00;30.13;1020.40;10.00;;BKN;BKN;BKN;;8000.00;15000.00;20000.00;;;;;;;;;38.89;KJFK 292251Z 19011KT 10SM BKN080 BKN150 BKN200 07/04 A3013 RMK AO2 SLP204 T00720044 $;JFK;
LGA;29.01.2023;22:51;29.01.2023 22:51;51.00;30.00;44.09;230.00;12.00;0.00;30.11;1019.60;10.00;;FEW;BKN;BKN;OVC;6000.00;7500.00;9500.00;18000.00;;;;;;;;51.10;KLGA 292251Z 23012KT 10SM FEW060 BKN075 BKN095 OVC180 11/M01 A3011 RMK AO2 SLP196 T01061011;LGA;
LGA;29.01.2023;23:51;29.01.2023 23:51;50.00;32.00;49.81;230.00;12.00;0.00;30.12;1020.00;10.00;;BKN;BKN;BKN;;6500.00;9500.00;20000.00;;;;;;;;;50.00;KLGA 292351Z 23012KT 10SM BKN065 BKN095 BKN200 10/00 A3012 RMK AO2 SLP200 T01000000 10117 20094 53006;LGA;
JFK;29.01.2023;23:51;29.01.2023 23:51;45.00;39.00;79.36;230.00;11.00;T;30.14;1020.70;10.00;;BKN;BKN;BKN;;7000.00;8500.00;20000.00;;;;;;;;;38.89;KJFK 292351Z 23011KT 10SM BKN070 BKN085 BKN200 07/04 A3014 RMK AO2 RAB11E41 SLP207 P0000 60000 T00720039 10083 20067 51008 $;JFK;
JFK;30.01.2023;0:51;30.01.2023 00:51;46.00;38.00;73.18;230.00;11.00;T;30.13;1020.20;10.00;;SCT;BKN;;;6500.00;8000.00;;;;;;;;;;40.16;KJFK 300051Z 23011KT 10SM SCT065 BKN080 08/03 A3013 RMK AO2 RAB24E44 SLP202 P0000 T00780033 $;JFK;
LGA;30.01.2023;0:51;30.01.2023 00:51;50.00;32.00;49.81;230.00;6.00;0.00;30.10;1019.30;10.00;;BKN;BKN;BKN;;6500.00;9000.00;20000.00;;;;;;;;;50.00;KLGA 300051Z 23006KT 10SM BKN065 BKN090 BKN200 10/00 A3010 RMK AO2 PRESFR SLP193 T01000000;LGA;
JFK;30.01.2023;1:51;30.01.2023 01:51;46.00;38.00;73.18;240.00;12.00;0.00;30.16;1021.10;10.00;;BKN;;;;10000.00;;;;;;;;;;;39.82;KJFK 300151Z 24012KT 10SM BKN100 08/03 A3016 RMK AO2 SLP211 T00780033 $;JFK;
LGA;30.01.2023;1:51;30.01.2023 01:51;49.00;32.00;51.89;240.00;10.00;0.00;30.14;1020.60;10.00;;BKN;BKN;;;8500.00;20000.00;;;;;;;;;;44.16;KLGA 300151Z 24010KT 10SM BKN085 BKN200 09/00 A3014 RMK AO2 SLP206 T00940000;LGA;
JFK;30.01.2023;2:51;30.01.2023 02:51;44.00;38.00;78.66;240.00;9.00;0.00;30.16;1021.40;10.00;;BKN;BKN;;;11000.00;20000.00;;;;;;;;;;38.56;KJFK 300251Z 24009KT 10SM BKN110 BKN200 07/03 A3016 RMK AO2 SLP214 60000 T00670033 53006 $;JFK;
LGA;30.01.2023;2:51;30.01.2023 02:51;48.00;32.00;53.67;250.00;6.00;0.00;30.15;1020.90;10.00;;FEW;SCT;BKN;;6500.00;9500.00;20000.00;;;;;;;;;44.80;KLGA 300251Z 25006KT 10SM FEW065 SCT095 BKN200 09/00 A3015 RMK AO2 SLP209 T00890000 53009;LGA;
LGA;30.01.2023;3:51;30.01.2023 03:51;47.00;32.00;55.94;230.00;6.00;0.00;30.13;1020.40;10.00;;FEW;SCT;BKN;;4000.00;10000.00;20000.00;;;;;;;;;43.48;KLGA 300351Z 23006KT 10SM FEW040 SCT100 BKN200 08/00 A3013 RMK AO2 SLP204 T00830000;LGA;
JFK;30.01.2023;3:51;30.01.2023 03:51;44.00;37.00;75.93;240.00;8.00;0.00;30.16;1021.10;10.00;;FEW;BKN;;;10000.00;25000.00;;;;;;;;;;39.02;KJFK 300351Z 24008KT 10SM FEW100 BKN250 07/03 A3016 RMK AO2 SLP211 T00670028 $;JFK;
LGA;30.01.2023;4:51;30.01.2023 04:51;47.00;33.00;58.47;220.00;5.00;0.00;30.15;1020.80;10.00;;FEW;BKN;;;4000.00;20000.00;;;;;;;;;;44.09;KLGA 300451Z 22005KT 10SM FEW040 BKN200 08/01 A3015 RMK AO2 SLP208 T00830006 401170039;LGA;
JFK;30.01.2023;4:51;30.01.2023 04:51;41.00;37.00;85.54;230.00;8.00;0.00;30.16;1021.40;10.00;;FEW;OVC;;;9500.00;25000.00;;;;;;;;;;35.20;KJFK 300451Z 23008KT 10SM FEW095 OVC250 05/03 A3016 RMK AO2 SLP214 T00500028 400830017 $;JFK;
LGA;30.01.2023;5:51;30.01.2023 05:51;47.00;33.00;58.47;260.00;12.00;0.00;30.15;1020.80;10.00;17.00;FEW;BKN;;;3900.00;20000.00;;;;;;;;;;40.97;KLGA 300551Z 26012G17KT 10SM FEW039 BKN200 08/01 A3015 RMK AO2 SLP208 T00830006 10100 20078 56001;LGA;
JFK;30.01.2023;5:51;30.01.2023 05:51;43.00;37.00;79.19;250.00;8.00;0.00;30.16;1021.20;10.00;;OVC;;;;25000.00;;;;;;;;;;;37.66;KJFK 300551Z 25008KT 10SM OVC250 06/03 A3016 RMK AO2 SLP212 60000 T00610028 10083 20039 56001 $;JFK;
JFK;30.01.2023;6:51;30.01.2023 06:51;40.00;37.00;89.27;250.00;5.00;0.00;30.17;1021.60;10.00;;OVC;;;;25000.00;;;;;;;;;;;35.78;KJFK 300651Z 25005KT 10SM OVC250 04/03 A3017 RMK AO2 SLP216 T00440028 $;JFK;
LGA;30.01.2023;6:51;30.01.2023 06:51;45.00;32.00;60.11;230.00;5.00;0.00;30.15;1021.00;10.00;;FEW;BKN;;;3900.00;20000.00;;;;;;;;;;41.83;KLGA 300651Z 23005KT 10SM FEW039 BKN200 07/00 A3015 RMK AO2 SLP210 T00720000;LGA;
LGA;30.01.2023;7:51;30.01.2023 07:51;46.00;33.00;60.49;270.00;7.00;0.00;30.15;1020.90;10.00;;BKN;;;;20000.00;;;;;;;;;;;41.84;KLGA 300751Z 27007KT 10SM BKN200 08/01 A3015 RMK AO2 SLP209 T00780006;LGA;
JFK;30.01.2023;7:51;30.01.2023 07:51;40.00;37.00;89.27;250.00;7.00;0.00;30.16;1021.30;10.00;;OVC;;;;25000.00;;;;;;;;;;;34.41;KJFK 300751Z 25007KT 10SM OVC250 04/03 A3016 RMK AO2 SLP213 T00440028 $;JFK;
JFK;30.01.2023;8:51;30.01.2023 08:51;39.00;37.00;92.45;190.00;3.00;0.00;30.16;1021.30;10.00;;OVC;;;;25000.00;;;;;;;;;;;36.69;KJFK 300851Z 19003KT 10SM OVC250 04/03 A3016 RMK AO2 SLP213 T00390028 51001 $;JFK;
LGA;30.01.2023;8:51;30.01.2023 08:51;46.00;33.00;60.49;260.00;7.00;0.00;30.15;1020.80;10.00;;BKN;;;;25000.00;;;;;;;;;;;41.84;KLGA 300851Z 26007KT 10SM BKN250 08/01 A3015 RMK AO2 SLP208 T00780006 50000;LGA;
LGA;30.01.2023;9:51;30.01.2023 09:51;45.00;33.00;62.83;280.00;3.00;0.00;30.16;1021.20;10.00;;BKN;;;;25000.00;;;;;;;;;;;43.55;KLGA 300951Z 28003KT 10SM BKN250 07/01 A3016 RMK AO2 SLP212 T00720006;LGA;
JFK;30.01.2023;9:51;30.01.2023 09:51;38.00;35.00;89.53;240.00;5.00;0.00;30.18;1021.80;10.00;;OVC;;;;24000.00;;;;;;;;;;;33.40;KJFK 300951Z 24005KT 10SM OVC240 03/02 A3018 RMK AO2 SLP218 T00330017 $;JFK;
JFK;30.01.2023;10:51;30.01.2023 10:51;40.00;35.00;82.80;240.00;5.00;0.00;30.17;1021.60;10.00;;OVC;;;;23000.00;;;;;;;;;;;35.78;KJFK 301051Z 24005KT 10SM OVC230 04/02 A3017 RMK AO2 SLP216 T00440017 $;JFK;
LGA;30.01.2023;10:51;30.01.2023 10:51;45.00;33.00;62.83;310.00;6.00;0.00;30.15;1021.00;10.00;;OVC;;;;25000.00;;;;;;;;;;;41.19;KLGA 301051Z 31006KT 10SM OVC250 07/01 A3015 RMK AO2 SLP210 T00720006;LGA;
JFK;30.01.2023;11:51;30.01.2023 11:51;38.00;37.00;96.52;200.00;6.00;0.00;30.19;1022.30;10.00;;FEW;BKN;;;17000.00;22000.00;;;;;;;;;;32.64;KJFK 301151Z 20006KT 10SM FEW170 BKN220 03/03 A3019 RMK AO2 SLP223 T00330028 10061 20022 53010 $;JFK;
LGA;30.01.2023;11:51;30.01.2023 11:51;43.00;33.00;67.82;0.00;0.00;0.00;30.18;1021.80;10.00;;OVC;;;;25000.00;;;;;;;;;;;43.00;KLGA 301151Z 00000KT 10SM OVC250 06/01 A3018 RMK AO2 SLP218 T00610006 10083 20061 53010;LGA;
JFK;30.01.2023;12:51;30.01.2023 12:51;39.00;38.00;95.78;200.00;5.00;0.00;30.18;1022.10;10.00;;BKN;;;;21000.00;;;;;;;;;;;34.71;KJFK 301251Z 20005KT 10SM BKN210 04/03 A3018 RMK AO2 SLP221 T00390033 $;JFK;
LGA;30.01.2023;12:51;30.01.2023 12:51;45.00;34.00;65.13;0.00;0.00;0.00;30.16;1021.40;10.00;;OVC;;;;23000.00;;;;;;;;;;;45.00;KLGA 301251Z 00000KT 10SM OVC230 07/01 A3016 RMK AO2 SLP214 T00720011;LGA;
JFK;30.01.2023;13:51;30.01.2023 13:51;42.00;38.00;84.93;240.00;5.00;0.00;30.21;1022.80;10.00;;FEW;BKN;;;14000.00;19000.00;;;;;;;;;;38.39;KJFK 301351Z 24005KT 10SM FEW140 BKN190 06/03 A3021 RMK AO2 SLP228 T00560033 $;JFK;
LGA;30.01.2023;13:51;30.01.2023 13:51;45.00;35.00;68.05;180.00;4.00;0.00;30.19;1022.20;10.00;;BKN;;;;21000.00;;;;;;;;;;;42.60;KLGA 301351Z 18004KT 10SM BKN210 07/02 A3019 RMK AO2 SLP222 T00720017;LGA;
JFK;30.01.2023;14:51;30.01.2023 14:51;43.00;39.00;85.66;190.00;4.00;0.00;30.22;1023.20;10.00;;FEW;BKN;BKN;;14000.00;18000.00;25000.00;;;;;;;;;40.27;KJFK 301451Z 19004KT 10SM FEW140 BKN180 BKN250 06/04 A3022 RMK AO2 SLP232 T00610039 53009 $;JFK;
LGA;30.01.2023;14:51;30.01.2023 14:51;47.00;35.00;63.33;210.00;3.00;0.00;30.20;1022.70;10.00;;BKN;;;;20000.00;;;;;;;;;;;45.72;KLGA 301451Z 21003KT 10SM BKN200 08/02 A3020 RMK AO2 SLP227 T00830017 53009;LGA;
LGA;30.01.2023;15:51;30.01.2023 15:51;51.00;37.00;58.36;0.00;0.00;0.00;30.18;1022.00;10.00;;FEW;SCT;;;6000.00;20000.00;;;;;;;;;;51.10;KLGA 301551Z 00000KT 10SM FEW060 SCT200 11/03 A3018 RMK AO2 SLP220 T01060028;LGA;
JFK;30.01.2023;15:51;30.01.2023 15:51;46.00;39.00;76.40;250.00;4.00;0.00;30.20;1022.60;10.00;;SCT;SCT;BKN;;5500.00;14000.00;23000.00;;;;;;;;;43.77;KJFK 301551Z 25004KT 10SM SCT055 SCT140 BKN230 08/04 A3020 RMK AO2 SLP226 T00780039;JFK;
JFK;30.01.2023;16:51;30.01.2023 16:51;47.00;38.00;70.73;210.00;4.00;0.00;30.18;1021.80;10.00;;BKN;BKN;;;5500.00;23000.00;;;;;;;;;;44.82;KJFK 301651Z 21004KT 10SM BKN055 BKN230 08/03 A3018 RMK AO2 SLP218 T00830033;JFK;
LGA;30.01.2023;16:51;30.01.2023 16:51;52.00;35.00;52.36;200.00;8.00;0.00;30.15;1021.00;10.00;;SCT;BKN;;;6000.00;20000.00;;;;;;;;;;52.00;KLGA 301651Z 20008KT 10SM SCT060 BKN200 11/02 A3015 RMK AO2 SLP210 T01110017;LGA;
LGA;30.01.2023;17:51;30.01.2023 17:51;53.00;35.00;50.28;;4.00;0.00;30.13;1020.20;10.00;;FEW;BKN;BKN;;3500.00;6500.00;23000.00;;;;;;;;;53.10;KLGA 301751Z VRB04KT 10SM FEW035 BKN065 BKN230 12/02 A3013 RMK AO2 SLP202 T01170017 10122 20061 58025;LGA;
JFK;30.01.2023;17:51;30.01.2023 17:51;49.00;39.00;68.51;200.00;5.00;0.00;30.14;1020.70;10.00;;SCT;SCT;SCT;;5500.00;17000.00;25000.00;;;;;;;;;46.47;KJFK 301751Z 20005KT 10SM SCT055 SCT170 SCT250 09/04 A3014 RMK AO2 SLP207 T00940039 10094 20033 58026;JFK;
LGA;30.01.2023;18:51;30.01.2023 18:51;53.00;33.00;46.42;230.00;6.00;0.00;30.10;1019.30;10.00;;FEW;BKN;BKN;;4000.00;6500.00;25000.00;;;;;;;;;53.10;KLGA 301851Z 23006KT 10SM FEW040 BKN065 BKN250 12/01 A3010 RMK AO2 SLP193 T01170006;LGA;
JFK;30.01.2023;18:51;30.01.2023 18:51;49.00;38.00;65.62;210.00;5.00;0.00;30.12;1020.00;10.00;;FEW;BKN;BKN;;3500.00;6000.00;25000.00;;;;;;;;;46.47;KJFK 301851Z 21005KT 10SM FEW035 BKN060 BKN250 09/03 A3012 RMK AO2 SLP200 T00940033;JFK;
LGA;30.01.2023;19:51;30.01.2023 19:51;54.00;34.00;46.57;180.00;10.00;0.00;30.08;1018.60;10.00;;FEW;SCT;BKN;;4000.00;5500.00;25000.00;;;;;;;;;54.00;KLGA 301951Z 18010KT 10SM FEW040 SCT055 BKN250 12/01 A3008 RMK AO2 SLP186 T01220011;LGA;
JFK;30.01.2023;19:51;30.01.2023 19:51;50.00;39.00;65.75;210.00;4.00;0.00;30.11;1019.40;10.00;;FEW;FEW;SCT;;3500.00;6000.00;25000.00;;;;;;;;;50.00;KJFK 301951Z 21004KT 10SM FEW035 FEW060 SCT250 10/04 A3011 RMK AO2 SLP194 T01000039;JFK;
LGA;30.01.2023;20:51;30.01.2023 20:51;54.00;35.00;48.65;190.00;10.00;0.00;30.07;1018.30;10.00;;FEW;FEW;FEW;;4000.00;9000.00;25000.00;;;;;;;;;54.00;KLGA 302051Z 19010KT 10SM FEW040 FEW090 FEW250 12/02 A3007 RMK AO2 SLP183 T01220017 56019;LGA;
JFK;30.01.2023;20:51;30.01.2023 20:51;49.00;39.00;68.51;190.00;5.00;0.00;30.10;1019.20;10.00;;FEW;FEW;FEW;;3500.00;6000.00;25000.00;;;;;;;;;46.47;KJFK 302051Z 19005KT 10SM FEW035 FEW060 FEW250 09/04 A3010 RMK AO2 SLP192 T00940039 56015;JFK;
JFK;30.01.2023;21:51;30.01.2023 21:51;45.00;39.00;79.36;140.00;5.00;0.00;30.10;1019.10;10.00;;FEW;FEW;FEW;;3500.00;6000.00;25000.00;;;;;;;;;41.83;KJFK 302151Z 14005KT 10SM FEW035 FEW060 FEW250 07/04 A3010 RMK AO2 SLP191 T00720039;JFK;
LGA;30.01.2023;21:51;30.01.2023 21:51;51.00;36.00;56.10;170.00;9.00;0.00;30.07;1018.30;10.00;;FEW;FEW;;;4000.00;25000.00;;;;;;;;;;51.10;KLGA 302151Z 17009KT 10SM FEW040 FEW250 11/02 A3007 RMK AO2 SLP183 T01060022;LGA;
JFK;30.01.2023;22:51;30.01.2023 22:51;43.00;40.00;88.71;190.00;3.00;0.00;30.11;1019.60;10.00;;FEW;FEW;;;6000.00;25000.00;;;;;;;;;;41.26;KJFK 302251Z 19003KT 10SM FEW060 FEW250 06/04 A3011 RMK AO2 SLP196 T00610044;JFK;
LGA;30.01.2023;22:51;30.01.2023 22:51;48.00;36.00;62.97;190.00;8.00;0.00;30.09;1019.00;10.00;;FEW;SCT;;;5000.00;25000.00;;;;;;;;;;43.82;KLGA 302251Z 19008KT 10SM FEW050 SCT250 09/02 A3009 RMK AO2 SLP190 T00890022;LGA;
LGA;30.01.2023;23:51;30.01.2023 23:51;48.00;37.00;65.51;190.00;8.00;0.00;30.10;1019.20;10.00;;SCT;BKN;;;4100.00;25000.00;;;;;;;;;;43.82;KLGA 302351Z 19008KT 10SM SCT041 BKN250 09/03 A3010 RMK AO2 SLP192 T00890028 10122 20089 53009;LGA;
JFK;30.01.2023;23:51;30.01.2023 23:51;42.00;40.00;91.84;200.00;7.00;0.00;30.12;1019.80;10.00;;FEW;FEW;;;6000.00;25000.00;;;;;;;;;;37.09;KJFK 302351Z 20007KT 10SM FEW060 FEW250 06/04 A3012 RMK AO2 SLP198 T00560044 10111 20056 53006;JFK;
